[{"type":"way","id":52133801,"bounds":{"minlat":49.9995481,"minlon":8.2562346,"maxlat":50.0003912,"maxlon":8.2573234},"nodes":[263676587,1836665517,1836665512,2661586908,1880988620,1880988619,4161567014,1836665505,1836665506,4161544111,1836665502,4161544112,1836665499,1836665485,664302794,664302790,5542138896,5542138899,263676587],"geometry":[{"lat":50.0003912,"lon":8.2568984},{"lat":50.0003477,"lon":8.2569577},{"lat":50.0002631,"lon":8.2571129},{"lat":50.0002398,"lon":8.2571617},{"lat":50.0001624,"lon":8.2573234},{"lat":50.0000282,"lon":8.2571706},{"lat":50.000045,"lon":8.2571354},{"lat":50.0001545,"lon":8.2569056},{"lat":50.0001496,"lon":8.2568145},{"lat":50.0001117,"lon":8.2567191},{"lat":50.0000562,"lon":8.2565795},{"lat":50.0000343,"lon":8.2565656},{"lat":50.0000056,"lon":8.2565475},{"lat":49.9997194,"lon":8.2566646},{"lat":49.9995481,"lon":8.2564803},{"lat":50.0001111,"lon":8.2562346},{"lat":50.0002016,"lon":8.2564581},{"lat":50.0003038,"lon":8.2566823},{"lat":50.0003912,"lon":8.2568984}],"tags":{"addr:city":"Mainz","addr:country":"DE","addr:housenumber":"3-5","addr:postcode":"55122","addr:street":"Wallstraße","amenity":"doctors","building":"commercial",
    "email":"info@med-in-mainz.de","healthcare":"centre","name":"MED Facharztzentrum","toilets:wheelchair":"yes","unimainz:buildingId":"9182","website":"http://www.med-in-mainz.de/","wheelchair":"yes"},"markedAs":"OSM","timeStamp":"2020-05-11-09-44-54"},{"type":"way","id":114012953,"bounds":{"minlat":49.9967457,"minlon":8.2390034,"maxlat":49.9969213,"maxlon":8.2391849},"nodes":[1292127948,1292127902,1292128084,1292127988,1292127948],"geometry":[{"lat":49.9967657,"lon":8.2391849},{"lat":49.9967457,"lon":8.2390682},{"lat":49.9969012,"lon":8.2390034},{"lat":49.9969213,"lon":8.2391201},{"lat":49.9967657,"lon":8.2391849}],"tags":{"addr:city":"Mainz","addr:country":"DE","addr:housenumber":"18","addr:postcode":"55122","addr:street":"Albert-Einstein-Straße","amenity":"doctors","building":"yes","healthcare":"doctor","name":"Krusche","wheelchair":"limited"},"markedAs":"OSM","timeStamp":"2020-05-11-09-44-54"},{"type":"way","id":215255860,"bounds":{"minlat":50.0545241,"minlon":8.2960357,"maxlat":50.0548409,"maxlon":8.2965067},"nodes":[2246605734,2246605590,2246605818,2246605910,2246605734],"geometry":[{"lat":50.0546353,"lon":8.2965067},{"lat":50.0545241,"lon":8.2962683},{"lat":50.0547296,"lon":8.2960357},{"lat":50.0548409,"lon":8.2962741},{"lat":50.0546353,"lon":8.2965067}],"tags":{"addr:city":"Wiesbaden","addr:country":"DE","addr:housenumber":"8","addr:postcode":"65205","addr:street":"Bahnstraße","addr:suburb":"Erbenheim","amenity":"doctors","building":"yes",
        "email":"info@dr-med-zoeller.de","fax":"+49 611 719179","healthcare":"centre","healthcare:speciality":"general;acupuncture;internal","name":"MVZ Dr. med. Zöller","opening_hours":"Mo,Tu,Th 08:00-18:00; We,Fr 08:00-13:00","phone":"+49 611 719848","website":"https://www.dr-med-zoeller.de/"},"markedAs":"OSM","timeStamp":"2020-05-11-09-44-54"},{"type":"way","id":343039835,"bounds":{"minlat":50.0078265,"minlon":8.2977438,"maxlat":50.0080425,"maxlon":8.2986004},"nodes":[3499605714,3499605715,3499605716,3499605717,3499605718,3558572614,3558572613,3499605714],"geometry":[{"lat":50.0078269,"lon":8.2977438},{"lat":50.0078268,"lon":8.2980929},{"lat":50.0078265,"lon":8.2986002},{"lat":50.0080009,"lon":8.2986004},{"lat":50.0080012,"lon":8.2978995},{"lat":50.0080425,"lon":8.2978995},{"lat":50.0080425,"lon":8.297744},{"lat":50.0078269,"lon":8.2977438}],"tags":{"addr:housenumber":"53","addr:street":"Hochheimer Straße","amenity":"doctors","building":"retail","healthcare":"centre","name":"Medizinisches Versorgungszentrum AKK","website":"http://www.mvz-am-akk.de"},"markedAs":"OSM","timeStamp":"2020-05-11-09-44-54"},{"type":"way","id":343769822,"bounds":{"minlat":50.0066146,"minlon":8.3005642,"maxlat":50.0067348,"maxlon":8.300781},"nodes":[3505973282,3505973274,3505973266,5685173260,5666716283,5666716277,3505973278,5666716264,3505973282],"geometry":[{"lat":50.0067348,"lon":8.3007331},{"lat":50.0066582,"lon":8.300781},{"lat":50.0066146,"lon":8.3006121},{"lat":50.0066261,"lon":8.3006049},{"lat":50.0066499,"lon":8.30059},{"lat":50.0066866,"lon":8.3005671},{"lat":50.0066912,"lon":8.3005642},{"lat":50.0067107,"lon":8.3006398},{"lat":50.0067348,"lon":8.3007331}],"tags":{"addr:housenumber":"37","addr:street":"Rüsselsheimer Straße","amenity":"doctors","building":"yes","healthcare":"doctor","healthcare:speciality":"internal","name":"Karola Spiegelhoff","opening_hours":"Tu,Th 09:00-12:00,15:00-18:00; Mo,We,Fr 09:00-12:00; PH off","phone":"+49 6134 62114"},"markedAs":"OSM","timeStamp":"2020-05-11-09-44-54"},{"type":"way","id":343772095,"bounds":{"minlat":50.0072466,"minlon":8.2884687,"maxlat":50.0074546,"maxlon":8.2887604},"nodes":[3505995464,3505995456,3505995458,3505995467,3505995464],"geometry":[{"lat":50.0073986,"lon":8.2884687},{"lat":50.0072466,"lon":8.288589},{"lat":50.0073026,"lon":8.2887604},{"lat":50.0074546,"lon":8.2886401},{"lat":50.0073986,"lon":8.2884687}],"tags":{"addr:housenumber":"4","addr:street":"Admiral-Scheer-Straße","amenity":"doctors","building":"apartments","healthcare":"doctor","healthcare:speciality":"general","name":"Praxis Dr. Anschau","opening_hours":"Mo-Th 08:00-11:30; Mo,Tu,Th 15:00-17:00; Fr 08:30-11:00","operator":"Dr. med. Martina Anschau","phone":"+49 6134 63131","website":"https://www.dr-martina-anschau.com/","wheelchair":"no"},"markedAs":"OSM","timeStamp":"2020-05-11-09-44-54"},{"type":"node","id":357497191,"lat":49.9815568,"lon":8.268427,"tags":{"addr:city":"Mainz","addr:country":"DE","addr:housenumber":"10",
            "addr:postcode":"55131","addr:street":"Am Rodelberg","amenity":"doctors","fax":"+49 6131 603014","healthcare":"doctor","healthcare:speciality":"general;endocrinology;Sportmedizin","name":"Praxis für Allgemeinmedizin Diabetologie / Sportmedizin","opening_hours":"Mo-Fr 08:00-11:00, Mo,Tu,Th 15:00-17:00","operator":"Dr.med. Angela Minor","phone":"+49 6131 603012","website":"https://dr-minor-mainz.de/"},"markedAs":"OSM","timeStamp":"2020-05-11-09-44-54"},{"type":"way","id":380713059,"bounds":{"minlat":50.0013834,"minlon":8.2035169,"maxlat":50.0017895,"maxlon":8.2040788},"nodes":[3840361248,6630970159,6630970158,6630970157,6630970156,6630970155,6630970154,3840361215,3840361206,3840361245,3840361248],"geometry":[{"lat":50.0017895,"lon":8.2037001},{"lat":50.0016664,"lon":8.2038369},{"lat":50.0016817,"lon":8.20387},{"lat":50.0015967,"lon":8.2039644},{"lat":50.0015795,"lon":8.2039268},{"lat":50.0015349,"lon":8.2039763},{"lat":50.0015466,"lon":8.2040017},{"lat":50.0014771,"lon":8.2040788},{"lat":50.0013834,"lon":8.2038746},{"lat":50.0017055,"lon":8.2035169},{"lat":50.0017895,"lon":8.2037001}],"tags":{"addr:city":"Mainz","addr:country":"DE","addr:housenumber":"7","addr:postcode":"55124","addr:street":"Kapellenstraße","amenity":"doctors","building":"house","healthcare":"centre","name":"Gesundheitszentrum am Juxplatz","website":"http://www.gesundheitszentrum-am-juxplatz.de/","wheelchair":"yes"},"markedAs":"OSM","timeStamp":"2020-05-11-09-44-54"},{"type":"way","id":387596099,"bounds":{"minlat":49.9755948,"minlon":8.2782429,"maxlat":49.9757725,"maxlon":8.2785447},"nodes":[3908604981,3908604982,3908604983,3908604984,3908604981],"geometry":[{"lat":49.9757556,"lon":8.2782429},{"lat":49.9757725,"lon":8.2785211},{"lat":49.9756117,"lon":8.2785447},{"lat":49.9755948,"lon":8.2782666},{"lat":49.9757556,"lon":8.2782429}],"tags":{"addr:city":"Mainz","addr:housenumber":"2","addr:postcode":"55129","addr:street":"Elly-Beinhorn-Straße","amenity":"doctors","building":"yes","healthcare":"doctor","healthcare:speciality":"dermatology","name":"Hautarzt Dr. Kasten","opening_hours":"Mo-We 08:00-18:00; Th 08:00-19:30; Fr 08:00-16:30","website":"https://www.haut-mz.de/"},"markedAs":"OSM","timeStamp":"2020-05-11-09-44-54"},{"type":"node","id":504663299,"lat":49.9607848,"lon":8.2265507,"tags":{"addr:city":"Mainz","addr:housenumber":"14","addr:postcode":"55127","addr:street":"Ruhestraße","amenity":"doctors","email":"info@praxis-forg.de","fax":"+49 6131 791227","healthcare":"doctor","healthcare:speciality":"general","name":"Praxis Hans-Gerald H. Forg","opening_hours:covid19":"open","operator":"Dr. med. Hans-Gerald H. Forg","phone":"+49 6131 363772","website":"https://www.praxis-forg.de/","wheelchair":"no"},"markedAs":"OSM","timeStamp":"2020-05-11-09-44-54"},{"type":"node","id":512551169,"lat":49.9619837,"lon":8.22936,"tags":{"addr:city":"Mainz","addr:housenumber":"35","addr:postcode":"55127","addr:street":"Pfarrer-Dorn-Straße","amenity":"doctors","fax":"+49 6131 366053","healthcare":"doctor","healthcare:speciality":"general","name":"Praxis Norbert Reuter","operator":"Dr. med. Norbert Reuter","phone":"+49 6131 361031","website":"https://www.diabetes-praxis-reuter.de"},"markedAs":"OSM","timeStamp":"2020-05-11-09-44-54"},{"type":"node","id":541424410,"lat":49.9680248,"lon":8.2310619,"tags":{"addr:city":"Mainz","addr:housenumber":"20","addr:postcode":"55128","addr:street":"Haifa-Allee","amenity":"doctors","email":"praxis@kinderarzt-in-mainz.de","fax":"+49 6131 31553","healthcare":"doctor","healthcare:speciality":"general","name":"Gemeinschaftspraxis Dr. John-Koch & Dr. Mentz","operator":"Dr. Kristina John-Koch, Dr. Steffi Mentz","phone":"+49 6131 31777","website":"https://www.kinderarzt-in-mainz.de"},"markedAs":"OSM","timeStamp":"2020-05-11-09-44-54"},{"type":"node","id":667863404,"lat":49.9937402,"lon":8.2781942,"tags":{"addr:city":"Mainz","addr:country":"DE","addr:housenumber":"3","addr:postcode":"55116","addr:street":"Holzhofstraße","amenity":"doctors","description":"Dr. Katsaros, Dr. Rittgen","fax":"+49 6131 5762814","healthcare":"doctor","healthcare:speciality":"cardiology","layer":"3","name":"Kardiologische Praxis am Römischen Theater","operator":"Dr. Katsaros, Dr. Rittgen","phone":"+49 6131 576280","toilets:wheelchair":"yes","website":"http://www.herz-im-fokus.de/","wheelchair":"yes"},"markedAs":"OSM","timeStamp":"2020-05-11-09-44-54"},{"type":"node","id":786859126,"lat":49.9999611,"lon":8.3052122,"tags":{"addr:city":"Wiesbaden","addr:country":"DE","addr:housenumber":"141","addr:postcode":"55246","addr:street":"Hauptstraße","amenity":"doctors","contact:phone":"+49 6134 62141","fax":"+49 6134 260442","healthcare":"doctor","healthcare:speciality":"general","name":"Dr. Michael Lang (Facharzt für Allgemeinmedizin)","opening_hours":"\"Mo,Tu,Th 08:00-12:00, We,Fr 09:00-12:00, Mo 15:00-17:00, Tu 16:30-18:30, Th 16:00-18:30, Fr 15:00-18:00","operator":"Dr. Michael Lan","phone":"+49 6134 62141","wheelchair":"no"},"markedAs":"OSM","timeStamp":"2020-05-11-09-44-54"},{"type":"node","id":1182673807,"lat":49.9818196,"lon":8.2961075,"tags":{"addr:city":"Mainz","addr:housenumber":"2 b","addr:postcode":"55130","addr:street":"Göttelmannstraße","amenity":"doctors","fax":"+49 6131 835437","healthcare":"doctor",
                "healthcare:speciality":"general","name":"Praxis Dr. Dagmar Blank-Meyer","operator":"Dr. med. Dagmar Blank-Meyer","phone":"+49 6131 81311"},"markedAs":"OSM","timeStamp":"2020-05-11-09-44-54"},{"type":"node","id":1347763365,"lat":50.0451551,"lon":8.1869802,"tags":{"addr:city":"Wiesbaden","addr:housenumber":"2","addr:postcode":"65201","addr:street":"Oderstraße","amenity":"doctors","fax":"+49 611 21414","healthcare":"doctor","healthcare:speciality":"general;naturopathy","name":"Praxis Dr. Thomas Mainka","operator":"Dr. med. Thomas Mainka, Dr. med. Franziska Bruns, Herr Sultan","phone":"+49 611 21405","website":"http://www.thomas-mainka.de/"},"markedAs":"OSM","timeStamp":"2020-05-11-09-44-54"},{"type":"node","id":1447429390,"lat":49.9937294,"lon":8.2778395,"tags":{"addr:city":"Mainz","addr:housenumber":"5","addr:postcode":"55116","addr:street":"Holzhofstraße","amenity":"doctors","email":"kontakt@hausaerzte-mainz.de","fax":"+49 6131 237179","healthcare":"doctor","healthcare:speciality":"internal","name":"Lembens - Lembens - Polte, internistisch allgemeinmedizinische Gemeinschaftspraxis","operator":"Dr. med. Christoph Lembens, Elvira Maria Lembens","phone":"+49 6131 237178","website":"http://www.hausaerzte-mainz.de/","wheelchair":"yes"},"markedAs":"OSM","timeStamp":"2020-05-11-09-44-54"},{"type":"node","id":1579716710,"lat":49.9958899,"lon":8.2625052,"tags":{"addr:city":"Mainz","addr:housenumber":"10","addr:postcode":"55131","addr:street":"Trajanstraße","amenity":"doctors","fax":"+49 6131 9721742","healthcare":"doctor","healthcare:speciality":"general","name":"Internist Dr. med Hammes","opening_hours":"Mo-Th 08:00-11:30, Mo,Tu,Th 14:00-16:00, Fr 08:00-14:00","operator":"Dr. med.Sandra Hammes","phone":"+49 6131 571010","wheelchair":"yes"},"markedAs":"OSM","timeStamp":"2020-05-11-09-44-54"},{"type":"node","id":1671343357,"lat":49.9986668,"lon":8.2721044,"tags":{"addr:city":"Mainz","addr:country":"DE","addr:housenumber":"12-14","addr:postcode":"55116","addr:street":"Gutenbergplatz","amenity":"doctors","fax":"+49 6131 231526","healthcare":"doctor","healthcare:speciality":"dermatology","name":"Dr. Michael Lachner","opening_hours":"Mo 08:30-16:00; Tu,We 08:30-12:30, We 14:30-16:45; Th 08:30-12:00,15:00-19:00; Fr 08:30-12:00,14:30-17:00","operator":"Dr. Michael Lachner","phone":"+49 6131 223334","website":"https://www.hautarzt-mainz.de/"},
                "markedAs":"OSM","timeStamp":"2020-05-11-09-44-54"},{"type":"node","id":1908635765,"lat":50.0039379,"lon":8.2013532,"tags":{"addr:city":"Mainz","addr:housenumber":"31","addr:postcode":"55124","addr:street":"Kapellenstraße","amenity":"doctors","email":"info@praxis-hueterpfannkuch.de","fax":"+49 6131 2157029","healthcare":"doctor","healthcare:speciality":"psychiatry","name":"Gemeinschaftspraxis für Kinder- und Jugendpsychiatrie und -psychotherapie","opening_hours":"Mo-Fr 09:00-13:00; Mo,Tu,Th 14:00-16:30","operator":"Dr. med. A. Hüter & Dr. med. D. Pfannkuch","phone":"+49 6131 215700","website":"http://www.praxis-hueterpfannkuch.de"},"markedAs":"OSM","timeStamp":"2020-05-11-09-44-54"},{"type":"node","id":2096380368,"lat":50.0006586,"lon":8.27417,"tags":{"addr:city":"Mainz","addr:housenumber":"31","addr:postcode":"55116","addr:street":"Am Brand","amenity":"doctors","email":"gefaesspraxis-schmidtke@gmx.de","fax":"+49 6131 223248","healthcare":"doctor","healthcare:speciality":"internal","name":"Dr. med. Sebastian Schmidtke","opening_hours:covid19":"open","operator":"Dr. med. Sebastian Schmidtke","phone":"+49 6131 229888","website":"http://www.gefaesspraxis-schmidtke.de","wheelchair":"yes"},"markedAs":"OSM","timeStamp":"2020-05-11-09-44-54"},{"type":"node","id":2446963924,"lat":49.997882,"lon":8.2690998,"tags":{"addr:city":"Mainz","addr:country":"DE","addr:housenumber":"4","addr:postcode":"55116","addr:street":"Ludwigsstraße","amenity":"doctors","email":"info@praxis-abdollahnia.de","entrance":"yes","fax":"+49 6131 234357","healthcare":"doctor","healthcare:speciality":"general;internal","name":"Praxis Abdollahnia","opening_hours:signed":"no","operator":"Dr. med. Michel Reza Abdollahnia, Dr. med. Bülent Kaya","phone":"+49 6131 221033, +49 6131 224656","website":"https://www.praxis-abdollahnia.de/","wheelchair":"limited"},"markedAs":"OSM","timeStamp":"2020-05-11-09-44-54"},{"type":"node","id":2481078477,"lat":49.9817676,"lon":8.2434994,"tags":{"addr:city":"Mainz","addr:housenumber":"7","addr:postcode":"55128","addr:street":"Zaybachstraße","amenity":"doctors","fax":"+49 131 3334060","healthcare":"doctor","healthcare:speciality":"general","name":"Praxis Dr. med. Patricia Bernedo-Vog","operator":"Dr. med. Patricia Bernedo-Vogt","phone":"+49 6131 3334070","website":"https://www.hausarzt-mainz-bretzenheim.de/"},"markedAs":"OSM","timeStamp":"2020-05-11-09-44-54"},{"type":"node","id":2550663892,"lat":49.9815551,"lon":8.2459202,"tags":{"addr:city":"Mainz","addr:housenumber":"3","addr:postcode":"55128","addr:street":"Albert-Stohr-Straße","amenity":"doctors","email":"info@lymph-liposuktionszentrum.de","fax":"+49 6131 364494","healthcare":"doctor",
                    "healthcare:speciality":"lymphology;phlebology","name":"Medizinisches Versorgungszentrum Dr. med. Kurt Braunbeck & Partner","opening_hours":"Mo-Fr 07:00-19:00; We 07:00-14:00","operator":"Dr. med. Kurt Braunbeck, Dr. med. Johannes Schmitt, Rusudan Chanishvili, Dr. med. Ina Maria Hartenfels, Dr. med. Christiane Jung, Dr. med. Maik Pollaschek, Dr. med. Marjan Vakil","phone":"+49 6131 720660","website":"http://www.braunbeck.com/","wheelchair":"no"},"markedAs":"OSM","timeStamp":"2020-05-11-09-44-54"},{"type":"node","id":3041752524,"lat":50.0592413,"lon":8.3021519,"tags":{"addr:city":"Wiesbaden","addr:country":"DE","addr:housenumber":"37","addr:postcode":"65205","addr:street":"Buschungstraße","amenity":"doctors","email":"info@drbecker-wiesbaden.de","fax":"+49 611 74254","healthcare":"doctor","healthcare:speciality":"general;internal;emergency","name":"Praxis Dr. med Dietmar Becker","operator":"Dr. med Dietmar Becker, Dr. Dorothea Rotmann","phone":"+49 611 712540","website":"https://www.drbecker-wiesbaden.de/"},"markedAs":"OSM","timeStamp":"2020-05-11-09-44-54"},{"type":"node","id":3253251632,"lat":50.0416763,"lon":8.2388016,"tags":{"addr:city":"Wiesbaden","addr:housenumber":"7","addr:postcode":"65203","addr:street":"Wilhelm-Tropp-Straße","amenity":"doctors","description":"Hausärztlich- internistische Gemeinschaftspraxis Dr.med. Lutz Mauersberg und Dr.med. Brit Wald Innere · Allgemeinmedizin · Geriatrie · Palliativmedizin · Notfallmedizin","healthcare":"doctor","healthcare:speciality":"general;internal","name":"Gemeinschaftspraxis Dr.Lutz Mauersberg und Dr.Brit Wald","operator":"Dr.Lutz Mauersberg, Dr.Brit Wald","phone":"+49 611 61302","website":"https://www.praxis-wiesbaden.de/"},"markedAs":"OSM","timeStamp":"2020-05-11-09-44-54"},{"type":"node","id":3408552875,"lat":49.9977562,"lon":8.2698606,"tags":{"addr:city":"Mainz","addr:housenumber":"31","addr:postcode":"55116","addr:street":"Weißliliengasse","amenity":"doctors","email":"info@hautarztpraxis-goenner.de","fax":"+49 6131 231497","healthcare":"doctor","healthcare:speciality":"dermatology","name":"Hautarztpraxis Dr. Sabine Gönner","operator":"Dr. Sabine Gönner","phone":"+49 6131  227888","website":"https://www.hautarztpraxis-goenner.de/"},"markedAs":"OSM","timeStamp":"2020-05-11-09-44-54"},{"type":"node","id":3507800810,"lat":49.9683558,"lon":8.2732106,"tags":{"addr:city":"Mainz","addr:housenumber":"76","addr:postcode":"55129","addr:street":"Neue Mainzer Straße","amenity":"doctors","contact:website":"http://www.kinderarzt-habermehl.de","email":"anfrage@kinderarzt-habermehl.de","fax":"+49 6131 581421","healthcare":"doctor","healthcare:speciality":"paediatrics","name":"Kinderarzt Dr. Habermehl","opening_hours":"08:30-13:00,14:00-17:00","operator":"Dr. med. Pirmin Habermehl","phone":"+496131504600","website":"http://www.kinderarzt-habermehl.de"},"markedAs":"OSM","timeStamp":"2020-05-11-09-44-54"},{"type":"node","id":3516947060,"lat":50.0072113,"lon":8.2948955,"tags":{"addr:city":"Mainz-Kostheim","addr:housenumber":"1","addr:postcode":"55246","addr:street":"Linzer Straße","amenity":"doctors","email":"kostheim@diegyn-praxis.de","fax":"+49613464452","healthcare":"doctor","healthcare:speciality":"gynaecology","name":"Die Gyn-Praxis","opening_hours":"Mo,Tu 08:00-12:00,15:00-18:00, We 08:00-12:00, Th 08:00-12:00,14:00-18:00, Fr 08:00-14:00; PH off","operator":"Dr. med. Anna Spina, Dr. med. Corinna Brauers, Dr. med. Idil Birgit Gualeni","phone":"+49613464411","website":"https://www.diegyn-praxis.de/frauenarzt-mainz-kostheim.html"},"markedAs":"OSM","timeStamp":"2020-05-11-09-44-54"},{"type":"node","id":3548006488,"lat":50.0132033,"lon":8.2946739,"tags":{"addr:city":"Mainz-Kastel","addr:housenumber":"1","addr:postcode":"55252","addr:street":"Am Königsfloß","amenity":"doctors","fax":"+49 6134 260220","healthcare":"doctor","healthcare:speciality":"general","name":"Praxis am Königsfloß","opening_hours":"Mo-Fr 08:00-11:00, Mo,Tu 15:00-17:30, Th 15:00-18:00","operator":"Dr. med. Beate Schießl","phone":"+49 6134 3738"},"markedAs":"OSM","timeStamp":"2020-05-11-09-44-54"},{"type":"node","id":3551914594,"lat":50.0067709,"lon":8.2845045,"tags":{"addr:city":"Wiesbaden","addr:housenumber":"2","addr:postcode":"55252","addr:street":"Kloberstraße","amenity":"doctors","email":"info@hno-kastel.de","healthcare":"doctor","healthcare:speciality":"otolaryngology","name":"HNO-Praxis Marc Christian Cichy","opening_hours":"Mo-Fr 08:30-12:30, Mo,We,Th 14:30-17:30","operator":"Marc Christian Cichy","phone":"+49 6134 1888000","website":"http://www.hno-kastel.de/"},"markedAs":"OSM","timeStamp":"2020-05-11-09-44-54"},{"type":"node","id":3595019569,"lat":50.0078758,"lon":8.2830372,"tags":{"addr:city":"Mainz-Kastel","addr:housenumber":"8","addr:postcode":"55252","addr:street":"Rathausstraße","amenity":"doctors","email":"hartung.christian@gmx.de","fax":"+49 6134 24 695","healthcare":"doctor","name":"Praxis Dr. med. Christian Hartung","opening_hours":"Mo-Fr 09:00-10:00, Mo,Tu,Th 16:00-18:00, Fr 15:00-16:00","operator":"Dr. med Christian Hartung","phone":"+49 6134 22 800","website":"http://www.dr-christian-hartung.de/"},"markedAs":"OSM","timeStamp":"2020-05-11-09-44-54"},{"type":"node","id":3665895106,"lat":50.0128161,"lon":8.294171,"tags":{"addr:city":"Mainz-Kastel","addr:housenumber":"25","addr:postcode":"55252","addr:street":"Steinern Straße","amenity":"doctors","description":"Keine kassenärztliche Behandlung","fax":"+49 6134 26298","healthcare":"doctor","healthcare:speciality":"general","name":"Roland Rübel Praktischer Arzt","opening_hours":"Mo 09:30-12:00, Tu 17:00-18:30, We 10:00-12:00, Th 17:00-18:30, Fr 09:30-13:00","operator":"Roland Rübel","phone":"+49 6134 69800"},"markedAs":"OSM","timeStamp":"2020-05-11-09-44-54"},{"type":"node","id":3677032325,"lat":50.0155139,"lon":8.2168349,"tags":{"addr:city":"Mainz","addr:housenumber":"58","addr:postcode":"55120","addr:street":"Westring","amenity":"doctors","fax":"+49 6131 690574","healthcare":"doctor","healthcare:speciality":"general","internet_access":"wlan","internet_access:fee":"no","name":"Dr. med. Nicolas Kutzscher","opening_hours":"Mo-Fr 08:00-11:00, Mo,Tu,Th 16:00-18:00","operator":"Dr. med. Nicolas Kutzscher","phone":"+49 6131 682846","website":"http://www.familienarzt-mainz.de/"},"markedAs":"OSM","timeStamp":"2020-05-11-09-44-54"},{"type":"node","id":3709394706,"lat":49.9982294,"lon":8.2686401,"tags":{"addr:city":"Mainz","addr:housenumber":"1","addr:postcode":"55116","addr:street":"Ludwigsstraße","amenity":"doctors","description":"Fachärztin für Innere Medizin und Allgemeinmedizin, Notfallmedizin, Ernährungsmedizin; offene Sprechstunde, keine Terminvereinbarung nötig","fax":"+49 6131 280318","healthcare":"doctor","healthcare:speciality":"internal","name":"Praxis Behringer","opening_hours":"Mo-Th 08:00-12:00; Mo-Tu 15:00-18:00; Th 15:00-19:00; Fr 08:00-14:00; Sa,Su,PH off || \"nach Vereinbarung\"","opening_hours:covid19":"open","operator":"Ulla Behringer","phone":"+49 6131 233082","website":"http://www.praxis-behringer.de/","wheelchair":"no"},"markedAs":"OSM","timeStamp":"2020-05-11-09-44-54"},{"type":"node","id":3725835230,"lat":49.9832705,"lon":8.2929524,"tags":{"addr:city":"Mainz","addr:housenumber":"13 a","addr:postcode":"55130","addr:street":"Göttelmannstraße","amenity":"doctors","description":"Dr. med. Stefan Breitkopf, Dr. med. Thomas Kauffmann, Dr. med. Jutta Kauffmann","email":"info@augenaerzte-mainz.de","fax":"+49 6131 6225500","healthcare":"doctor","healthcare:speciality":"ophthalmology","name":"Augenärztliche Gemeinschaftspraxis Dr. med. Breitkopf, Jutta und Thomas Kaufmann","opening_hours":"Mo-Th 09:00-12:00,Mo,Tu,Th 14:00-17:00","phone":"+49 6131 578400","website":"https://www.augenaerzte-mainz.de/","wheelchair":"yes"},"markedAs":"OSM","timeStamp":"2020-05-11-09-44-54"},{"type":"node","id":3728674943,"lat":50.006324,"lon":8.2611128,"tags":{"addr:city":"Mainz","addr:housenumber":"45","addr:postcode":"55118","addr:street":"Frauenlobstraße","amenity":"doctors","email":"info@praxis-hinzpeter.de","fax":"+49 6131 618615","healthcare":"doctor","healthcare:speciality":"general","name":"Praxis Dr. med. Malte Hinzpeter","operator":"Dr. med. Malte Hinzpeter","phone":"+49 6131 611202","website":"https://www.praxis-hinzpeter.de/"},"markedAs":"OSM","timeStamp":"2020-05-11-09-44-54"},{"type":"node","id":3831495660,"lat":50.0093385,"lon":8.3002591,"tags":{"addr:city":"Mainz-Kostheim","addr:housenumber":"1","addr:postcode":"55246","addr:street":"Anton-Hehn-Straße","amenity":"doctors","contact:phone":"+49613461225","fax":"+49 6134 284931","healthcare":"doctor","healthcare:speciality":"paediatrics","name":"Gerulf Fricke","opening_hours":"Mo,Tu 07:15-11:00,13:45-16:00; We 07:15-11:00; Th 13:45-16:00; Fr 07:15-12:00; PH off","operator":"Gerulf Fricke","phone":"+49 6134 61225"},"markedAs":"OSM","timeStamp":"2020-05-11-09-44-54"},{"type":"node","id":3840366457,"lat":50.0020351,"lon":8.2621018,"tags":{"addr:city":"Mainz","addr:housenumber":"10","addr:postcode":"55116","addr:street":"Kaiserstraße","amenity":"doctors","email":"praxis-k.thueroff@t-online.de","fax":"+49 6131 1437747","healthcare":"doctor","healthcare:speciality":"gynaecology","level":"3","name":"Praxis Dr. med. Thüroff","operator":"Dr. med. Katharina Thüroff","phone":"+49 6131220690","website":"http://web2.cylex.de/reviews/viewcompanywebsite.aspx?firmaName=dr.+med.+++th%c3%bcroff+katharina&companyId=5149570","wheelchair":"no"},"markedAs":"OSM","timeStamp":"2020-05-11-09-44-54"},{"type":"node","id":3871467529,"lat":49.9949974,"lon":8.2728185,"tags":{"addr:city":"Mainz","addr:housenumber":"17","addr:postcode":"55116","addr:street":"Eisgrubweg","amenity":"doctors","email":"info@eolia-mainz.de;willkommen@eolia-mainz.de","fax":"+49 6131 28998111","healthcare":"doctor","healthcare:speciality":"general;surgery","name":"Eolia Dr.Bensch & Kollegen","opening_hours":"Mo-Th 08:00-12:00, Fr 08:00-13:00, Mo,Th 14:00-18:00, Tu 14:00-19:00, We 14:00-16:00","operator":"Dr. med. Marc Bensch, Irene Kohls","phone":"+49 6131 289980","website":"https://eolia-mainz.de/"},"markedAs":"OSM","timeStamp":"2020-05-11-09-44-54"},{"type":"node","id":3871467530,"lat":49.9951032,"lon":8.273268,"tags":{"addr:city":"Mainz","addr:housenumber":"23","addr:postcode":"55116","addr:street":"Eisgrubweg","amenity":"doctors","healthcare":"doctor","healthcare:speciality":"physiotherapy","name":"Dipl.-Psych. Sabine Schütt-Strömel","opening_hours":"Th,Fr 14:00-14:50","operator":"Dipl.-Psych. Sabine Schütt-Strömel","phone":"+49 176 44600602"},"markedAs":"OSM","timeStamp":"2020-05-11-09-44-54"},{"type":"node","id":3871467533,"lat":49.9946444,"lon":8.2700208,"tags":{"addr:city":"Mainz","addr:housenumber":"9 a","addr:postcode":"55116","addr:street":"Eisgrubweg","amenity":"doctors","healthcare":"doctor","healthcare:speciality":"acupuncture","name":"Praxis Soon-Ye Albers-Kim Heilpraktikerin","opening_hours":"\"Termine nach Vereinbarung\"","operator":"Soon-Ye Albers-Kim","phone":"+49 6131 226444"},"markedAs":"OSM","timeStamp":"2020-05-11-09-44-54"},{"type":"node","id":3991707466,"lat":49.9949587,"lon":8.2671768,"tags":{"addr:city":"Mainz","addr:housenumber":"9","addr:postcode":"55116","addr:street":"Gaustraße","amenity":"doctors","fax":"+49 6131 578325","healthcare":"doctor","healthcare:speciality":"physiotherapy","name":"Dipl. Psych. Klaus Falkenberg","opening_hours":"\"nach Vereinbarung\"","operator":"Dipl.-Psych. Klaus Falkenberg","phone":"+49 6131 571212"},"markedAs":"OSM","timeStamp":"2020-05-11-09-44-54"},{"type":"node","id":4017795837,"lat":50.0037597,"lon":8.214222,"tags":{"addr:city":"Mainz","addr:housenumber":"62","addr:postcode":"55124","addr:street":"Breite Straße","amenity":"doctors","fax":"+49 6131 467134","healthcare":"doctor","name":"Praxis Dr. Klein","opening_hours:covid19":"open","operator":"Dr. med. Heinz Klein","phone":"+49 6131 42015","website":"https://www.dr-heinz-klein.de/"},"markedAs":"OSM","timeStamp":"2020-05-11-09-44-54"},{"type":"node","id":4042271589,"lat":49.9991871,"lon":8.2764498,"tags":{"addr:city":"Mainz","addr:housenumber":"12","addr:postcode":"55116","addr:street":"Fischtorstraße","amenity":"doctors","email":"info@praxisrautenberg.de","fax":"+49 6131 2144809","healthcare":"doctor","healthcare:speciality":"physiotherapy","name":"Praxis Julia Rautenberg","operator":"Julia Rautenberg","phone":"+49 6131 2144800","website":"https://praxisrautenberg.de/"},"markedAs":"OSM","timeStamp":"2020-05-11-09-44-54"},{"type":"node","id":4056665284,"lat":49.998434,"lon":8.2683124,"tags":{"addr:city":"Mainz","addr:country":"DE","addr:housenumber":"6","addr:postcode":"55116","addr:street":"Schillerplatz","amenity":"doctors","email":"info@dr-cuny.de","healthcare":"doctor","healthcare:speciality":"general","name":"Hausarztpraxis am Fastnachtsbrunnen","opening_hours":"Mo,We-Fr 08:00-10:00, Mo,Tu,Th 15:00-18:00, Fr 15:00-17:00","opening_hours:covid19":"open","operator":"Dr. med. Michael Cuny","phone":"+49 6131 / 22 54 54","website":"http://www.dr-cuny.de/","wheelchair":"no"},"markedAs":"OSM","timeStamp":"2020-05-11-09-44-54"},{"type":"node","id":4056665285,"lat":49.9992788,"lon":8.2664692,"tags":{"addr:city":"Mainz","addr:housenumber":"26-28","addr:postcode":"55116","addr:street":"Schillerstraße","amenity":"doctors","fax":"+49 6131 231555","healthcare":"doctor","healthcare:speciality":"otolaryngology","name":"Gemeinschaftspraxis Partheniadis","opening_hours":"Mo-Fr 08:30-12:15, Mo,Tu,Th,Fr 14:30-17:15","operator":"Dr. med. Georg Partheniadis, Dr. med. Marina Partheniadis-Stumpf, Dr. med. Silke Fleer","phone":"+49 6131 231558","website":"https://www.hno-aerzte-mainz.de/","wheelchair":"no"},"markedAs":"OSM","timeStamp":"2020-05-11-09-44-54"},{"type":"node","id":4056665286,"lat":49.9993551,"lon":8.2663322,"tags":{"addr:city":"Mainz","addr:housenumber":"26-28","addr:postcode":"55116","addr:street":"Schillerstraße","amenity":"doctors","email":"info@hautarztpraxis-mainz.de","healthcare":"doctor","healthcare:speciality":"dermatology","name":"Hautarztpraxis Dr. Kirschner","opening_hours":"Mo-Fr 08:00-12:00, Mo,Tu,Th 14:00-17:00","operator":"Dr. med. Uwe Kirschner","phone":"+49 6131 233026","website":"https://www.hautarztpraxis-mainz.de","wheelchair":"no"},"markedAs":"OSM","timeStamp":"2020-05-11-09-44-54"},{"type":"node","id":4056665288,"lat":49.9992562,"lon":8.2665186,"tags":{"addr:city":"Mainz","addr:housenumber":"26-28","addr:postcode":"55116","addr:street":"Schillerstraße","amenity":"doctors","fax":"+49 6131-231635","healthcare":"doctor","healthcare:speciality":"ophthalmology","name":"Augenärztliche Praxis M. Kour Sidou","opening_hours":"Mo-Fr 08:00-12:00, Mo,Tu,Th 14:00-17:00","operator":"M. Kour Sidou","phone":"+49 6131-231633","website":"http://www.augenpraxis-mainz.de/","wheelchair":"no"},"markedAs":"OSM","timeStamp":"2020-05-11-09-44-54"},{"type":"node","id":4063923206,"lat":50.0047908,"lon":8.2594187,"tags":{"addr:city":"Mainz","addr:housenumber":"20-24","addr:postcode":"55118","addr:street":"Boppstraße","amenity":"doctors","fax":"+49 6131 613170","healthcare":"doctor","healthcare:speciality":"HNO","name":"HNO-Praxis Dr. Karaiskaki","opening_hours":"Mo-Fr 08:00-12:00, Mo,Tu,Th 14:00-16:00","operator":"Dr. med. Niki Karaiskaki","phone":"+49 6131 613150","wheelchair":"yes"},"markedAs":"OSM","timeStamp":"2020-05-11-09-44-54"},{"type":"node","id":4393092693,"lat":50.00666,"lon":8.2625542,"tags":{"addr:city":"Mainz","addr:housenumber":"9","addr:postcode":"55118","addr:street":"Hindenburgstraße","amenity":"doctors","email":"praxis@diabetes-morgenstern.de","fax":"+49 6131 5768150","healthcare":"doctor","healthcare:speciality":"podiatry;internal","level":"1","name":"Dr. med. Marc Morgenstern Internist & Diabetologe","opening_hours":"Mo, We, Fr 09:00-12:00; Tu, Th 09:00-12:00, 16:00-18:00","operator":"Dr. med. Marc Morgenstern","phone":"+49 61 31 576 81 40","website":"http://www.diabetes-morgenstern.de/","wheelchair":"yes"},"markedAs":"OSM","timeStamp":"2020-05-11-09-44-54"},{"type":"node","id":4426226394,"lat":50.0448861,"lon":8.195912,"tags":{"addr:city":"Wiesbaden","addr:housenumber":"29","addr:postcode":"65201","addr:street":"Reichsapfelstraße","amenity":"doctors","fax":"+49 611 9279630","healthcare":"doctor","healthcare:speciality":"paediatrics","name":"Praxis Dr. Margret Nafziger-Straub","opening_hours":"Mo,We,Fr 09:00-12:00; Tu,Th 15:00-18:00; \"nach Vereinbarung\"","operator":"Dr. med. Margret Nafziger-Straub","phone":"+49 611 9200700"},"markedAs":"OSM","timeStamp":"2020-05-11-09-44-54"},{"type":"node","id":4426226395,"lat":50.0453113,"lon":8.1947007,"tags":{"addr:city":"Wiesbaden","addr:housenumber":"38","addr:postcode":"65201","addr:street":"Reichsapfelstraße","amenity":"doctors","email":"praxis@mein-hausarzt-wiesbaden.de","fax":"+49 611 2383885","healthcare":"doctor","healthcare:speciality":"internal","name":"Hausärztlich-internistische Praxis Dr. Kurz","operator":"Dr. med. Dietmar Kurz","phone":"+49 611 21100","website":"https://www.mein-hausarzt-wiesbaden.de","wheelchair":"no"},"markedAs":"OSM","timeStamp":"2020-05-11-09-44-54"},{"type":"node","id":4437677271,"lat":49.9889327,"lon":8.2709945,"tags":{"addr:city":"Mainz","addr:country":"DE","addr:housenumber":"11","addr:postcode":"55131","addr:street":"An der Goldgrube","amenity":"doctors","fax":"+49 6131 5751508","healthcare":"doctor","healthcare:speciality":"clinic;general;internal","name":"Katholisches Klinikum Mainz","operator":"Katholisches Klinikum Mainz","phone":"+49 6131 5751199","website":"http://www.kkm-mainz.de/kliniken-zentrenund-fachbereiche/zentrale-notaufnahme/"},"markedAs":"OSM","timeStamp":"2020-05-11-09-44-54"},{"type":"node","id":4448119072,"lat":50.0070904,"lon":8.2943445,"tags":{"addr:city":"Mainz-Kostheim","addr:housenumber":"33","addr:postcode":"55246","addr:street":"Salzburger Straße","amenity":"doctors","email":"info@praxis-dr-seemann.de","fax":"+49 6134 182518","healthcare":"doctor","healthcare:speciality":"general","name":"Praxis Dr. Seemann","opening_hours":"Mo-Fr 08:00-12:00; Mo-Tu 15:30-18:00; Th 15:30-19:00; Fr 16:00-17:00; PH off","operator":"Dr. med. Karl-Heinz Seemann","phone":"+49 6134 18250","website":"https://praxis-dr-seemann.de/"},"markedAs":"OSM","timeStamp":"2020-05-11-09-44-54"},{"type":"node","id":4577826791,"lat":50.00344,"lon":8.2115792,"tags":{"addr:city":"Mainz","addr:housenumber":"6","addr:postcode":"55124","addr:street":"Waldstraße","amenity":"doctors","description":"Dr. med. Monika Neuhäuser, Dr. med. Rüdiger Jakobi, Privat-Dozent Dr. med. Sebastian Frees","email":"info@urologie-gonsenheim.de","fax":"+49 6131 44244","healthcare":"doctor","healthcare:speciality":"urology","name":"Urologische Praxis Drs. med. R. Jakobi & Dr. med. M. Neuhäuser","opening_hours":"Mo-Tu 09:00-12:00,15:00-17:00; We 09:00-12:00; Fr 09:00-13:00; Th 09:00-12:00,16:00-18:00","phone":"+49 6131 46036","website":"http://www.urologie-gonsenheim.de"},"markedAs":"OSM","timeStamp":"2020-05-11-09-44-54"},{"type":"node","id":4591424195,"lat":50.0204127,"lon":8.2301497,"tags":{"addr:city":"Mainz","addr:housenumber":"73","addr:postcode":"55120","addr:street":"Hauptstraße","amenity":"doctors","description":"\"Dr. med. Julia Lörke, Dr. med. Susanne Sosa y Fink, Dr. med. Hans Cölle, Dr. med. Eva Frenschkowski","email":"praxis@coelle-online.de","fax":"+49 6131 6931426","healthcare":"doctor","healthcare:speciality":"general;internal","name":"Praxis Mombach","opening_hours":"Th,Sa-Tu 09:00-12:00,15:00-17:30; We,Fr 09:00-12:00","phone":"+49 6131 693140","website":"https://www.praxis-mombach.de/"},"markedAs":"OSM","timeStamp":"2020-05-11-09-44-54"},{"type":"node","id":4594171290,"lat":50.004807,"lon":8.2595217,"tags":{"addr:city":"Mainz","addr:housenumber":"20","addr:postcode":"55118","addr:street":"Boppstraße","amenity":"doctors","email":"hautarzt-koehler@web.de","fax":"+49 6131 6226523","healthcare":"doctor","healthcare:speciality":"dermatology","name":"Dermatologe & Venerologe Lars Köhler","opening_hours":"Mo-Tu,Fr 08:30-12:00,14:00-17:00; We 07:30-12:00; Th 08:30-11:30,14:30-18:30","operator":"Dr. med. Lars Köhler","phone":"+49 61 31 622 65 22","website":"http://www.hautarzt-koehler.de"},"markedAs":"OSM","timeStamp":"2020-05-11-09-44-54"},{"type":"node","id":4601279590,"lat":49.9955921,"lon":8.2744639,"tags":{"addr:city":"Mainz","addr:housenumber":"34","addr:postcode":"55116","addr:street":"Holzhofstraße","amenity":"doctors","fax":"+49 6131 233839","healthcare":"doctor","healthcare:speciality":"gynaecology","name":"Praxis Dr.med. Wolfgang Kasper","opening_hours":"Mo,Tu,Th 08:30-12:30, We 07:30-12:00, Fr 07:30-15:00, Mo,Tu 14:00-17:00, Th 16:00-20:00","operator":"Dr. med. Wolfgang Kasper","phone":"+49 6131 233838","toilets:wheelchair":"no","wheelchair":"no"},"markedAs":"OSM","timeStamp":"2020-05-11-09-44-54"},{"type":"node","id":4933680322,"lat":49.9594282,"lon":8.2014735,"tags":{"addr:city":"Mainz","addr:housenumber":"6","addr:postcode":"55127","addr:street":"Hindemithstraße","amenity":"doctors","email":"info@med-gomer.de","fax":"+49 6131 732375","healthcare":"doctor","healthcare:speciality":"general;internal","name":"Dipl. med. Margarita Gomer","opening_hours":"Mo 08:00-10:45,15:00-16:30; Tu 15:00-16:30; Th 15:00-17:30; Fr 08:00-10:45","operator":"Dipl. Med. Margarita Gomer","phone":"+49 6131 732374","website":"http://www.med-gomer.de/"},"markedAs":"OSM","timeStamp":"2020-05-11-09-44-54"},{"type":"node","id":5039919722,"lat":50.0580911,"lon":8.2426076,"tags":{"addr:city":"Wiesbaden","addr:housenumber":"117","addr:postcode":"65187","addr:street":"Biebricher Allee","amenity":"doctors","email":"Dr_Schwaab@t-online.de","fax":"+49 611 333119","healthcare":"doctor","healthcare:speciality":"genetics","name":"Humangenetik Schwaab","operator":"Dr. med. Dipl. Biol. Eva Schwaab","phone":"+49611333137","website":"https://www.humangenetik-online.de/"},"markedAs":"OSM","timeStamp":"2020-05-11-09-44-54"},{"type":"node","id":5113646351,"lat":49.9874291,"lon":8.1778519,"tags":{"addr:city":"Mainz","addr:housenumber":"9","addr:postcode":"55126","addr:street":"Prunkgasse","amenity":"doctors","description":"Dr. med. Ortrud Nadler, Dr.med. Wolfram König","fax":"+49 6131 472041","healthcare":"doctor","healthcare:speciality":"general","name":"Gemeinschaftspraxis Dr. König & Dr. Nadler","opening_hours":"Mo-Fr 08:00-12:00, Mo,Tu,Th,Fr 16:00-18:00","phone":"+49 6131 472037"},"markedAs":"OSM","timeStamp":"2020-05-11-09-44-54"},{"type":"node","id":5158679621,"lat":49.9978892,"lon":8.2666391,"tags":{"addr:city":"Mainz","addr:housenumber":"13","addr:postcode":"55116","addr:street":"Emmerich-Josef-Straße","amenity":"doctors","fax":"+49 6131 4813054","healthcare":"doctor","healthcare:speciality":"radiology","name":"Radiologen Dr. Kaltenborn & Dr. Willingstorfer","opening_hours":"Mo-Tu, Th-Fr 07:45-18:00; We, Sa-Su 07:45-14:00","operator":"Dr. med. Harald A. Kaltenborn, Dr. med. Wolf J. Willingstorfer","phone":"+49 6131 224122","website":"https://www.radiologen-am-schillerplatz.de/%C3%A4rzteteam/"},"markedAs":"OSM","timeStamp":"2020-05-11-09-44-54"},{"type":"node","id":5268478843,"lat":50.0022015,"lon":8.2622362,"tags":{"addr:city":"Mainz","addr:country":"DE","addr:housenumber":"12","addr:postcode":"55116","addr:street":"Kaiserstraße","amenity":"doctors","fax":"+49 6131 1432624","healthcare":"doctor","healthcare:speciality":"general;internal","level":"3","name":"Praxis Dr. med. Reinhold Wünstel","opening_hours":"Mo-Fr 08:00-12:00; Mo-Tu,Th-Fr 15:00-17:00","operator":"Dr. med. Reinhold Wünstel","phone":"+49 6131 223034","wheelchair":"no"},"markedAs":"OSM","timeStamp":"2020-05-11-09-44-54"},{"type":"node","id":5299110678,"lat":49.9887793,"lon":8.2702957,"tags":{"addr:city":"Mainz","addr:housenumber":"11","addr:postcode":"55131","addr:street":"An der Goldgrube","amenity":"doctors","contact:phone":"+49 6131 19292","healthcare":"doctor","healthcare:speciality":"emergency","name":"Ärztliche Bereitschaftspraxis","opening_hours":"Mo-Fr 19:00-07:00, Fr 16:00-24:00, Sa-Su 00:00-24:00, Mo 00:00-07:00, We 14:00-07:00, PH 00:00-24:00","operator":"Kassenärztliche Vereinigung Rheinland-Pfalz (KV RLP)","phone":"+49 116117 / +49 6131 19292"},"markedAs":"OSM","timeStamp":"2020-05-11-09-44-54"},{"type":"node","id":5310155537,"lat":50.0049178,"lon":8.2622454,"tags":{"addr:city":"Mainz","addr:housenumber":"14","addr:postcode":"55118","addr:street":"Adam-Karrillon-Straße","amenity":"doctors","fax":"+49 6131 616102","healthcare":"doctor","healthcare:speciality":"general","name":"Praxis Dr. Gisela Lachman","opening_hours":"Mo 09:00-12:00, Tu-Fr 08:00-12:00, Mo,Tu 15:00-18:00, Th 16:00-19:0","operator":"Dr. med. Gisela Lachmann","phone":"+49 6131 674501"},"markedAs":"OSM","timeStamp":"2020-05-11-09-44-54"},{"type":"node","id":5327912920,"lat":50.0008171,"lon":8.262801,"tags":{"addr:city":"Mainz","addr:housenumber":"2","addr:postcode":"55116","addr:street":"Bahnhofstraße","amenity":"doctors","email":"praxis@dr-kaya.de","fax":"+49 6131 9713937","healthcare":"doctor","healthcare:speciality":"urology","name":"Praxis Dr. Kaya","operator":"Dr. med. Bülent Kaya","phone":"+49 6131 228802","website":"https://www.dr-kaya.de/","wheelchair":"yes"},"markedAs":"OSM","timeStamp":"2020-05-11-09-44-54"},{"type":"node","id":5341154821,"lat":49.9936938,"lon":8.2777568,"tags":{"addr:city":"Mainz","addr:housenumber":"5","addr:postcode":"55116","addr:street":"Holzhofstraße","amenity":"doctors","description":"Dr. med. Christiane Hansen, Dr. med. Thomas Klingler, Prof. Dr. med. Jürgen Marx, Dr. med. Wolfgang Rossbach, Dr. med. Markus Lorscheider, Frau Dr. med. Ines Schaberger","email":"info@neurologie-psychiatrie-mainz.de","healthcare":"doctor","healthcare:speciality":"neurology;psychiatry","name":"Praxis für Neurologie u. Psychiatrie am Römischen Theater","opening_hours":"Mo 08:00-12:00, 14:00-17:00; Tu 08:00-12:00, 14:30-17:00; We 08:00-12:00; Th 08:00-12:00, 14:00-18:00; Su, Fr 08:00-12:00, 14:00-16:00","phone":"+49 6131 222344","website":"https://www.neurologie-psychiatrie-mainz.de/"},"markedAs":"OSM","timeStamp":"2020-05-11-09-44-54"},{"type":"node","id":5350621674,"lat":50.0365861,"lon":8.2396415,"tags":{"addr:city":"Wiesbaden","addr:housenumber":"11","addr:postcode":"65203","addr:street":"Adolf-Todt-Straße","amenity":"doctors","email":"hausarzt@praxis-brass.de","fax":"+49 611 1860869","healthcare":"doctor","healthcare:speciality":"general","name":"Praxis F.G. Brass","operator":"Dr. med. Frank Gregor Brass","phone":"+49 611 66787","website":"http://www.praxis-brass.de/"},"markedAs":"OSM","timeStamp":"2020-05-11-09-44-54"},{"type":"node","id":5366032724,"lat":49.9997981,"lon":8.2769624,"tags":{"addr:city":"Mainz","addr:housenumber":"11","addr:postcode":"55116","addr:street":"Fischtorplatz","amenity":"doctors","email":"info@dr-ferbert.de","fax":"+49 6131 9726511","healthcare":"doctor","healthcare:speciality":"plastic_surgery","name":"Plastische und Ästhetische Chirurgie Dr. med. Tilman Ferbert","operator":"Dr. Tilman Ferbert","phone":"+49 6131 972650","website":"http://www.dr-ferbert.de"},"markedAs":"OSM","timeStamp":"2020-05-11-09-44-54"},{"type":"node","id":5370637535,"lat":49.999506,"lon":8.2659349,"tags":{"addr:city":"Mainz","addr:country":"DE","addr:housenumber":"36","addr:postcode":"55116","addr:street":"Schillerstraße","amenity":"doctors","email":"achim-hub@t-online.de","fax":"+49 6131 231612","healthcare":"doctor","healthcare:speciality":"urology","name":"Urologische Praxis Dr. med. Achim Hub","opening_hours":"Mo-Tu 08:00-12:00,14:00-17:00; We 08:00-12:00; Th 08:00-12:00,14:00-18:00; Fr 08:00-12:00,13:00-14:30","operator":"Dr. med. Achim Hub","phone":"+49 6131 231001","website":"https://www.uropraxishub.de/","wheelchair":"limited"},"markedAs":"OSM","timeStamp":"2020-05-11-09-44-54"},{"type":"node","id":5429228921,"lat":50.0148212,"lon":8.2293859,"tags":{"addr:city":"Mainz","addr:housenumber":"17","addr:postcode":"55120","addr:street":"An der Brunnenstube","amenity":"doctors","email":"gresch-merz@t-online.de","fax":"+49 6131 466743","healthcare":"doctor","healthcare:speciality":"palliative","name":"Praxis Dr. med. Bernadette Gresch-Merz","operator":"Dr. med. Bernadette Gresch-Merz","phone":"+496131466742","toilets:wheelchair":"yes","website":"https://www.praxis-gresch-merz.de","wheelchair":"yes"},"markedAs":"OSM","timeStamp":"2020-05-11-09-44-54"},{"type":"node","id":5467935990,"lat":50.0469239,"lon":8.2000788,"tags":{"addr:city":"Wiesbaden","addr:housenumber":"4","addr:postcode":"65201","addr:street":"Steinritzstraße","amenity":"doctors","fax":"+49 611 260132","healthcare":"doctor","healthcare:speciality":"general","name":"Raisa Roitman, Allgemein- und Unfallmedizin","opening_hours":"Mo-Fr 09:00-11:00, Mo,Th 16:00-18:00","operator":"Raisa Roitman","phone":"+49 611 21516"},"markedAs":"OSM","timeStamp":"2020-05-11-09-44-54"},{"type":"node","id":5540516480,"lat":50.0553113,"lon":8.1937159,"tags":{"addr:city":"Wiesbaden","addr:housenumber":"29","addr:postcode":"65201","addr:street":"Heinrich-Zille-Straße","amenity":"doctors","email":"schmidt-sturm@gmx.de","fax":"+49 611 9200374","healthcare":"doctor","healthcare:speciality":"gynaecology","name":"Gemeinschaftspraxis Dr.med.Frauke Schmidt und Heike Sturm","opening_hours":"Mo 09:00-13:00, 14:30-17:30, Tu 08:00-12:00, 15:30-18:30, We 08:00-13:00, Th 08:00-12:00, 13:00-17:00, Fr 08:00-13:00","operator":"Dr. Frauke Schmidt, Dr. Heike Sturm","phone":"+49 611 25700","website":"www.schmidt-sturm.com"},"markedAs":"OSM","timeStamp":"2020-05-11-09-44-54"},{"type":"node","id":5540527848,"lat":50.0554315,"lon":8.1938217,"tags":{"addr:city":"Wiesbaden","addr:housenumber":"25","addr:postcode":"65201","addr:street":"Heinrich-Zille-Straße","amenity":"doctors","email":"kontakt@praxisandreawenz.de","fax":"+49 611 2047207","healthcare":"doctor","healthcare:speciality":"general","name":"Praxis Andrea Wenz","opening_hours":"Mo 09:00-12:00, 15:00-18:00, Tu-We 09:00-12:00, Th 09:00-12:00, 15:00-18:00, Fr 09:00-14:00","operator":"Andrea Wenz","phone":"+49 611 25287","website":"https://www.praxisandreawenz.de/"},"markedAs":"OSM","timeStamp":"2020-05-11-09-44-54"},{"type":"node","id":5634852822,"lat":50.0000778,"lon":8.2564402,"tags":{"addr:city":"Mainz","addr:housenumber":"3-5","addr:postcode":"55122","addr:street":"Wallstraße","amenity":"doctors","email":"nuklearmedizin-mainz@bioscientia.de","fax":"+49 6131 282588","healthcare":"doctor","healthcare:speciality":"nuclear","name":"Bioscientia Nuklearmedizin Mainz im MED Facharztzentrum","operator":"Dr. med. Stefan Käshammer, Dr. med. Tatiana Kandror","phone":"+49 6131 28250","toilets:wheelchair":"yes","website":"https://www.bioscientia.de/nuklearmedizin-mainz/","wheelchair":"yes"},"markedAs":"OSM","timeStamp":"2020-05-11-09-44-54"},{"type":"node","id":5898708686,"lat":49.998915,"lon":8.2682698,"tags":{"addr:city":"Mainz","addr:housenumber":"1a","addr:postcode":"55116","addr:street":"Große Langgasse","amenity":"doctors","fax":"+49 6131 22 27 69","healthcare":"doctor","healthcare:speciality":"general;internal","name":"Gesundheitscentrum Mainz","opening_hours:covid19":"open","operator":"Dr. med. Stefan F. Regner, Dr. med. Bernhard Schmitt, Dr. med. Ingmar Eisinger, Dr. med. Monika Stumpf, Dr. med. Karin Pfirrmann-Frees, Dr. med. Verena Gall","phone":"+49 6131 23 42 42","website":"http://www.ghcm.de/"},"markedAs":"OSM","timeStamp":"2020-05-11-09-44-54"},{"type":"node","id":6109180670,"lat":49.980647,"lon":8.2446113,"tags":{"addr:city":"Mainz","addr:housenumber":"5","addr:postcode":"55128","addr:street":"Bert-Brecht-Straße","amenity":"doctors","description":"Dr. med. Jörg Geier MSc, Dr. med. Janine Burkhardtm, Nicole Huber, Dr. Beate Schamberger","email":"info@praxis-geier.de","fax":"+49 6131 338747","healthcare":"doctor","healthcare:speciality":"internal;general;traditional_chinese_medicine;chiropractic","name":"Hausarztpraxis Dr. Jörg Geier & Kollegen","phone":"+49  6131 34701","website":"https://www.praxis-geier.de/"},"markedAs":"OSM","timeStamp":"2020-05-11-09-44-54"},{"type":"node","id":6312454956,"lat":50.0066761,"lon":8.2625047,"tags":{"addr:city":"Mainz","addr:housenumber":"9","addr:postcode":"55118","addr:street":"Hindenburgstraße","amenity":"doctors","fax":"+49 6131 961498","healthcare":"doctor","healthcare:speciality":"paediatrics","level":"3","name":"Gemeinschaftspraxis Dres. Markus Schaefer und Marion Fritsche","opening_hours":"Mo-Tu,Th 09:30-11:30,14:30-17:30; We,Fr 09:30-12:00; PH closed","operator":"Dr. Markus Schaefer, Dr. Marion Fritsche","phone":"+49 6131 961496"},"markedAs":"OSM","timeStamp":"2020-05-11-09-44-54"},{"type":"node","id":6312454957,"lat":50.0066042,"lon":8.2625459,"tags":{"addr:postcode":"55118","amenity":"doctors","healthcare":"doctor","level":"4","name":"Betriebsarztpraxis Deutsche Post AG"},"markedAs":"OSM","timeStamp":"2020-05-11-09-44-54"},{"type":"node","id":6376550578,"lat":50.005882,"lon":8.3077622,"tags":{"addr:city":"Mainz","addr:housenumber":"40","addr:postcode":"55246","addr:street":"Steinern-Kreuz-Weg","amenity":"doctors","email":"espuentrup@aol.com","fax":"+49 6134 4628","healthcare":"doctor","healthcare:speciality":"naturopathy;naturopathy","name":"Hausarztpraxis Kostheim","operator":"Dr. med. Elke Schulze Schüntrup","phone":"+49 6134 62124","website":"https://www.hausarztpraxis-kostheim.de/"},"markedAs":"OSM","timeStamp":"2020-05-11-09-44-54"},{"type":"node","id":6561336791,"lat":49.9986846,"lon":8.2700783,"tags":{"addr:city":"Mainz","addr:housenumber":"9","addr:postcode":"55116","addr:street":"Ludwigsstraße","amenity":"doctors","email":"anmeldung@augenarzt-benning.de","healthcare":"doctor","healthcare:speciality":"ophthalmology","name":"Dr. med. Hartmut Benning","opening_hours":"Mo-Fr 08:30-11:00, Tu,Th 14:30-17:00","operator":"Dr. med. Hartmut Benning","phone":"+49 6131 674460","website":"https://www.augenarzt-benning.de/"},"markedAs":"OSM","timeStamp":"2020-05-11-09-44-54"},{"type":"node","id":6857036988,"lat":50.0585538,"lon":8.2424903,"tags":{"addr:city":"Wiesbaden","addr:housenumber":"107","addr:postcode":"65187","addr:street":"Biebricher Allee","amenity":"doctors","email":"kontakt@praxis-stirn-emmrich.de","fax":"+49 611 843026","healthcare":"doctor","healthcare:speciality":"general","name":"Gemeinschaftspraxis Dres. med. Tobias und Anette Stirn, Udo Emmrich","opening_hours":"Mo 08:00-12:00,17:00-19:00; Tu-We 08:00-12:00; Th 08:00-12:00,17:00-19:00; Fr 08:00-12:00","operator":"Dr. med. Tobias Stirn, Dr. med. Anette Stirn, Dr. med. Udo Emmrich","phone":"+49 611 843025","website":"https://www.praxis-stirn-emmrich.de"},"markedAs":"OSM","timeStamp":"2020-05-11-09-44-54"},{"type":"node","id":7008958792,"lat":50.0000286,"lon":8.2376134,"tags":{"addr:city":"Mainz","addr:housenumber":"1","addr:postcode":"55122","addr:street":"Ida-von-Hahn-Straße","amenity":"doctors","healthcare":"psychotherapist","healthcare:speciality":"physiotherapy","name":"Praxis für Psychotherapie und Beratung in Mainz Dr. Sigrid Schiller","opening_hours:covid19":"open","operator":"Dr. Sigrid Schiller","phone":"+49 179 5191712","website":"http://www.psychotherapie-dr-sigrid-schiller.de/"},"markedAs":"OSM","timeStamp":"2020-05-11-09-44-54"},{"type":"node","id":7069850504,"lat":50.0100442,"lon":8.2610663,"tags":{"addr:city":"Mainz","addr:country":"DE","addr:housenumber":"31","addr:postcode":"55118","addr:street":"Wallaustraße","amenity":"doctors","email":"info@neustadtpraxis.de","fax":"+40 6131 96313-2","healthcare":"doctor","healthcare:speciality":"general","name":"Neustadtpraxis","opening_hours":"Mo 08:00-17:00; Tu 07:30-17:00; We 08:00-12:00; Th 08:00-17:00; Fr 08:00-13:00","operator":"Dr. med. Cornelia Mohrmann, Dr. med. Sönke Kraak","phone":"+40 6131 96313-1","website":"https://www.neustadtpraxis.de","wheelchair":"yes"},"markedAs":"OSM","timeStamp":"2020-05-11-09-44-54"},{"type":"node","id":7111642032,"lat":50.010936,"lon":8.2821999,"tags":{"addr:city":"Mainz-Kastel","addr:housenumber":"32-24","addr:postcode":"55252","addr:street":"In der Witz","amenity":"doctors","email":"praxis@frauenaerzte-kastel.de","fax":"+49 6134 21329","healthcare":"doctor","healthcare:speciality":"gynaecology","name":"Gemeinschaftspraxis Dr. Klinzing-Brand, Dr. Scheit","opening_hours":"Mo-Fr 08:00-12:00, Mo,We 15:00-18:00, Th 14:00-17:00","operator":"Dr. Annette Klinzing-Brand, Dr. Astrid Scheit","phone":"+49 6134 21 11 5","website":"https://www.frauenaerzte-kastel.de/"},"markedAs":"OSM","timeStamp":"2020-05-11-09-44-54"},{"type":"node","id":7382821108,"lat":50.0107732,"lon":8.2815324,"tags":{"amenity":"doctors","email":"praxis.appeldorn@t-online.de","fax":"+49 6134 640142","healthcare":"doctor","healthcare:speciality":"general;traditional_chinese_medicine;acupuncture","name":"Gemeinschaftspraxis Dr. med. C. Dorn","opening_hours":"Mo 08:00-18:00, Tu,Th 08:00-12:00,15:00-18:00, We 09:00-13:00, Fr 08:00-12:00","phone":"+49 172 722 68 98","website":"https://praxis-dorn-appel.de/"},"markedAs":"OSM","timeStamp":"2020-05-11-09-44-54"},{"type":"node","id":7382821109,"lat":50.0108014,"lon":8.2815872,"tags":{"addr:city":"Mainz-Kastel","addr:housenumber":"4","addr:postcode":"55252","addr:street":"Ludwigsplatz","amenity":"doctors","email":"mail@praxis-bastisch.de","fax":"+49 6134 23788","healthcare":"doctor","healthcare:speciality":"geriatrics;chiropractic;internal","name":"Gemeinschaftspraxis Karin & Stefan Bastisch","opening_hours":"Mo-Th 08:30-12:30, Mo 15:00-19:00, Tu,Th 15:00-18:00, Fr 08:30-14:00","operator":"Katrin Bastisch, Stefan Bastisch","phone":"+49 6134 64155","website":"https://www.praxis-bastisch.de/"},"markedAs":"OSM","timeStamp":"2020-05-11-09-44-54"},{"type":"node","id":7382821110,"lat":50.0108255,"lon":8.2815433,"tags":{"addr:city":"Mainz-Kastel","addr:housenumber":"2-4","addr:postcode":"55252","addr:street":"Ludwigsplatz","amenity":"doctors","email":"praxis.appeldorn@t-online.de","fax":"+49 6134 640142","healthcare":"psychotherapist","healthcare:speciality":"psychiatry;traditional_chinese_medicine;acupuncture","name":"Praxis Dorn & Appel","opening_hours":"\"Nach Vereinbarung\"","operator":"Dr. med. Claudia Dorn, Dr. med. Dipl. Psych. Gerhard Appel","phone":"+49 6134 221 57","website":"https://praxis-dorn-appel.de/"},"markedAs":"OSM","timeStamp":"2020-05-11-09-44-54"},{"type":"node","id":7382821111,"lat":50.0108004,"lon":8.2814995,"tags":{"addr:city":"Mainz-Kastel","addr:housenumber":"4","addr:postcode":"55252","addr:street":"Ludwigsrampe","amenity":"doctors","fax":"+49 611 372606","healthcare":"doctor","healthcare:speciality":"ophthalmology","name":"Gemeinschaftspraxis Jost und Brigitta Elborg","opening_hours":"Mo-Th 09:00-13:00; Fr 09:00-12:00","operator":"Dr. med. Jost Elborg, Dr. med. Brigitta Elborg","phone":"+49 611 372645"},"markedAs":"OSM","timeStamp":"2020-05-11-09-44-54"},{"type":"node","id":7391470123,"lat":50.0029653,"lon":8.2103436,"tags":{"amenity":"doctors","healthcare":"doctor","name":"Drs Zimmermann"},"markedAs":"OSM","timeStamp":"2020-05-11-09-44-54"},{"type":"node","id":7448620468,"lat":49.9977802,"lon":8.1835128,"tags":{"addr:city":"Mainz","addr:housenumber":"60","addr:postcode":"55126","addr:street":"Sertoriusring","amenity":"doctors","fax":"+49 6131 478014","healthcare":"doctor","healthcare:speciality":"general;internal","name":"Praxis Helay Amini-Mokrani","operator":"Helay Amini-Mokrani, Dr. med. Willy Traxel","phone":"+49 6131 475147"},"markedAs":"OSM","timeStamp":"2020-05-11-09-44-54"},{"type":"node","id":7448648409,"lat":49.9761942,"lon":8.1908748,"tags":{"addr:city":"Mainz","addr:housenumber":"1","addr:postcode":"55116","addr:street":"An der Markthalle","amenity":"doctors","fax":"+49 6131 479907","healthcare":"doctor","healthcare:speciality":"general","name":"Praxis für Allgemeinmedizin Dr. med. Laura Buch","operator":"Dr. med. Laura Buch","phone":"+49 6131 40008","website":"https://www.allgemeinmedizin-drais.de/"},"markedAs":"OSM","timeStamp":"2020-05-11-09-44-54"},{"type":"node","id":7448661441,"lat":49.9597171,"lon":8.1997912,"tags":{"addr:city":"Mainz","addr:housenumber":"23","addr:postcode":"55127","addr:street":"Regerstraße","amenity":"doctors","fax":"+49 6131 7209327","healthcare":"doctor","healthcare:speciality":"general","name":"Hausarztpraxis am Lerchenberg","operator":"Klaus Benhard","phone":"+49 6131 7761","website":"http://www.hausarzt-lerchenberg.de/"},"markedAs":"OSM","timeStamp":"2020-05-11-09-44-54"},{"type":"node","id":7448672022,"lat":49.9864637,"lon":8.1747583,"tags":{"addr:city":"Mainz","addr:housenumber":"53","addr:postcode":"55126","addr:street":"Poststraße","amenity":"doctors","email":"praxis@praxismainzfinthen.de","fax":"+49 6131 219732","healthcare":"doctor","healthcare:speciality":"general;internal","name":"Praxis Mainz Finthen","operator":"Dr. med. Stephan Briem, Daniela Weitzel, Dr. med. Andrea Tamaru, Dr. med. Katharina Greule, Dr. med. Daniel Tamaru","phone":"+49 6131 472027","website":"https://praxismainzfinthen.de/"},"markedAs":"OSM","timeStamp":"2020-05-11-09-44-54"},{"type":"node","id":7448694504,"lat":49.9623373,"lon":8.2267768,"tags":{"addr:city":"Mainz","addr:housenumber":"26","addr:postcode":"55127","addr:street":"Hinter den Wiesen","amenity":"doctors","email":"drlberti@aol.com","healthcare":"doctor","healthcare:speciality":"physiotherapy","name":"Praxis Dr. Berti","operator":"Dr. med. Dipl.-Psych. Luciano Berti","phone":"+49 6131 366286","website":"https://www.praxis-drberti.com/"},"markedAs":"OSM","timeStamp":"2020-05-11-09-44-54"},{"type":"node","id":7448707413,"lat":49.9674754,"lon":8.3138937,"tags":{"addr:city":"Mainz","addr:housenumber":"100","addr:postcode":"55130","addr:street":"Oppenheimer Straße","amenity":"doctors","email":"kontakt@mein-arzt-mainz.de","fax":"+49 6131 87698","healthcare":"doctor","healthcare:speciality":"internal;cardiology","name":"Gemeinschaftspraxis Dr. med. Alexander Garcia Godelmann Dr. med. Simone Prüfer Dr. med. Gert F. Pfundt","operator":"Dr. med. Alexander Garcia Godelmann, Dr. med. Gert Pfundt, Dr. med. Simone Prüfer","phone":"+49 6131 86153","website":"https://www.mein-arzt-mainz.de/"},"markedAs":"OSM","timeStamp":"2020-05-11-09-44-54"},{"type":"node","id":7449185291,"lat":49.9826724,"lon":8.3039269,"tags":{"addr:city":"Mainz","addr:housenumber":"11","addr:postcode":"55130","addr:street":"Zollgasse","amenity":"doctors","fax":"+49 6131 81142","healthcare":"doctor","healthcare:speciality":"pediatrics","name":"Praxis Dr. med. Thomas Koffler","opening_hours":"Mo-Fr 09:00-12:00, Mo,Tu,Th 15:00-17:00","operator":"Susanne Böckelmann, Dr. med. Thomas Koffler, Tim Hendrik Theobald","phone":"+49 6131 81146","wheelchair":"yes"},"markedAs":"OSM","timeStamp":"2020-05-11-09-44-54"},{"type":"node","id":7449201913,"lat":49.9825787,"lon":8.2977234,"tags":{"addr:city":"Mainz","addr:housenumber":"8","addr:postcode":"55130","addr:street":"Heiligkreuzweg","amenity":"doctors","fax":"+49 6131 9718888","healthcare":"doctor","healthcare:speciality":"general;internal","name":"Praxis Dr. med. Ulrike Hofmann","opening_hours":"Mo-Fr 08:30-12:00, Mo-Fr 15:30-18:00","operator":"Friederike Brink, Dr. med. Ulrike Hofmann","phone":"+49 6131 85050"},"markedAs":"OSM","timeStamp":"2020-05-11-09-44-54"},{"type":"node","id":7449205049,"lat":49.9819797,"lon":8.2452388,"tags":{"addr:city":"Mainz","addr:housenumber":"8","addr:postcode":"55128","addr:street":"Bahnstraße","amenity":"doctors","fax":"+49 6131 336553","healthcare":"doctor","healthcare:speciality":"general","name":"Praxis Dr. Anschütz-Kröck","opening_hours":"Mo,Tu,Th,Fr 09:00-13:00, Mo,Th 14:00-16:00","operator":"Dr. med. Stefanie Anschütz-Kröck","phone":"+49 6131 336556"},"markedAs":"OSM","timeStamp":"2020-05-11-09-44-54"},{"type":"node","id":7449215979,"lat":49.9806903,"lon":8.2904417,"tags":{"addr:city":"Mainz","addr:housenumber":"14","addr:postcode":"55130","addr:street":"Wilhelm-Theodor-Römheld-Straße","amenity":"doctors","email":"kjp-praxis-mainz@gmx.de","fax":"+49 6131 3275204","healthcare":"doctor","healthcare:speciality":"paediatrics;child_psychiatry","name":"Praxis für Kinder- und Jugendpsychiatrie und -psychotherapie","operator":"Dr. med. Natasa Brückner, Ramona Schumann","phone":"+49 6131 327520","website":"http://www.kjp-praxis-mainz.de/"},"markedAs":"OSM","timeStamp":"2020-05-11-09-44-54"},{"type":"node","id":7449222691,"lat":49.9869866,"lon":8.2757827,"tags":{"addr:city":"Mainz","addr:housenumber":"42","addr:postcode":"55131","addr:street":"Ebersheimer Weg","amenity":"doctors","email":"praxis@diabetologie-mainz.de","fax":"+49 6131-571739","healthcare":"doctor","healthcare:speciality":"general","name":"Praxis Dr. med. Ulrich Alker","opening_hours":"Mo-Fr 08:00-11:00, Mo,Tu,Th 15:00-18:00","operator":"Dr. med. Ulrich Alker","phone":"+49 6131 -571707","website":"https://www.diabetologie-mainz.de/"},"markedAs":"OSM","timeStamp":"2020-05-11-09-44-54"},{"type":"node","id":7449258305,"lat":49.9976258,"lon":8.2305839,"tags":{"addr:city":"Mainz","addr:housenumber":"38","addr:postcode":"55122","addr:street":"Dijonstraße","amenity":"doctors","email":"joachim.bach@arcor.de","fax":"+49 6131 791888","healthcare":"doctor","healthcare:speciality":"pediatrics","name":"Kinderarzt-Praxis Mainz - Dr. med. Joachim Bach","operator":"Dr. med. Joachim Bach","phone":"+49 6131 330000","website":"https://www.kinderaerzte-im-netz.de/"},"markedAs":"OSM","timeStamp":"2020-05-11-09-44-54"},{"type":"node","id":7450401324,"lat":50.0016641,"lon":8.2037039,"tags":{"addr:city":"Mainz","addr:housenumber":"7","addr:postcode":"55124","addr:street":"Kapellenstraße","amenity":"doctors","email":"info@butz-schorrlepp.de","fax":"+49 6131 46 60 80","healthcare":"doctor","healthcare:speciality":"general;internal","name":"Gemeinschaftspraxis Butz Schorrlepp","operator":"Julia Butz, Dr. med. Marcel Schorrlepp","phone":"+49 6131 43936","website":"https://www.butz-schorrlepp.de/"},"markedAs":"OSM","timeStamp":"2020-05-11-09-44-54"},{"type":"node","id":7450413331,"lat":50.0035203,"lon":8.2097807,"tags":{"addr:city":"Mainz","addr:housenumber":"22","addr:postcode":"55124","addr:street":"Gerhart-Hauptmann-Straße","amenity":"doctors","email":"mail@praxis-dr-best.de","fax":"+49 6131 466604","healthcare":"doctor","healthcare:speciality":"general;internal","name":"Praxis Dr. Best","operator":"Dr. med. Dr. rer. nat. Johannes Best, Johannes Kharsa","phone":"+49 6131 44145","website":"http://www.praxis-dr-best.de/4466.html"},"markedAs":"OSM","timeStamp":"2020-05-11-09-44-54"},{"type":"node","id":7450416662,"lat":49.9964735,"lon":8.2751656,"tags":{"addr:city":"Mainz","addr:housenumber":"23","addr:postcode":"55116","addr:street":"Augustinerstraße","amenity":"doctors","fax":"+49 6251 1752334","healthcare":"doctor","healthcare:speciality":"physiotherapy","name":"Praxis Dr. Edgar Fieber","opening_hours":"Mo 09:00-18:00, Tu 08:30:13:00, We 09:00-19:00, Th 09:00-15:00","operator":"Dr. phil. Dipl.-Psych. Edgar Fieberg, Andrea Bayer-Fieberg","phone":"+49 6251 9389 58"},"markedAs":"OSM","timeStamp":"2020-05-11-09-44-54"},{"type":"node","id":7450418752,"lat":50.0033031,"lon":8.2126264,"tags":{"addr:city":"Mainz","addr:housenumber":"48","addr:postcode":"55124","addr:street":"Breite Straße","amenity":"doctors","email":"praxis@braun-mainz.de","fax":"+49 6131 941412","healthcare":"doctor","healthcare:speciality":"general","name":"Praxis Dr. med. Jürgen Braun","operator":"Dr. med. Jürgen Braun, Dr.med. Anke Lühr-Braun","phone":"+49 6131 941411","website":"https://www.dr-juergen-braun.de/"},"markedAs":"OSM","timeStamp":"2020-05-11-09-44-54"},{"type":"node","id":7450425103,"lat":50.0042652,"lon":8.2124146,"tags":{"addr:city":"Mainz","addr:housenumber":"41 b","addr:postcode":"55124","addr:street":"Kurt-Schumacher-Straße","amenity":"doctors","email":"dr@stephanbuchner.de","fax":"+49 6131 6277762","healthcare":"doctor","healthcare:speciality":"paediatrics","name":"Praxis Dr. med. Stephan Buchner","operator":"Dr. med. Stephan Buchner","phone":"+49 6131 688434","website":"http://www.stephanbuchner.de/"},"markedAs":"OSM","timeStamp":"2020-05-11-09-44-54"},{"type":"node","id":7450430206,"lat":50.0047607,"lon":8.2026273,"tags":{"addr:city":"Mainz","addr:housenumber":"43","addr:postcode":"55124","addr:street":"Jahnstraße","amenity":"doctors","healthcare":"doctor","healthcare:speciality":"child_psychiatry","name":"Praxis Dipl.-Päd. Kathrin Bach","opening_hours":"\"Termine nach Vereinbarung\"","operator":"Dipl.-Päd. Kathrin Bach","phone":"+49 6131 6176935"},"markedAs":"OSM","timeStamp":"2020-05-11-09-44-54"},{"type":"node","id":7450447594,"lat":50.007581,"lon":8.2135115,"tags":{"addr:city":"Mainz","addr:housenumber":"5 a","addr:postcode":"55124","addr:street":"Immelmannstraße","amenity":"doctors","email":"ch.best@t-online.de","healthcare":"doctor","healthcare:speciality":"physiotherapy","name":"Dipl.-Psych. Christine Best","opening_hours":"Mo-Fr 09:00-12:00, Mo,Tu,Th,Fr 14:00-18:00","operator":"Dipl.-Psych. Christine Best","phone":"+49 6131 465822"},"markedAs":"OSM","timeStamp":"2020-05-11-09-44-54"},{"type":"node","id":7450452627,"lat":50.0073503,"lon":8.2120529,"tags":{"addr:city":"Mainz","addr:housenumber":"95 a","addr:postcode":"55124","addr:street":"Kurt-Schumacher-Straße","amenity":"doctors","healthcare":"doctor","healthcare:speciality":"general","name":"Praxis Heidemarie Heinz-Dowling","opening_hours":"\"Termine nach Vereinbarung\"","operator":"Heidemarie Heinz-Dowling","phone":"+49 6131 465825"},"markedAs":"OSM","timeStamp":"2020-05-11-09-44-54"},{"type":"node","id":7450460435,"lat":50.0024959,"lon":8.2118793,"tags":{"addr:city":"Mainz","addr:housenumber":"58","addr:postcode":"55124","addr:street":"Schulstraße","amenity":"doctors","fax":"+49 6131 211826","healthcare":"doctor","healthcare:speciality":"physiotherapy","name":"Praxis Dr. phil. Ulrike Bastian","opening_hours":"\"Termine nach Vereinbarung\"","operator":"Dr. phil. Ulrike Bastian","phone":"+49 6131 44179"},"markedAs":"OSM","timeStamp":"2020-05-11-09-44-54"},{"type":"node","id":7450464308,"lat":50.003692,"lon":8.2140866,"tags":{"addr:city":"Mainz","addr:housenumber":"60","addr:postcode":"55124","addr:street":"Breite Straße","amenity":"doctors","email":"kontakt@augenarzt_mainz.de","fax":"+49 6131 467494","healthcare":"doctor","healthcare:speciality":"ophthalmology","name":"Praxis Dr.med. Klaus Rosbach","opening_hours:covid19":"open","operator":"Dr. med. Klaus Rosbach, Dr. med. Julia Anna Charlotte Beierlein","phone":"+49 6131 46187","website":"http://web2.cylex.de/reviews/viewcompanywebsite.aspx?firmaName=dr.+med.+rosbach+klaus&companyId=3440671"},"markedAs":"OSM","timeStamp":"2020-05-11-09-44-54"},{"type":"node","id":7450472829,"lat":49.9960897,"lon":8.2794824,"tags":{"addr:city":"Mainz","addr:housenumber":"4 a - c","addr:postcode":"55116","addr:street":"Rheinstraße","amenity":"doctors","email":"info@radiologie-mainz.de","fax":"+49 6131 28811 22","healthcare":"doctor","healthcare:speciality":"radiology;nuclear_medicine","name":"Gemeinschaftspraxis für Radiologie und Nuklearmedizin","operator":"Dr. med. Peter Benz, Dr. med. Stefan Both, Dr. med. Ralph Deubler, Dr. med. Barbara Hommel, Dr. med. Arnim Jung, Dr. med. Angela Kremer-Staubitz, Dr. med. Fariba Kuscha-Bolnei, Dr. med. Julia Langen, Dr. med. Carsten Maximilian Pietsch","phone":"+49 6131 28811 0","website":"https://www.radiologie-mainz.de/"},"markedAs":"OSM","timeStamp":"2020-05-11-09-44-54"},{"type":"node","id":7450476649,"lat":49.9937938,"lon":8.2778709,"tags":{"addr:city":"Mainz","addr:housenumber":"5","addr:postcode":"55116","addr:street":"Holzhofstraße","amenity":"doctors","email":"info@radiologie-in-mainz.de","fax":"+49 6131 262611","healthcare":"doctor","healthcare:speciality":"radiology","name":"Radiologie am Römischen Theater","operator":"Dr. med. Barbara Buddenbrock","phone":"+49 6131 2626","website":"http://www.radiologie-in-mainz.de/"},"markedAs":"OSM","timeStamp":"2020-05-11-09-44-54"},{"type":"node","id":7450476983,"lat":49.9957045,"lon":8.2809766,"tags":{"addr:city":"Mainz","addr:housenumber":"4 n","addr:postcode":"55116","addr:street":"Rheinstraße","amenity":"doctors","email":"info@micma-mainz.de","fax":"+49 6131 6933625","healthcare":"doctor","healthcare:speciality":"gynaecology","name":"mic.ma.mainz.","operator":"PD Dr. med. habil. Daniel Böhm, Dr. med. Bernd-Rüdiger Söder, Dr. med. Volker Heyl, Dr. med. Tamara Höbert","phone":"+49 6131 693360","website":"https://micma-mainz.de/"},"markedAs":"OSM","timeStamp":"2020-05-11-09-44-54"},{"type":"node","id":7450479363,"lat":49.994791,"lon":8.2657762,"tags":{"addr:city":"Mainz","addr:housenumber":"7","addr:postcode":"55116","addr:street":"Martinsstraße","amenity":"doctors","fax":"+49 6131 230299","healthcare":"doctor","healthcare:speciality":"physiotherapy","name":"Praxis Dr. med. Horst-Uwe Boucsein","opening_hours":"Mo-Th 08:00-17:00, Fr 08:00-15:00","operator":"Dr. med. Horst-Uwe Boucsein","phone":"+49 6131 230299"},"markedAs":"OSM","timeStamp":"2020-05-11-09-44-54"},{"type":"node","id":7450490387,"lat":49.9961966,"lon":8.2722554,"tags":{"addr:city":"Mainz","addr:housenumber":"1-3","addr:postcode":"55116","addr:street":"Weihergarten","amenity":"doctors","email":"praxis@angelov-psychiatrie.de","fax":"+49 6131 2079978","healthcare":"doctor","healthcare:speciality":"physiotherapy","name":"Praxis Dr. med. Andreas Angelov","operator":"Dr. med. Andreas Angelov","phone":"+49 6131 2079977","website":"http://angelov-psychiatrie.de/"},"markedAs":"OSM","timeStamp":"2020-05-11-09-44-54"},{"type":"node","id":7475836684,"lat":49.9998417,"lon":8.276388,"tags":{"addr:city":"Mainz","addr:housenumber":"43-45","addr:postcode":"55116","addr:street":"Rheinstraße","amenity":"doctors","email":"zen­trum@­ko­lo­prok­to­lo­gie-mainz.de","fax":"+49 6131 225626","healthcare":"doctor","healthcare:speciality":"surgery","name":"Zentrum für Ko­lo­prok­to­lo­gie/Chirurgie","opening_hours:covid19":"open","operator":"PD Dr. med. habil. Thomas Borschitz, Thomas Fiebig","phone":"+49 6131 225526","website":"https://www.koloproktologie-mainz.de/"},"markedAs":"OSM","timeStamp":"2020-05-11-09-44-54"},{"type":"node","id":7475838469,"lat":49.9992434,"lon":8.2772424,"tags":{"addr:city":"Mainz","addr:housenumber":"14","addr:postcode":"55116","addr:street":"Fischtorplatz","amenity":"doctors","email":"info@hausarztpraxis-am-fischtorplatz.de","healthcare":"doctor","healthcare:speciality":"general;internal","name":"Hausarztpraxis am Fischtorplatz in Mainz","operator":"Dr. med. Fouzia Amraoui, Dr. med. Anne Angermair","phone":"+49 6131-222720","website":"http://www.hausarztpraxis-am-fischtorplatz.de/"},"markedAs":"OSM","timeStamp":"2020-05-11-09-44-54"},{"type":"node","id":7475863305,"lat":49.9991993,"lon":8.2790338,"tags":{"addr:city":"Mainz","addr:housenumber":"43","addr:postcode":"55116","addr:street":"Uferstraße","amenity":"doctors","healthcare":"doctor","healthcare:speciality":"physiotherapy","name":"Psychotherapeutische Praxis Dipl.-Psych. Baier-Stellwagen","opening_hours":"\"Termine nach Vereinbarung\"","operator":"Dipl.-Psych. Eva Baier-Stellwagen","phone":"+49 6131 215659"},"markedAs":"OSM","timeStamp":"2020-05-11-09-44-54"},{"type":"node","id":7475902638,"lat":49.9978141,"lon":8.2689564,"tags":{"addr:city":"Mainz","addr:housenumber":"2","addr:postcode":"55116","addr:street":"Ludwigsstraße","amenity":"doctors","email":"info@derma-mainz.de","fax":"+49 6131 221143","healthcare":"doctor","healthcare:speciality":"dermatology","name":"Hautarzt am Fastnachtsbrunnen Dr. Scheicher","opening_hours:covid19":"open","operator":"Dr. med. Stephan Scheicher, Nicole Adler","phone":"+49 6131 221140","website":"https://www.derma-mainz.de/"},"markedAs":"OSM","timeStamp":"2020-05-11-09-44-54"},{"type":"node","id":7475912674,"lat":50.0013841,"lon":8.2650721,"tags":{"addr:city":"Mainz","addr:housenumber":"17-23","addr:postcode":"55116","addr:street":"Große Bleiche","amenity":"doctors","fax":"+49 6131 225779","healthcare":"doctor","healthcare:speciality":"internal","name":"Praxis Dr. med. Wolfgang Boedecker","opening_hours":"Mo,Tu,Th 09:00-11:00, Mo,Tu,Th 15:00-18:00, Fr 15:30-17:00","operator":"Dr. med. Wolfgang Boedecker","phone":"+49 6131 225794"},"markedAs":"OSM","timeStamp":"2020-05-11-09-44-54"},{"type":"node","id":7475914487,"lat":50.0002546,"lon":8.2735906,"tags":{"addr:city":"Mainz","addr:housenumber":"12","addr:postcode":"55116","addr:street":"Am Brand","amenity":"doctors","email":"info@tagesklinik-mainz.de","fax":"+49 6131 97229 19","healthcare":"doctor","healthcare:speciality":"Anesthesiology","name":"Gemeinschaftspraxis Tagesklinik Am Brand","opening_hours:covid19":"open","operator":"Dr. med. Andreas Bartels, Dr. med. Werner Fischer, Dr. med. Stefanie Gozon, Dr. med. Constanze Müller-Heß, Dr. med. Marcel Rähmer, Sabine Vettel","phone":"+49 6131 97229 0","website":"https://www.tagesklinik-mainz.de/","wheelchair":"yes"},"markedAs":"OSM","timeStamp":"2020-05-11-09-44-54"},{"type":"node","id":7475927519,"lat":50.0022962,"lon":8.2661998,"tags":{"addr:city":"Mainz","addr:housenumber":"29","addr:postcode":"55116","addr:street":"Große Bleiche","amenity":"doctors","email":"Dr.Babucke@t-online.de","fax":"+49 6131 237686","healthcare":"doctor","healthcare:speciality":"gynaecology","name":"Frauenarztpraxis Dr. med. Michael Babucke","opening_hours:covid19":"open","operator":"Dr. med. Michael Babucke","phone":"+49 6131 237676","website":"https://www.frauenarzt-babucke.de/"},"markedAs":"OSM","timeStamp":"2020-05-11-09-44-54"},{"type":"node","id":7475929040,"lat":50.0005362,"lon":8.2729695,"tags":{"addr:city":"Mainz","addr:housenumber":"6","addr:postcode":"55116","addr:street":"Quintinsstraße","amenity":"doctors","fax":"+49 6131 619409","healthcare":"doctor","healthcare:speciality":"neurology;surgery","name":"Praxis Dr.med. Alireza Aghchi Facharzt für Neurochirurgie","opening_hours":"Mo-Fr 08:00-12:00, Mo-Th 14:00-18:00","opening_hours:covid19":"open","operator":"Dr. med. Alireza Aghchi","phone":"+49 6131 619400"},"markedAs":"OSM","timeStamp":"2020-05-11-09-44-54"},{"type":"node","id":7475933202,"lat":49.9991,"lon":8.2675199,"tags":{"addr:city":"Mainz","addr:housenumber":"3","addr:postcode":"55116","addr:street":"Emmeransstraße","amenity":"doctors","email":"mainz@diegyn-praxis.de","fax":"+49 6131 233710","healthcare":"doctor","healthcare:speciality":"gynaecology;endocrinology","name":"Gynpraxis in Mainz (Altstadt)","opening_hours:covid19":"open","operator":"Dr. med. Gülay Gencyigit, Sanitätsrat Dr. med. Werner Harlfinger, Dr. med. Eckhard Kiefer, Dr. med. Dana Knöll","phone":"+49 6131 220222","website":"https://www.diegyn-praxis.de/"},"markedAs":"OSM","timeStamp":"2020-05-11-09-44-54"},{"type":"node","id":7475943751,"lat":49.9983438,"lon":8.2663595,"tags":{"addr:city":"Mainz","addr:housenumber":"1","addr:postcode":"55116","addr:street":"Münsterstraße","amenity":"doctors","email":"madl@gesundheitsseiten.de","fax":"+49 6131 268737","healthcare":"doctor","healthcare:speciality":"physiotherapy;general","name":"Dr. med. Dr. phil. Matthias Adler","opening_hours":"\"Termine nach Vereinbarung\"","operator":"Dr. med. Dr. phil. Matthias Adler","phone":"+49 6131 6225291"},"markedAs":"OSM","timeStamp":"2020-05-11-09-44-54"},{"type":"node","id":7475946908,"lat":50.0013879,"lon":8.2688798,"tags":{"addr:city":"Mainz","addr:housenumber":"27","addr:postcode":"55116","addr:street":"Emmeransstraße","amenity":"doctors","email":"info@praxishhb.de","fax":"+49 6131 6006819","healthcare":"doctor","healthcare:speciality":"gynaecology","name":"Praxis Dr. med. Henriette Hamm-Harzer und Dr. med. Barbara Bernd","opening_hours:covid19":"open","operator":"Dr. med. Barbara Bernd, Dr. med. Henriette Hamm-Harzer","phone":"+49 6131 600680","website":"http://frauenaerztinnen-roemerpassage.de/","wheelchair":"yes"},"markedAs":"OSM","timeStamp":"2020-05-11-09-44-54"},{"type":"node","id":7475957019,"lat":50.0030497,"lon":8.26382,"tags":{"addr:city":"Mainz","addr:housenumber":"10","addr:postcode":"55128","addr:street":"Neubrunnenstraße","amenity":"doctors","fax":"+49 6131 231300","healthcare":"doctor","healthcare:speciality":"general","name":"Gemeinschaftspraxis Dres. Elisabeth Syhr-Schmitt und Anna Bergner","opening_hours":"Mo-Fr 08:00-12:00, Mo,Tu,Th 15:00-18:00","operator":"Anna Bergner, Dr. med. Elisabeth Syhr-Schmitt","phone":"+49 6131 226503"},"markedAs":"OSM","timeStamp":"2020-05-11-09-44-54"},{"type":"node","id":7475958609,"lat":50.0008872,"lon":8.2653432,"tags":{"addr:city":"Mainz","addr:housenumber":"8","addr:postcode":"55116","addr:street":"Umbach","amenity":"doctors","healthcare":"doctor","healthcare:speciality":"ophthalmology","name":"Dr. Jörg Bauer & Kollegen Fachärzte für Augenheilkunde","opening_hours:covid19":"open","operator":"Dr. med. Jörg Bauer, apl. Professor Dr. med. Thomas Krzizok, Dr. med. Sebastian Frederik Morgen","phone":"+49 6131 221995","website":"https://augenchirurgie-mainz.de/","wheelchair":"yes"},"markedAs":"OSM","timeStamp":"2020-05-11-09-44-54"},{"type":"node","id":7475958610,"lat":50.0009476,"lon":8.2651474,"tags":{"addr:city":"Mainz","addr:postcode":"55116","addr:street":"Große Bleiche","amenity":"doctors","fax":"+49 6131 236046","healthcare":"doctor","healthcare:speciality":"ophthalmology","name":"Dr. med. Cahit Bozkus","opening_hours":"Mo-Fr 08:30-12:00, Mo,Tu,Th,Fr 15:00-18:00","operator":"Dr. med. Cahit Bozkus","phone":"+49 6131 236045"},"markedAs":"OSM","timeStamp":"2020-05-11-09-44-54"},{"type":"node","id":7475977001,"lat":50.0010752,"lon":8.2615022,"tags":{"addr:city":"Mainz","addr:housenumber":"13","addr:postcode":"55116","addr:street":"Bahnhofstraße","amenity":"doctors","email":"info@urologen-mainz.de","fax":"+49 6131 27048 48","healthcare":"doctor","healthcare:speciality":"urology","name":"Praxis Die Urologen Mainz","opening_hours:covid19":"open","operator":"Dr. med. Mirko Adam, Dr. med. Christopher Ziesel","phone":"+49 6131 270480","website":"http://www.urologen-mainz.de/","wheelchair":"limited"},"markedAs":"OSM","timeStamp":"2020-05-11-09-44-54"},{"type":"node","id":7475991091,"lat":50.0033061,"lon":8.2597868,"tags":{"addr:city":"Mainz","addr:housenumber":"3","addr:postcode":"55118","addr:street":"Rhabanusstraße","amenity":"doctors","email":"mail@zap-mainz.de","fax":"+49 6131 21414321","healthcare":"doctor","healthcare:speciality":"child_psychiatry","level":"8","name":"Praxisgemeinschaft Maria Rebmann | Dr. Gundolf Berg","opening_hours:covid19":"open","operator":"Dr. med. Gundolf Berg, Maria Rebmann","phone":"+49 6131 2141430","website":"https://zap-mainz.de/"},"markedAs":"OSM","timeStamp":"2020-05-11-09-44-54"},{"type":"node","id":7475991092,"lat":50.0029399,"lon":8.2597085,"tags":{"addr:city":"Mainz","addr:housenumber":"3","addr:postcode":"55118","addr:street":"Bonifaziusstraße","amenity":"doctors","email":"info@zosu.eu","fax":"+49 6131 2760729","healthcare":"doctor","healthcare:speciality":"surgery","name":"ZOSU Mainz","opening_hours:covid19":"open","operator":"Dr. med. Thomas Bickert, Dr. med. Stephan Jung, He-Jin Kim, Tom Madathany, Tolga Sancaktaroglu, Lena Spieker, Dr. med. Michael Molitor","phone":"+49 6131 276070","website":"https://zosu.eu/standorte/zosu_mainz/"},"markedAs":"OSM","timeStamp":"2020-05-11-09-44-54"},{"type":"node","id":7475991093,"lat":50.0032283,"lon":8.2597464,"tags":{"addr:city":"Mainz","addr:housenumber":"1","addr:postcode":"55118","addr:street":"Erthalstraße","amenity":"doctors","email":"info@bonifaziuspraxis.de","fax":"+49 6131 674013","healthcare":"doctor","healthcare:speciality":"general;internal","name":"Bonifaziuspraxis Anke Andreas & Dr. Eva Theisen-Giesecke","opening_hours:covid19":"open","operator":"Anke Andreas, Dr. med. Eva Theisen-Giesecke","phone":"+49 6131 674011","website":"http://www.bonifaziuspraxis.de/"},"markedAs":"OSM","timeStamp":"2020-05-11-09-44-54"},{"type":"node","id":7475991098,"lat":50.0041821,"lon":8.2609608,"tags":{"addr:city":"Mainz","addr:housenumber":"8 a","addr:postcode":"55118","addr:street":"Boppstraße","amenity":"doctors","email":"praxis@gynpraxis-boppstrasse.de","fax":"+49 6131 673083","healthcare":"doctor","healthcare:speciality":"gynaecology","name":"Gynäkologische Gemeinschaftspraxis Dr. med. Susanne Warken Dr. med. Kathrin Luais Dr. med. Christine Buhrmann","opening_hours:covid19":"open","operator":"Dr. med. Susanne Warken, Dr. med. Kathrin Luais, Dr. med. Christine Buhrmann, Dr. med. Annika Grazioli","phone":"+49 6131 677733","website":"frauenaerztinnen-in-mainz.de"},"markedAs":"OSM","timeStamp":"2020-05-11-09-44-54"},{"type":"node","id":7475991099,"lat":50.0040786,"lon":8.2604136,"tags":{"addr:city":"Mainz","addr:housenumber":"7","addr:postcode":"55118","addr:street":"Bonifaziusstraße","amenity":"doctors","email":"venenzentrum.drbockelmann@yahoo.de","healthcare":"doctor","healthcare:speciality":"general","name":"Venen- und Lymphzentrum Mainz","opening_hours:covid19":"open","operator":"Dr. med. Britta Bockelmann","phone":"+49 6131 221311","website":"http://venen-lymphzentrum-mainz.de/"},"markedAs":"OSM","timeStamp":"2020-05-11-09-44-54"},{"type":"node","id":7475991421,"lat":49.9980845,"lon":8.2570213,"tags":{"addr:city":"Mainz","addr:housenumber":"25","addr:postcode":"55131","addr:street":"Binger Straße","amenity":"doctors","email":"info@radiomed-praxis.de","fax":"+49 6131-235241, +49 6131-6246310","healthcare":"doctor","healthcare:speciality":"radiology;Nuclear_medicine","name":"Praxis Radiomed Mainz","opening_hours:covid19":"open","operator":"Dr. med. Christopher Ahlers, Dr. med. Jochen Beus, Dr. med. Carsten Bletz, Dr. med. Monica, Dr. med. Reinhold Hümmerich, Beate Kienle Craciun, Dr. med. Katja Lohmann","phone":"+49 6131-232481, +49 6131-624630","website":"https://www.radiomed-praxis.de/"},"markedAs":"OSM","timeStamp":"2020-05-11-09-44-54"},{"type":"node","id":7476004157,"lat":50.0001138,"lon":8.257217,"tags":{"addr:city":"Mainz","addr:housenumber":"3-5","addr:postcode":"55122","addr:street":"Wallstraße","amenity":"doctors","email":"info@orthopaedicum-mainz.de","healthcare":"doctor","healthcare:speciality":"Orthopedics","name":"Orthopaedicum Mainz","opening_hours:covid19":"open","operator":"Dr. med. Sven Sarfert","phone":"+49 6131 6006690","website":"http://www.orthopaedicum-mainz.de/"},"markedAs":"OSM","timeStamp":"2020-05-11-09-44-54"},{"type":"node","id":7476004158,"lat":50.0002552,"lon":8.2568871,"tags":{"addr:city":"Mainz","addr:housenumber":"3-5","addr:postcode":"55122","addr:street":"Wallstraße","amenity":"doctors","email":"praxis@frauenaerztinnen-mainz.de","fax":"+49 6131 221136","healthcare":"doctor","healthcare:speciality":"gynaecology","name":"Dr. Roswitha Imhof | Birgit Aßmann Reuter","opening_hours:covid19":"open","operator":"Birgit Aßmann-Reuter, Dr. med. Roswitha Imhof","phone":"+49 6131 221133","website":"http://www.frauenaerztinnen-mainz.de/","wheelchair":"yes"},"markedAs":"OSM","timeStamp":"2020-05-11-09-44-54"},{"type":"node","id":7476014618,"lat":49.9633131,"lon":8.3140409,"tags":{"addr:city":"Mainz","addr:housenumber":"42","addr:postcode":"55130","addr:street":"Oppenheimer Straße","amenity":"doctors","email":"praxis@drchristmann.de","fax":"+49 6131 - 986057","healthcare":"doctor","healthcare:speciality":"paediatrics","name":"Praxis Dr. med. J. Peter Christmann Mainz","opening_hours:covid19":"open","operator":"Dr. med. Martin Christmann, Dr. med. Johannes-Peter Christmann, Dr. med. Kathrin Küper","phone":"+49 6131 - 86084","website":"http://www.dr-christmann.de/kontakt"},"markedAs":"OSM","timeStamp":"2020-05-11-09-44-54"},{"type":"node","id":7476041397,"lat":49.9976824,"lon":8.2700407,"tags":{"addr:city":"Mainz","addr:housenumber":"31","addr:postcode":"55116","addr:street":"Weißliliengasse","amenity":"doctors","email":"info@urologie-mainz-mitte.de","fax":"+49 61 31 – 23 33 35","healthcare":"doctor","healthcare:speciality":"urology","name":"Urologie Mainz Mitte","opening_hours:covid19":"open","operator":"Dr. med. Stefanie Cudovic, Dr. med. Johannes Fritsch, Dr. med. Jörg Schede","phone":"+49 61 31 – 23 33 45","website":"https://urologie-mainz-mitte.de/"},"markedAs":"OSM","timeStamp":"2020-05-11-09-44-54"},{"type":"node","id":7500435914,"lat":50.0198731,"lon":8.2167724,"tags":{"addr:city":"Mainz","addr:housenumber":"31 b","addr:postcode":"55120","addr:street":"Am Lemmchen","amenity":"doctors","fax":"+49 61 31 68 50 24","healthcare":"doctor","healthcare:speciality":"general","name":"Praxis Matthias Diehl","opening_hours":"Mo-Th 08:00-12:00, Mo,Tu,Th 16:00-18:00, Fr 14:00-17:00","opening_hours:covid19":"open","operator":"Matthias Diehl","phone":"+49 6131 683000"},"markedAs":"OSM","timeStamp":"2020-05-11-09-44-54"},{"type":"node","id":7500452852,"lat":49.9989377,"lon":8.2755524,"tags":{"addr:city":"Mainz","addr:housenumber":"10","addr:postcode":"55116","addr:street":"Liebfrauenstraße","amenity":"doctors","email":"info@die-hausaerzte-am-mainzer-dom.de","fax":"+49 61 31-22 35 44","healthcare":"doctor","healthcare:speciality":"general;dermatology","name":"Praxis Dr. med. Susanne Thiel und Dr. med. Birgit Datz","opening_hours:covid19":"open","operator":"Dr. med. Susanne Thiel,  Dr. med. Birgit Datz","phone":"+49 61 31-22 44 90","website":"https://die-hausaerzte-am-mainzer-dom.de/"},"markedAs":"OSM","timeStamp":"2020-05-11-09-44-54"},{"type":"node","id":7500453974,"lat":50.0015366,"lon":8.261755,"tags":{"addr:city":"Mainz","addr:housenumber":"10","addr:postcode":"55116","addr:street":"Parcusstraße","amenity":"doctors","fax":"+49 61 31 / 22 13 14","healthcare":"doctor","healthcare:speciality":"HNO","name":"HNO Praxis Mainz","opening_hours":"\"Termine nach Vereinbarung\"","opening_hours:covid19":"open","operator":"Dr. med. Andrea Döscher, Dr. med. Janine Nitsch, Dr. med. Michael Pfeffer","phone":"+49 61 31 / 22 75 50","website":"https://www.hnomainz.de/Startseite"},"markedAs":"OSM","timeStamp":"2020-05-11-09-44-54"},{"type":"node","id":7500454051,"lat":50.0054007,"lon":8.2579426,"tags":{"addr:city":"Mainz","addr:housenumber":"38","addr:postcode":"55118","addr:street":"Boppstraße","amenity":"doctors","email":"praxis@boppstrasse38.de","fax":"+49 61 31 / 67 89 57","healthcare":"doctor","healthcare:speciality":"general","name":"Gemeinschaftspraxis Boppstraße 38","opening_hours":"Mo-Fr 08:00-11:00","opening_hours:covid19":"open","operator":"Dr. med. Gabriele Haas","phone":"+49 61 31 / 61 37 53","website":"https://boppstrasse38.de/"},"markedAs":"OSM","timeStamp":"2020-05-11-09-44-54"},{"type":"node","id":7500503143,"lat":49.9976501,"lon":8.2700859,"tags":{"addr:city":"Mainz","addr:housenumber":"29","addr:postcode":"55116","addr:street":"Weißliliengasse","amenity":"doctors","email":"info@kinderchirurgie-in-mainz.de","fax":"+49 6131 - 219 35 74","healthcare":"doctor","healthcare:speciality":"general;surgery","name":"Praxis Kinderchirugie in Mainz","opening_hours:covid19":"open","operator":"Dr. med. Ute Schäfer-Pranschke, Jutta Dieckwisch","phone":"+49 6131 - 219 35 70","website":"https://kinderchirurgie-in-mainz.de/"},"markedAs":"OSM","timeStamp":"2020-05-11-09-44-54"},{"type":"node","id":7500505216,"lat":50.0037389,"lon":8.2142404,"tags":{"addr:city":"Mainz","addr:housenumber":"62","addr:postcode":"55124","addr:street":"Breite Straße","amenity":"doctors","fax":"+49 61 31 / 91 10 82","healthcare":"doctor","healthcare:speciality":"general","name":"Praxis André Klärner","opening_hours":"Mo-Th 08:00-13:00, Mo,Tu,Th 16:00-19:00","operator":"André Klärner, MUDr. / Univ. Prag (TSC) Christopher Dixon-Cole","phone":"+49 61 31 / 4 21 22"},"markedAs":"OSM","timeStamp":"2020-05-11-09-44-54"},{"type":"node","id":7500506731,"lat":49.995906,"lon":8.2623768,"tags":{"addr:city":"Mainz","addr:housenumber":"16","addr:postcode":"55131","addr:street":"Trajanstraße","amenity":"doctors","email":"mail@hno-praxis-dietz.de","fax":"+49 6131 571206","healthcare":"doctor","healthcare:speciality":"HNO","name":"Praxis Dr. med. Werner Dietz","opening_hours:covid19":"open","operator":"Dr. med. Werner Dietz","phone":"+49 6131 571206","website":"http://www.hno-praxis-dietz.de/praxis.html"},"markedAs":"OSM","timeStamp":"2020-05-11-09-44-54"},{"type":"node","id":7500541149,"lat":50.0001876,"lon":8.2566665,"tags":{"addr:city":"Mainz","addr:housenumber":"3-5","addr:postcode":"55122","addr:street":"Wallstraße","amenity":"doctors","email":"info@cardiopraxis-mainz.de","fax":"+49 6131-62926-20","healthcare":"doctor","healthcare:speciality":"general;cardiology","name":"Cardiopraxis Mainz","opening_hours:covid19":"open","operator":"Dr. med. Michael Drexler, Dr. med. Guido Mentz, Dr. med. Michaela Speth-Nitschke, Dr. med. Michael Todt, Dr. med. Jörg Volmar, Dr. med. Alexander Hauber","phone":"+49 6131-62926-0","website":"http://www.cardiocentrum-mainz.de/"},"markedAs":"OSM","timeStamp":"2020-05-11-09-44-54"},{"type":"node","id":7500555461,"lat":50.0016311,"lon":8.2715597,"tags":{"addr:city":"Mainz","addr:housenumber":"2","addr:postcode":"55116","addr:street":"Christofsstraße","amenity":"doctors","email":"u.eiden@freenet.de","fax":"+49 6131-233929","healthcare":"doctor","healthcare:speciality":"general","name":"Praxis Dr. med. Ulrich Eiden","opening_hours:covid19":"open","operator":"Dr. med. Ulrich Eiden","phone":"+49 6131-220600","website":"https://www.praxis-dr-eiden.de/"},"markedAs":"OSM","timeStamp":"2020-05-11-09-44-54"},{"type":"node","id":7500556354,"lat":49.989469,"lon":8.270362,"tags":{"addr:city":"Mainz","addr:housenumber":"11","addr:postcode":"55131","addr:street":"An der Goldgrube","amenity":"doctors","fax":"+49 6131-698 20 21","healthcare":"doctor","healthcare:speciality":"neurology;surgery","name":"Neurochirurgische Praxis am Katholischen Klinikum Mainz","opening_hours:covid19":"open","operator":"Dr. med. Stefan Welschehold M.A., Dr. med. Ayse Duran-Müller, Dr. med. Thomas Just, Dr. med. Enver Shala","phone":"+49 6131-698 20 20","website":"https://www.neurochirurgie-rhein-main-nahe.de/"},"markedAs":"OSM","timeStamp":"2020-05-11-09-44-54"},{"type":"node","id":7500559384,"lat":49.9962321,"lon":8.2794148,"tags":{"addr:city":"Mainz","addr:housenumber":"4","addr:postcode":"55116","addr:street":"Rheinstraße","amenity":"doctors","email":"info@kinderwunschzentrum-mainz.de","fax":"+49 6131 - 60 30 - 210","healthcare":"doctor","healthcare:speciality":"gynaecology","name":"Kinderwunsch Zentrum Mainz","opening_hours:covid19":"open","operator":"Dr. med. Robert Emig, Dr. med. Christine Nicole Molitor, Professor Dr. med. Thomas Steck","phone":"+49 6131 - 60 30 - 20","website":"https://kinderwunschzentrum-mainz.de/"},"markedAs":"OSM","timeStamp":"2020-05-11-09-44-54"},{"type":"node","id":7500583072,"lat":49.9834597,"lon":8.30194,"tags":{"addr:city":"Mainz","addr:housenumber":"24","addr:postcode":"55130","addr:street":"Langgasse","amenity":"doctors","fax":"+49 61 31 / 8 80 76 40","healthcare":"doctor","healthcare:speciality":"general","name":"Praxis Ahmed Elghool","opening_hours":"Mo-Fr 08:00-14:00","opening_hours:covid19":"open","operator":"Ahmed Elghool","phone":"+49 61 31 / 8 12 55"},"markedAs":"OSM","timeStamp":"2020-05-11-09-44-54"},{"type":"node","id":7500594206,"lat":50.0006911,"lon":8.2631111,"tags":{"addr:city":"Mainz","addr:housenumber":"2","addr:postcode":"55116","addr:street":"Bahnhofstraße","amenity":"doctors","email":"info@arzt-mainz.de","healthcare":"doctor","healthcare:speciality":"internist;general","name":"Praxis Dr. Juraj Galan","opening_hours:covid19":"open","operator":"Dr. med. Juraj Galan, Dr. med. Philipp Eißfeller, Dr. med. Katrin Petzke","phone":"+49 6131 280696","website":"http://www.arzt-mainz.de/startseite/"},"markedAs":"OSM","timeStamp":"2020-05-11-09-44-54"},{"type":"node","id":7500633051,"lat":49.9953086,"lon":8.2728658,"tags":{"addr:city":"Mainz","addr:housenumber":"1","addr:postcode":"55116","addr:street":"Weißliliengasse","amenity":"doctors","healthcare":"doctor","healthcare:speciality":"orthopaedics","name":"Gelenkzentrum Rheinmain","opening_hours":"\"Termine nach Vereinbarung\"","opening_hours:covid19":"open","operator":"Professor Dr. med. Bruno Gladbach, Dr. med. Christoph Meister, Dr. med. Martin Scholz, Dr. med. Christiane Pietsch, Dr. F. Wiedersheim","phone":"+49 6131 - 6338670","website":"https://gelenkzentrum-rheinmain.de/"},"markedAs":"OSM","timeStamp":"2020-05-11-09-44-54"},{"type":"node","id":7500633063,"lat":49.9841152,"lon":8.2498493,"tags":{"addr:city":"Mainz","addr:housenumber":"38","addr:postcode":"55128","addr:street":"Michael-Müller-Ring","amenity":"doctors","fax":"+49 6131/368767","healthcare":"doctor","healthcare:speciality":"neurology","name":"Praxis Dr. med. Eva-Maria Fischer-Mertens","opening_hours":"\"Termine nach Vereinbarung\"","opening_hours:covid19":"open","operator":"Dr. med. Eva-Maria Fischer-Mertens","phone":"+49 6131/368767"},"markedAs":"OSM","timeStamp":"2020-05-11-09-44-54"},{"type":"node","id":7500634312,"lat":50.0019876,"lon":8.2664156,"tags":{"addr:city":"Mainz","addr:housenumber":"30","addr:postcode":"55116","addr:street":"Große Bleiche","amenity":"doctors","fax":"+49 1 74 / 6 65 97 00","healthcare":"doctor","healthcare:speciality":"general","name":"Praxis Yeter Eroglu","opening_hours":"Mo,Tu,Th,Fr 08:00-11:00","opening_hours:covid19":"open","operator":"Yeter Eroglu","phone":"+49 61 31 / 46 58 25"},"markedAs":"OSM","timeStamp":"2020-05-11-09-44-54"},{"type":"node","id":7500649685,"lat":49.9997555,"lon":8.256512,"tags":{"addr:city":"Mainz","addr:housenumber":"3-5","addr:postcode":"55122","addr:street":"Wallstraße","amenity":"doctors","email":"kinderkardiomainz@t-online.de","fax":"+49 6131/ 221330","healthcare":"doctor","healthcare:speciality":"paediatrics","name":"Kinderkardiologie Mainz","opening_hours:covid19":"open","operator":"Dr. med. Mathias Ertel","phone":"+49 6131 / 221100","website":"http://kinderkardiologie-mainz.de/"},"markedAs":"OSM","timeStamp":"2020-05-11-09-44-54"},{"type":"node","id":7500651830,"lat":49.9888645,"lon":8.2692052,"tags":{"addr:city":"Mainz","addr:housenumber":"12","addr:postcode":"55131","addr:street":"Freiligrathstraße","amenity":"doctors","email":"info@niere-mainz.de","fax":"+49 6131 – 6933566","healthcare":"doctor","healthcare:speciality":"neurology","name":"Nephrologische Gemeinschaftspraxis GbR","opening_hours:covid19":"open","operator":"Dr. med. Patrick Harloff, Dr. med. Justus Faust, Dr. med. Stefan Tschirner","phone":"+49 6131 – 693350","website":"http://niere-mainz.de/index.html"},"markedAs":"OSM","timeStamp":"2020-05-11-09-44-54"},{"type":"node","id":7500655386,"lat":49.99863,"lon":8.2718577,"tags":{"addr:city":"Mainz","addr:housenumber":"1","addr:postcode":"55116","addr:street":"Gutenbergplatz","amenity":"doctors","fax":"+49 61 31 / 23 88 49","healthcare":"doctor","healthcare:speciality":"gynaecology","name":"Frauheilkunde Anna Schubert","opening_hours":"Mo-Fr 08:30-12:30, Mo,Tu,Th, 13:30-16:30","opening_hours:covid19":"open","operator":"Anna Schubert, Sabine Eßl","phone":"+49 61 31 / 23 29 22"},"markedAs":"OSM","timeStamp":"2020-05-11-09-44-54"},{"type":"node","id":7500675878,"lat":49.9635644,"lon":8.280619,"tags":{"addr:city":"Mainz","addr:housenumber":"11","addr:postcode":"55129","addr:street":"Am Schinnergraben","amenity":"doctors","email":"info@frauenarzt-hechtsheim.de","fax":"+49 6131 – 508853","healthcare":"doctor","healthcare:speciality":"gynaecology","name":"Trauenarzt Hechtsheim","opening_hours:covid19":"open","operator":"Dr. med. Guenter Faisst, Dr. med. Helge Uta Ivo-Klee","phone":"+49 6131 – 508822","website":"http://www.frauenarzt-hechtsheim.de/"},"markedAs":"OSM","timeStamp":"2020-05-11-09-44-54"},{"type":"node","id":7500680720,"lat":50.0002693,"lon":8.2749621,"tags":{"addr:city":"Mainz","addr:housenumber":"22","addr:postcode":"55116","addr:street":"Am Brand","amenity":"doctors","email":"info@frauenaerzte-in-mainz.de","fax":"+49 6131-614710","healthcare":"doctor","healthcare:speciality":"gynaecology","name":"Praxis Dres. med. Doris Flick und Nina Grintschuk","opening_hours:covid19":"open","operator":"Dr. med. Doris Flick, Dr. med. Nina Grintschuk","phone":"+49 6131-614711","website":"http://www.frauenaerzte-in-mainz.de/"},"markedAs":"OSM","timeStamp":"2020-05-11-09-44-54"},{"type":"node","id":7500681267,"lat":49.9899779,"lon":8.2699466,"tags":{"addr:city":"Mainz","addr:housenumber":"14","addr:postcode":"55131","addr:street":"Freiligrathstraße","amenity":"doctors","healthcare":"doctor","healthcare:speciality":"general","name":"Praxis Dr. med.Berthold Fleig","opening_hours":"Mo 08:30-13:00, Tu 10:00-14:00, We-Fr 08:30-12:00","operator":"Dr. med.Berthold Fleig","phone":"+49 6131/5405736"},"markedAs":"OSM","timeStamp":"2020-05-11-09-44-54"},{"type":"node","id":7500688146,"lat":49.9849552,"lon":8.263482,"tags":{"addr:city":"Mainz","addr:housenumber":"1","addr:postcode":"55131","addr:street":"Am Fort Mariaborn","amenity":"doctors","email":"info@ikg-mainz.de","fax":"+49 6131/92509-30","healthcare":"doctor","healthcare:speciality":"genetic","name":"Institut für Klinische Genetik Mainz","opening_hours:covid19":"open","operator":"Dr. med. Almuth Friedrich-Freksa","phone":"+49 6131/92509-0","website":"http://www.ikg-mainz.com/"},"markedAs":"OSM","timeStamp":"2020-05-11-09-44-54"},{"type":"node","id":7500698929,"lat":49.9999279,"lon":8.2564557,"tags":{"addr:city":"Mainz","addr:housenumber":"3-5","addr:postcode":"55122","addr:street":"Wallstraße","amenity":"doctors","email":"info@med-in-mainz.de","healthcare":"doctor","healthcare:speciality":"all","name":"MED Fachzentrum","opening_hours:covid19":"open","website":"https://www.med-in-mainz.de/startseite/"},"markedAs":"OSM","timeStamp":"2020-05-11-09-44-54"},{"type":"node","id":7500705923,"lat":50.0011414,"lon":8.2030134,"tags":{"addr:city":"Mainz","addr:housenumber":"26","addr:postcode":"55124","addr:street":"Heidesheimer Straße","amenity":"doctors","fax":"+49 6131 / 41991","healthcare":"doctor","healthcare:speciality":"paediatrics","name":"Gemeinschaftspraxis für Kinder- und Jugendmedizin Psychotherapie","opening_hours:covid19":"open","operator":"Dr. med. Hubert Franke, Dr. med. Britta Schmitz","phone":"+49 6131 / 42000","website":"https://www.kinderaerzte-im-netz.de/aerzte/mainz-gonsenheim/franke-schmitz/startseite.html"},"markedAs":"OSM","timeStamp":"2020-05-11-09-44-54"},{"type":"node","id":7500712654,"lat":49.9990724,"lon":8.2768382,"tags":{"addr:city":"Mainz","addr:housenumber":"33","addr:postcode":"55116","addr:street":"Rheinstraße","amenity":"doctors","email":"info@doktor-fritz.de","fax":"+49 7191-952166","healthcare":"doctor","healthcare:speciality":"general","name":"Praxis Dr. med. Andreas Fritz","opening_hours:covid19":"open","operator":"Dr. med. Andreas Fritz","phone":"+49 7191-952160","website":"https://www.doktor-fritz.de/"},"markedAs":"OSM","timeStamp":"2020-05-11-09-44-54"},{"type":"node","id":7500776548,"lat":49.9996124,"lon":8.2677505,"tags":{"addr:city":"Mainz","addr:housenumber":"9","addr:postcode":"55116","addr:street":"Emmeransstraße","amenity":"doctors","email":"post@hno-zentrum-mainz.de","fax":"+49 6131 616110","healthcare":"doctor","healthcare:speciality":"HNO","name":"HNO Zentrum Mainz","opening_hours:covid19":"open","operator":"PD Dr. med. habil. Kai Fruth, Dr. med. Marie-Luise Günther-Wirth","phone":"+49 6131 616181","website":"https://www.hno-zentrum-mainz.de/"},"markedAs":"OSM","timeStamp":"2020-05-11-09-44-54"},{"type":"node","id":7500792547,"lat":50.0017136,"lon":8.2716157,"tags":{"addr:city":"Mainz","addr:housenumber":"2","addr:postcode":"55116","addr:street":"Christofsstraße","amenity":"doctors","email":"info@praxisgall.de","fax":"+49 6131 21 48 11","healthcare":"doctor","healthcare:speciality":"internal;Pneumology","name":"Lungenfacharztpraxis Gall","opening_hours:covid19":"open","operator":"Dr. med. Jochen Gall","phone":"+49 6131 23 38 68","website":"https://lungenfacharztpraxis-gall.de/"},"markedAs":"OSM","timeStamp":"2020-05-11-09-44-54"},{"type":"node","id":7500826533,"lat":49.9996572,"lon":8.2678417,"tags":{"addr:city":"Mainz","addr:housenumber":"9","addr:postcode":"55116","addr:street":"Emmeransstraße","amenity":"doctors","email":"info@ambulantes-op-zentrum-mainz.de","fax":"+49 6131 - 5530310","healthcare":"doctor","healthcare:speciality":"Anesthesiology","name":"Ambulantes OP-Zentrum Mainz","opening_hours":"\"Termine nach Vereinbarung\"","opening_hours:covid19":"open","operator":"Erik Gabriel, Philip Kuhlmann","phone":"+49 6131 - 553030","website":"http://www.ambulantes-op-zentrum-mainz.de/"},"markedAs":"OSM","timeStamp":"2020-05-11-09-44-54"},{"type":"node","id":7500827748,"lat":49.9998641,"lon":8.2564825,"tags":{"addr:city":"Mainz","addr:housenumber":"3","addr:postcode":"55122","addr:street":"Wallstraße","amenity":"doctors","fax":"+49 6131 / 23 48 56","healthcare":"doctor","healthcare:speciality":"Pneumology;internal","name":"Pneumologische Praxis Mainz","opening_hours:covid19":"open","operator":"Dr. med. Dagmar Gillmann-Blum, Dr. med. David Semmler","phone":"+49 6131 / 23 38 83","website":"www.pneumologische-praxis-mainz.de"},"markedAs":"OSM","timeStamp":"2020-05-11-09-44-54"},{"type":"node","id":7500831233,"lat":49.9991237,"lon":8.2729887,"tags":{"addr:city":"Mainz","addr:housenumber":"6","addr:postcode":"55116","addr:street":"Höfchen","amenity":"doctors","fax":"+49 6131/236760","healthcare":"doctor","healthcare:speciality":"neurology;psychotherapy","name":"Praxis Dr. med. Armand Gerken","opening_hours":"Mo-Fr 09:00-12:00","operator":"Dr. med. Armand Gerken","phone":"+49 6131/221852"},"markedAs":"OSM","timeStamp":"2020-05-11-09-44-54"},{"type":"node","id":7500832502,"lat":50.0055903,"lon":8.2641312,"tags":{"addr:city":"Mainz","addr:housenumber":"35","addr:postcode":"55116","addr:street":"Kaiserstraße","amenity":"doctors","email":"info@psychotherapie-gamp.de","fax":"+49 6131 / 553 368 3","healthcare":"doctor","healthcare:speciality":"psychiatry","name":"Psychotherapie Gamp","opening_hours:covid19":"open","operator":"Dipl.-Soz.päd. (FH) Canan Gamp","phone":"+49 6131 / 553 368 1","website":"http://www.psychotherapie-gamp.de"},"markedAs":"OSM","timeStamp":"2020-05-11-09-44-54"},{"type":"node","id":7500832503,"lat":50.0002648,"lon":8.2734734,"tags":{"addr:city":"Mainz","addr:housenumber":"12","addr:postcode":"55116","addr:street":"Am Brand","amenity":"doctors","email":"allgemeinmedizin.in.mainz@aol.com","fax":"+49 6131/ 238190","healthcare":"doctor","healthcare:speciality":"general","name":"Allgemeinmedizinische Praxis Prof. Dr. Burkhard Schappert und Olga Gangaev","opening_hours:covid19":"open","operator":"Dr. med. Burkhard Schappert, Olga Gangaev","phone":"+49 6131/28120","website":"https://www.allgemeinmedizin-in-mainz.de/"},"markedAs":"OSM","timeStamp":"2020-05-11-09-44-54"},{"type":"node","id":7500856905,"lat":50.003209,"lon":8.2634841,"tags":{"addr:city":"Mainz","addr:housenumber":"14","addr:postcode":"55116","addr:street":"Neubrunnenstraße","amenity":"doctors","fax":"+49 61 31 / 23 87 97","healthcare":"doctor","healthcare:speciality":"ophthalmology","name":"Praxis Peter Gedsur","opening_hours":"Mo-Fr 08:00-12:00, Mo,Tu,Th 14:00-16:30","operator":"Peter Gedsur","phone":"+49 61 31 / 2 77 03 34"},"markedAs":"OSM","timeStamp":"2020-05-11-09-44-54"},{"type":"node","id":7500858056,"lat":49.9991407,"lon":8.2673908,"tags":{"addr:city":"Mainz","addr:housenumber":"3","addr:postcode":"55116","addr:street":"Emmeransstraße","amenity":"doctors","email":"praxis@gesunde-haut.de","fax":"+49 6131-554904","healthcare":"doctor","healthcare:speciality":"dermatology","name":"Praxis Dr. med. Sara Glatz","opening_hours:covid19":"open","operator":"Dr. med. Sara Glatz","phone":"+49 6131-234599","website":"http://www.gesunde-haut.de/"},"markedAs":"OSM","timeStamp":"2020-05-11-09-44-54"},{"type":"node","id":7500919976,"lat":50.0030028,"lon":8.2115394,"tags":{"addr:city":"Mainz","addr:housenumber":"36","addr:postcode":"55124","addr:street":"Breite Straße","amenity":"doctors","email":"dialog@orthopaedie-mz.de","fax":"+49 6131 / 911 012","healthcare":"doctor","healthcare:speciality":"orthopaedics","name":"Praxis für Orthopädie","opening_hours:covid19":"open","operator":"Dr. med. Johannes Grimm, Dr. med. Florian Grass","phone":"+49 6131 / 911 010","website":"https://www.orthopaedie-mz.de/"},"markedAs":"OSM","timeStamp":"2020-05-11-09-44-54"},{"type":"node","id":7500922218,"lat":49.9975034,"lon":8.2681369,"tags":{"addr:city":"Mainz","addr:housenumber":"1","addr:postcode":"55116","addr:street":"Schillerplatz","amenity":"doctors","email":"dr.lutz@email.de","fax":"+49 6131-238725","healthcare":"doctor","healthcare:speciality":"general","name":"Altstadtpraxis Mainz","opening_hours:covid19":"open","operator":"Dr. med. Stefanie Lutz, Mirjam Gottas","phone":"+49 6131-220518","website":"https://www.altstadtpraxis-mainz.de/"},"markedAs":"OSM","timeStamp":"2020-05-11-09-44-54"},{"type":"node","id":7504585499,"lat":50.0033579,"lon":8.2611915,"tags":{"addr:city":"Mainz","addr:housenumber":"4a","addr:postcode":"55118","addr:street":"Bonifaziusplatz","amenity":"doctors","healthcare":"doctor","healthcare:speciality":"physiotherapy","name":"Praxis für Psychotherapie Michael Spielmann","opening_hours:covid19":"open","operator":"Michael Spielmann","phone":"+49 6131 / 494 66 96","website":"https://www.psychotherapie-spielmann.de/"},"markedAs":"OSM","timeStamp":"2020-05-11-09-44-54"},{"type":"node","id":7504588017,"lat":49.9738383,"lon":8.2356527,"tags":{"addr:city":"Mainz","addr:housenumber":"111","addr:postcode":"55128","addr:street":"Hans-Böckler-Straße","amenity":"doctors","fax":"+49 6131 7205 5050211","healthcare":"doctor","healthcare:speciality":"general","name":"MVZ Labor Kirkamm GmbH","opening_hours":"\"Termine nach Vereinbarung\"","opening_hours:covid19":"open","operator":"Dr. med. Thea Motsch, Dr. med. Ralf Kirkamm","phone":"+49 6131 7205-220","website":"http://www.mvz-labor-kirkamm.de/start/"},"markedAs":"OSM","timeStamp":"2020-05-11-09-44-54"},{"type":"node","id":7504607437,"lat":50.0004855,"lon":8.2735834,"tags":{"addr:city":"Mainz","addr:housenumber":"12","addr:postcode":"55116","addr:street":"Am Brand","amenity":"doctors","fax":"+49 6131 280412","healthcare":"doctor","healthcare:speciality":"internal","name":"Nierenzentrum am Brand","opening_hours:covid19":"open","operator":"Dr. med. Gabor Sajthy, Dr. med. Stefan Westphalen, Dr. med. Mark Sajthy, Dr. med. Daniel Sollinger","phone":"+49 6131 280660","website":"https://www.niere-mainz.org/"},"markedAs":"OSM","timeStamp":"2020-05-11-09-44-54"},{"type":"node","id":7504616616,"lat":50.0015514,"lon":8.2038395,"tags":{"addr:city":"Mainz","addr:housenumber":"7","addr:postcode":"55124","addr:street":"Kapellenstraße","amenity":"doctors","email":"info@praxengemeinschaft-gonsenheim.de","fax":"+49 6131 - 9060149","healthcare":"doctor","healthcare:speciality":"physiotherapy","name":"Praxengemeinschaft Gonsenheim","opening_hours:covid19":"open","operator":"Dipl.-Psych. Nadine Schuster, Dr. med. Petra Marx-Dannigkeit, Dr. Bettina Rachota-Ubl, Dipl.-Psych. Iris Koslowski, Dipl.-Psych. Eva Duven, M.Sc. Hanne Böhme","phone":"+49 6131 - 9060141","website":"http://www.praxengemeinschaft-gonsenheim.de/Startseite/"},"markedAs":"OSM","timeStamp":"2020-05-11-09-44-54"},{"type":"node","id":7504619424,"lat":50.0072031,"lon":8.2638506,"tags":{"addr:city":"Mainz","addr:housenumber":"23","addr:postcode":"55118","addr:street":"Adam-Karrillon-Straße","amenity":"doctors","email":"info@dr-zayadeh.de","fax":"+49 6131-612056","healthcare":"doctor","healthcare:speciality":"general","name":"Praxis Dr. med. Adel Zayadeh","opening_hours:covid19":"open","operator":"Dr. med. Adel Zayadeh","phone":"+49 6131- 612055","website":"https://www.diabetologe-dr-zayadeh-mainz.de/"},"markedAs":"OSM","timeStamp":"2020-05-11-09-44-54"},{"type":"node","id":7504620654,"lat":50.0029696,"lon":8.2102398,"tags":{"addr:city":"Mainz","addr:housenumber":"29","addr:postcode":"55124","addr:street":"Breite Straße","amenity":"doctors","email":"info@psychotherapeutische-praxis-wolf.de","healthcare":"doctor","healthcare:speciality":"physiotherapy","name":"Praxis Wolf","opening_hours:covid19":"open","operator":"Dipl.-Psych. Theresa Wolf","phone":"+49 6131 2400580","website":"https://www.psychotherapeutische-praxis-wolf.de/"},"markedAs":"OSM","timeStamp":"2020-05-11-09-44-54"},{"type":"node","id":7504622603,"lat":49.9995717,"lon":8.2748761,"tags":{"addr:city":"Mainz","addr:housenumber":"33","addr:postcode":"55116","addr:street":"Markt","amenity":"doctors","email":"praxis@schreiber-psychotherapie.de","healthcare":"doctor","healthcare:speciality":"physiotherapy","name":"Psychotherapeutische Praxis","opening_hours":"\"Termine nach Vereinbarung\"","opening_hours:covid19":"open","operator":"Diplom-­Psychologin Sandra Schreiber","phone":"+49 152-24371745","website":"https://www.schreiber-psychotherapie.de/"},"markedAs":"OSM","timeStamp":"2020-05-11-09-44-54"},{"type":"node","id":7504623792,"lat":50.0027566,"lon":8.2628785,"tags":{"addr:city":"Mainz","addr:housenumber":"18","addr:postcode":"55116","addr:street":"Kaiserstraße","amenity":"doctors","email":"info@praxis-wachtarz.de","fax":"+49 6131 - 4883 819","healthcare":"doctor","healthcare:speciality":"physiotherapy","name":"Praxis Dipl. Psych. Claudia Wachtarz","opening_hours:covid19":"open","operator":"Dipl. Psych. Claudia Wachtarz","phone":"+49 6131 - 4689 516","website":"https://www.praxis-wachtarz.de/"},"markedAs":"OSM","timeStamp":"2020-05-11-09-44-54"},{"type":"node","id":7504633531,"lat":50.0027135,"lon":8.2629617,"tags":{"addr:city":"Mainz","addr:housenumber":"18","addr:postcode":"55116","addr:street":"Kaiserstraße","amenity":"doctors","email":"kontakt@praxis-vonrimscha.de","healthcare":"doctor","healthcare:speciality":"physiotherapy","name":"Praxis Dr. med. Sonja von Rimscha","opening_hours:covid19":"open","operator":"Dr. med. Sonja von Rimscha","phone":"+49 1523-2793534","website":"https://praxis-vonrimscha.de/"},"markedAs":"OSM","timeStamp":"2020-05-11-09-44-54"},{"type":"node","id":7504639313,"lat":50.0029166,"lon":8.2641466,"tags":{"addr:city":"Mainz","addr:housenumber":"8","addr:postcode":"55116","addr:street":"Neubrunnenstraße","amenity":"doctors","email":"post@psychotherapie-trautmann.de","healthcare":"doctor","healthcare:speciality":"physiotherapy","name":"Praxis Dr. Nadine Trautmann","opening_hours:covid19":"open","operator":"Dr. Nadine Trautmann","phone":"+49 6131 46 37 987","website":"https://www.psychotherapie-trautmann.de/"},"markedAs":"OSM","timeStamp":"2020-05-11-09-44-54"},{"type":"node","id":7504643328,"lat":50.0154866,"lon":8.2180493,"tags":{"addr:city":"Mainz","addr:housenumber":"17","addr:postcode":"55120","addr:street":"Westring","amenity":"doctors","email":"praxis-schwarz@t-online.de","healthcare":"doctor","healthcare:speciality":"physiotherapy","name":"Praxis Dipl.-Psychologin Marion Schwarz","opening_hours":"\"Termine nach Vereinbarung\"","opening_hours:covid19":"open","operator":"Dipl.-Psychologin Marion Schwarz","phone":"+49 6131 - 215 78 22","website":"https://www.schwarz-praxis.de"},"markedAs":"OSM","timeStamp":"2020-05-11-09-44-54"},{"type":"node","id":7504643360,"lat":49.9997948,"lon":8.26795,"tags":{"addr:city":"Mainz","addr:housenumber":"13","addr:postcode":"55116","addr:street":"Emmeransstraße","amenity":"doctors","email":"praxis@psychotherapie-rommel.de","healthcare":"doctor","healthcare:speciality":"physiotherapy","name":"Praxis Dipl.-Psych. Univ. Thilo Rommel","opening_hours:covid19":"open","operator":"Dipl.-Psych. Univ. Thilo Rommel","phone":"+49 6131 4921972","website":"https://www.psychotherapie-rommel.de/"},"markedAs":"OSM","timeStamp":"2020-05-11-09-44-54"},{"type":"node","id":7504657805,"lat":50.0016107,"lon":8.2037651,"tags":{"addr:city":"Mainz","addr:housenumber":"7","addr:postcode":"55124","addr:street":"Kapellenstraße","amenity":"doctors","email":"info@gynpraxis.de","fax":"+49 61 31 – 23 28 51","healthcare":"doctor","healthcare:speciality":"gynaecology","name":"Frauenarzt-Praxis Sanden Oehlke","opening_hours:covid19":"open","operator":"Dr. med. Tobias Sanden, Katharina Oehlke","phone":"+49  61 31 – 23 77 27"},"markedAs":"OSM","timeStamp":"2020-05-11-09-44-54"},{"type":"node","id":7504663755,"lat":50.0005962,"lon":8.2742076,"tags":{"addr:city":"Mainz","addr:housenumber":"31","addr:postcode":"55116","addr:street":"Am Brand","amenity":"doctors","fax":"+49 6131-225646","healthcare":"doctor","healthcare:speciality":"orthopaedics","name":"Praxis Dr. med Marc Oliver Schellinski","opening_hours":"\"Termine nach Vereinbarung\"","opening_hours:covid19":"open","operator":"Dr. med Marc Oliver Schellinski","phone":"+49 6131-234350","website":"http://www.schellinski.de/"},"markedAs":"OSM","timeStamp":"2020-05-11-09-44-54"},{"type":"node","id":7504666544,"lat":50.003119,"lon":8.2120254,"tags":{"addr:city":"Mainz","addr:housenumber":"40","addr:postcode":"55124","addr:street":"Breite Straße","amenity":"doctors","email":"praxis@sachweh-heimann.de","fax":"+49 6131 – 498 38 64","healthcare":"doctor","healthcare:speciality":"physiotherapy","name":"Praxis für ärztliche Psychotherapie  Antje Sachweh-Heimann","opening_hours":"\"Termine nach Vereinbarung\"","opening_hours:covid19":"open","operator":"Antje Sachweh-Heimann","phone":"+49 6131 – 498 38 16","website":"https://psychotherapie-sachweh-heimann.de/"},"markedAs":"OSM","timeStamp":"2020-05-11-09-44-54"},{"type":"node","id":7504670626,"lat":49.9681597,"lon":8.2311941,"tags":{"addr:city":"Mainz","addr:housenumber":"20","addr:postcode":"55128","addr:street":"Haifa-Allee","amenity":"doctors","email":"info@dermatologie-quist.de","fax":"+49 6131-554 90 3","healthcare":"doctor","healthcare:speciality":"dermatology","name":"Gemeinschaftspraxis Dres. Quist","opening_hours:covid19":"open","operator":"Prof. Dr. Dr. Sven Quist, Dr.med. Jennifer Quist","phone":"+49 6131- 2345-01","website":"https://dermatologie-quist.de/"},"markedAs":"OSM","timeStamp":"2020-05-11-09-44-54"},{"type":"node","id":7504681400,"lat":50.00182,"lon":8.2346893,"tags":{"addr:city":"Mainz","addr:housenumber":"61a","addr:postcode":"55122","addr:street":"Am Fort Gonsenheim","amenity":"doctors","email":"praxis@u-porsch.de","fax":"+49 6131 / 97 20 853","healthcare":"doctor","healthcare:speciality":"physiotherapy","name":"Psychoanalytische Praxis Dr. Porsch","opening_hours:covid19":"open","operator":"PD Dr. phil. Dipl.-Psych. Udo Porsch","phone":"+49 6131 / 93 20 200","website":"https://www.u-porsch.de/"},"markedAs":"OSM","timeStamp":"2020-05-11-09-44-54"},{"type":"node","id":7504685669,"lat":50.0014886,"lon":8.2694344,"tags":{"addr:city":"Mainz","addr:housenumber":"34","addr:postcode":"55116","addr:street":"Emmeransstraße","amenity":"doctors","healthcare":"doctor","healthcare:speciality":"physiotherapy","name":"Praxis Dr. med. Friedhelm Plümer","opening_hours":"\"Termine nach Vereinbarung\"","opening_hours:covid19":"open","operator":"Dr. med. Friedhelm Plümer","phone":"+49 6131 235923","website":"https://praxis-dr-pluemer.de/"},"markedAs":"OSM","timeStamp":"2020-05-11-09-44-54"},{"type":"node","id":7504698478,"lat":50.0032883,"lon":8.2152,"tags":{"addr:city":"Mainz","addr:housenumber":"23","addr:postcode":"55124","addr:street":"Kurt-Schumacher-Straße","amenity":"doctors","email":"sm@sebastian-murken.de","fax":"+49 6 1 31 / 32 778 32","healthcare":"doctor","healthcare:speciality":"physiotherapy","name":"Praxis für Einzel-, Paar- und Gruppentherapie","opening_hours:covid19":"open","operator":"Prof. Dr. Sebastian Murken","phone":"+49 61 31 / 94 553 94","website":"https://sebastian-murken.de/de/"},"markedAs":"OSM","timeStamp":"2020-05-11-09-44-54"},{"type":"node","id":7504705620,"lat":49.9984014,"lon":8.2681908,"tags":{"addr:city":"Mainz","addr:housenumber":"1-3","addr:postcode":"55116","addr:street":"Inselstraße","amenity":"doctors","email":"pcp-mainz@t-online.de","healthcare":"doctor","healthcare:speciality":"physiotherapy","name":"Praxis für Coaching und integrative Psychotherapie","opening_hours:covid19":"open","operator":"Dipl.-Psych. Mathilde Möbus-Flick","phone":"+49 611-509063","website":"http://pcp-mainz.de/"},"markedAs":"OSM","timeStamp":"2020-05-11-09-44-54"},{"type":"node","id":7504712650,"lat":50.008589,"lon":8.26819,"tags":{"addr:city":"Mainz","addr:housenumber":"96","addr:postcode":"55116","addr:street":"Kaiserstraße","amenity":"doctors","fax":"+49 6131 6693402","healthcare":"doctor","healthcare:speciality":"physiotherapy","name":"Praxis Dr. med. Löwenstein","opening_hours:covid19":"open","operator":"Dr. med. Oliver Löwenstein","phone":"+49 6131 6693401","website":"http://www.praxis-loewenstein.de/"},"markedAs":"OSM","timeStamp":"2020-05-11-09-44-54"}]