[{"type":"way","id":52133801,"bounds":{"minlat":49.9995481,"minlon":8.2562346,"maxlat":50.0003912,"maxlon":8.2573234},"nodes":[263676587,1836665517,1836665512,2661586908,1880988620,1880988619,4161567014,1836665505,1836665506,4161544111,1836665502,4161544112,1836665499,1836665485,664302794,664302790,5542138896,5542138899,263676587],"geometry":[{"lat":50.0003912,"lon":8.2568984},{"lat":50.0003477,"lon":8.2569577},{"lat":50.0002631,"lon":8.2571129},{"lat":50.0002398,"lon":8.2571617},{"lat":50.0001624,"lon":8.2573234},{"lat":50.0000282,"lon":8.2571706},{"lat":50.000045,"lon":8.2571354},{"lat":50.0001545,"lon":8.2569056},{"lat":50.0001496,"lon":8.2568145},{"lat":50.0001117,"lon":8.2567191},{"lat":50.0000562,"lon":8.2565795},{"lat":50.0000343,"lon":8.2565656},{"lat":50.0000056,"lon":8.2565475},{"lat":49.9997194,"lon":8.2566646},{"lat":49.9995481,"lon":8.2564803},{"lat":50.0001111,"lon":8.2562346},{"lat":50.0002016,"lon":8.2564581},{"lat":50.0003038,"lon":8.2566823},{"lat":50.0003912,"lon":8.2568984}],"tags":{"addr:city":"Mainz","addr:country":"DE","addr:housenumber":"3-5","addr:postcode":"55122","addr:street":"Wallstraße","amenity":"doctors","building":"commercial","email":"info@med-in-mainz.de","healthcare":"centre","name":"MED Facharztzentrum","toilets:wheelchair":"yes","unimainz:buildingId":"9182","website":"http://www.med-in-mainz.de/","wheelchair":"yes"}},{"type":"way","id":114012953,"bounds":{"minlat":49.9967457,"minlon":8.2390034,"maxlat":49.9969213,"maxlon":8.2391849},"nodes":[1292127948,1292127902,1292128084,1292127988,1292127948],"geometry":[{"lat":49.9967657,"lon":8.2391849},{"lat":49.9967457,"lon":8.2390682},{"lat":49.9969012,"lon":8.2390034},{"lat":49.9969213,"lon":8.2391201},{"lat":49.9967657,"lon":8.2391849}],"tags":{"addr:city":"Mainz","addr:country":"DE","addr:housenumber":"18","addr:postcode":"55122","addr:street":"Albert-Einstein-Straße","amenity":"doctors","building":"yes","healthcare":"doctor","name":"Krusche","wheelchair":"limited"}},{"type":"way","id":215255860,"bounds":{"minlat":50.0545241,"minlon":8.2960357,"maxlat":50.0548409,"maxlon":8.2965067},"nodes":[2246605734,2246605590,2246605818,2246605910,2246605734],"geometry":[{"lat":50.0546353,"lon":8.2965067},{"lat":50.0545241,"lon":8.2962683},{"lat":50.0547296,"lon":8.2960357},{"lat":50.0548409,"lon":8.2962741},{"lat":50.0546353,"lon":8.2965067}],"tags":{"addr:city":"Wiesbaden","addr:country":"DE","addr:housenumber":"8","addr:postcode":"65205","addr:street":"Bahnstraße","addr:suburb":"Erbenheim","amenity":"doctors","building":"yes","email":"info@dr-med-zoeller.de","fax":"+49 611 719179","healthcare":"centre","healthcare:speciality":"general;acupuncture;internal","name":"MVZ Dr. med. Zöller","opening_hours":"Mo,Tu,Th 08:00-18:00; We,Fr 08:00-13:00","phone":"+49 611 719848","website":"https://www.dr-med-zoeller.de/"}},{"type":"way","id":343039835,"bounds":{"minlat":50.0078265,"minlon":8.2977438,"maxlat":50.0080425,"maxlon":8.2986004},"nodes":[3499605714,3499605715,3499605716,3499605717,3499605718,3558572614,3558572613,3499605714],"geometry":[{"lat":50.0078269,"lon":8.2977438},{"lat":50.0078268,"lon":8.2980929},{"lat":50.0078265,"lon":8.2986002},{"lat":50.0080009,"lon":8.2986004},{"lat":50.0080012,"lon":8.2978995},{"lat":50.0080425,"lon":8.2978995},{"lat":50.0080425,"lon":8.297744},{"lat":50.0078269,"lon":8.2977438}],"tags":{"addr:housenumber":"53","addr:street":"Hochheimer Straße","amenity":"doctors","building":"retail","healthcare":"centre","name":"Medizinisches Versorgungszentrum AKK","website":"http://www.mvz-am-akk.de"}},{"type":"way","id":343769822,"bounds":{"minlat":50.0066146,"minlon":8.3005642,"maxlat":50.0067348,"maxlon":8.300781},"nodes":[3505973282,3505973274,3505973266,5685173260,5666716283,5666716277,3505973278,5666716264,3505973282],"geometry":[{"lat":50.0067348,"lon":8.3007331},{"lat":50.0066582,"lon":8.300781},{"lat":50.0066146,"lon":8.3006121},{"lat":50.0066261,"lon":8.3006049},{"lat":50.0066499,"lon":8.30059},{"lat":50.0066866,"lon":8.3005671},{"lat":50.0066912,"lon":8.3005642},{"lat":50.0067107,"lon":8.3006398},{"lat":50.0067348,"lon":8.3007331}],"tags":{"addr:housenumber":"37","addr:street":"Rüsselsheimer Straße","amenity":"doctors","building":"yes","healthcare":"doctor","healthcare:speciality":"internal","name":"Karola Spiegelhoff","opening_hours":"Tu,Th 09:00-12:00,15:00-18:00; Mo,We,Fr 09:00-12:00; PH off","phone":"+49 6134 62114"}},{"type":"way","id":343772095,"bounds":{"minlat":50.0072466,"minlon":8.2884687,"maxlat":50.0074546,"maxlon":8.2887604},"nodes":[3505995464,3505995456,3505995458,3505995467,3505995464],"geometry":[{"lat":50.0073986,"lon":8.2884687},{"lat":50.0072466,"lon":8.288589},{"lat":50.0073026,"lon":8.2887604},{"lat":50.0074546,"lon":8.2886401},{"lat":50.0073986,"lon":8.2884687}],"tags":{"addr:housenumber":"4","addr:street":"Admiral-Scheer-Straße","amenity":"doctors","building":"apartments","healthcare":"doctor","healthcare:speciality":"general","name":"Praxis Dr. Anschau","opening_hours":"Mo-Th 08:00-11:30; Mo,Tu,Th 15:00-17:00; Fr 08:30-11:00","operator":"Dr. med. Martina Anschau","phone":"+49 6134 63131","website":"https://www.dr-martina-anschau.com/","wheelchair":"no"}},{"type":"node","id":357497191,"lat":49.9815568,"lon":8.268427,"tags":{"addr:city":"Mainz","addr:country":"DE","addr:postcode":"55131","addr:street":"Am Rodelberg","amenity":"doctors","healthcare":"doctor","name":"Allgemeinmedizin"}},{"type":"way","id":380713059,"bounds":{"minlat":50.0013834,"minlon":8.2035169,"maxlat":50.0017895,"maxlon":8.2040788},"nodes":[3840361248,6630970159,6630970158,6630970157,6630970156,6630970155,6630970154,3840361215,3840361206,3840361245,3840361248],"geometry":[{"lat":50.0017895,"lon":8.2037001},{"lat":50.0016664,"lon":8.2038369},{"lat":50.0016817,"lon":8.20387},{"lat":50.0015967,"lon":8.2039644},{"lat":50.0015795,"lon":8.2039268},{"lat":50.0015349,"lon":8.2039763},{"lat":50.0015466,"lon":8.2040017},{"lat":50.0014771,"lon":8.2040788},{"lat":50.0013834,"lon":8.2038746},{"lat":50.0017055,"lon":8.2035169},{"lat":50.0017895,"lon":8.2037001}],"tags":{"addr:city":"Mainz","addr:country":"DE","addr:housenumber":"7","addr:postcode":"55124","addr:street":"Kapellenstraße","amenity":"doctors","building":"house","healthcare":"centre","name":"Gesundheitszentrum am Juxplatz","website":"http://www.gesundheitszentrum-am-juxplatz.de/","wheelchair":"yes"}},{"type":"way","id":387596099,"bounds":{"minlat":49.9755948,"minlon":8.2782429,"maxlat":49.9757725,"maxlon":8.2785447},"nodes":[3908604981,3908604982,3908604983,3908604984,3908604981],"geometry":[{"lat":49.9757556,"lon":8.2782429},{"lat":49.9757725,"lon":8.2785211},{"lat":49.9756117,"lon":8.2785447},{"lat":49.9755948,"lon":8.2782666},{"lat":49.9757556,"lon":8.2782429}],"tags":{"addr:city":"Mainz","addr:housenumber":"2","addr:postcode":"55129","addr:street":"Elly-Beinhorn-Straße","amenity":"doctors","building":"yes","healthcare:speciality":"dermatology","name":"Hautarzt Dr. Kasten","opening_hours":"Mo-We 08:00-18:00; Th 08:00-19:30; Fr 08:00-16:30","website":"https://www.haut-mz.de/"}},{"type":"way","id":439658844,"bounds":{"minlat":50.0029419,"minlon":8.2102645,"maxlat":50.0030393,"maxlon":8.2103849},"nodes":[3612261844,4373313592,3612261850,3612261845,3612261844],"geometry":[{"lat":50.0030204,"lon":8.2102645},{"lat":50.0030393,"lon":8.2103302},{"lat":50.0029608,"lon":8.2103849},{"lat":50.0029419,"lon":8.2103192},{"lat":50.0030204,"lon":8.2102645}],"tags":{"addr:city":"Mainz","addr:country":"DE","addr:housenumber":"31","addr:postcode":"55124","addr:street":"Breite Straße","amenity":"doctors","healthcare":"doctor","name":"Drs Zimmermann"}},{"type":"node","id":504663299,"lat":49.9607848,"lon":8.2265507,"tags":{"addr:city":"Mainz","addr:housenumber":"14","addr:postcode":"55127","addr:street":"Ruhestraße","amenity":"doctors","healthcare":"doctor","healthcare:speciality":"general","name":"Praxis Hans-Gerald H. Forg","phone":"+49 6131 363772","website":"https://www.praxis-forg.de/","wheelchair":"no"}},{"type":"node","id":512551169,"lat":49.9619837,"lon":8.22936,"tags":{"amenity":"doctors","name":"Reuter, Allgemeinmediziner"}},{"type":"node","id":541424410,"lat":49.9680248,"lon":8.2310619,"tags":{"amenity":"doctors","name":"Dr. John-Koch & Dr. Mentz","website":"https://www.kinderarzt-in-mainz.de"}},{"type":"node","id":667863404,"lat":49.9937402,"lon":8.2781942,"tags":{"addr:city":"Mainz","addr:country":"DE","addr:housenumber":"3","addr:postcode":"55116","addr:street":"Holzhofstraße","amenity":"doctors","description":"Dr. Katsaros, Dr. Rittgen","fax":"+49 6131 5762814","healthcare":"doctor","healthcare:speciality":"cardiology","layer":"3","name":"Kardiologische Praxis am Römischen Theater","phone":"+49 6131 576280","toilets:wheelchair":"yes","website":"http://www.herz-im-fokus.de/","wheelchair":"yes"}},{"type":"node","id":786859126,"lat":49.9999611,"lon":8.3052122,"tags":{"addr:city":"Wiesbaden","addr:country":"DE","addr:housenumber":"141","addr:postcode":"55246","addr:street":"Hauptstraße","amenity":"doctors","contact:phone":"+49 6134 62141","healthcare":"doctor","healthcare:speciality":"general","name":"Dr. Michael Lang (Facharzt für Allgemeinmedizin)","opening_hours":"Mo,Tu,Th,Fr 08:00-12:00","wheelchair":"no"}},{"type":"node","id":1182673807,"lat":49.9818705,"lon":8.2961276,"tags":{"amenity":"doctors","name":"Dr. med. Dagmar Blank-Meyer"}},{"type":"node","id":1347763365,"lat":50.0451551,"lon":8.1869802,"tags":{"amenity":"doctors","fax":"+49 611 21414","healthcare":"doctor","healthcare:speciality":"general;naturopathy","name":"Dr. Thomas Mainka","operator":"Dr. Thomas Mainka, Facharzt für Allgemeinmedizin, Palliativmedizin, Notfallmedizin, Zusatzbezeichnung Naturheilkunde","phone":"+49 611 21405","website":"http://www.thomas-mainka.de/"}},{"type":"node","id":1447429390,"lat":49.9938139,"lon":8.277759,"tags":{"addr:city":"Mainz","addr:housenumber":"5","addr:postcode":"55116","addr:street":"Holzhofstraße","amenity":"doctors","healthcare":"doctor","healthcare:speciality":"internal","name":"Lembens - Lembens - Polte, internistisch allgemeinmedizinische Gemeinschaftspraxis","phone":"+49 6131 237179","website":"http://www.hausaerzte-mainz.de/","wheelchair":"yes"}},{"type":"node","id":1579716710,"lat":49.9958899,"lon":8.2625052,"tags":{"amenity":"doctors","healthcare":"doctor","name":"Internist Dr. med Hammes","wheelchair":"yes"}},{"type":"node","id":1671343357,"lat":49.9986668,"lon":8.2721044,"tags":{"addr:city":"Mainz","addr:country":"DE","addr:housenumber":"12;14","addr:postcode":"55116","addr:street":"Gutenbergplatz","amenity":"doctors","fax":"+49 6131 231526","healthcare":"doctor","name":"Dr. Michael Lachner","opening_hours":"Mo 08:30-16:00; Tu,We 08:30-12:30, We 14:30-16:45; Th 08:30-12:00,15:00-19:00; Fr 08:30-12:00,14:30-17:00","phone":"+49 6131 223334","website":"https://www.hautarzt-mainz.de/"}},{"type":"node","id":1908635765,"lat":50.0039379,"lon":8.2013532,"tags":{"addr:city":"Mainz","addr:housenumber":"31","addr:postcode":"55124","addr:street":"Kapellenstraße","amenity":"doctors","email":"info@praxis-hueterpfannkuch.de","fax":"+49 6131 2157029","healthcare":"doctor","healthcare:speciality":"psychiatry","name":"Gemeinschaftspraxis für Kinder- und Jugendpsychiatrie und -psychotherapie","opening_hours":"Mo-Fr 09:00-13:00; Mo,Tu,Th 14:00-16:30","operator":"Dr. med. A. Hüter & Dr. med. D. Pfannkuch","phone":"+49 6131 215700","website":"http://www.praxis-hueterpfannkuch.de"}},{"type":"node","id":2096380368,"lat":50.0006586,"lon":8.27417,"tags":{"addr:city":"Mainz","addr:housenumber":"31","addr:postcode":"55116","addr:street":"Am Brand","amenity":"doctors","healthcare":"doctor","name":"Dr. med. Sebastian Schmidtke","phone":"+49 6131 229888","website":"http://www.gefaesspraxis-schmidtke.de","wheelchair":"yes"}},{"type":"node","id":2446963924,"lat":49.997882,"lon":8.2690998,"tags":{"addr:city":"Mainz","addr:country":"DE","addr:housenumber":"4","addr:postcode":"55116","addr:street":"Ludwigsstraße","amenity":"doctors","email":"info@praxis-abdollahnia.de","entrance":"yes","fax":"+49 6131 234357","healthcare":"doctor","healthcare:speciality":"general","name":"Dr. med. Michel R. Abdollahnia","opening_hours:signed":"no","phone":"+49 6131 224656","website":"https://www.praxis-abdollahnia.de/","wheelchair":"limited"}},{"type":"node","id":2481078477,"lat":49.9817676,"lon":8.2434994,"tags":{"amenity":"doctors","healthcare":"doctor","name":"Dr. med. Patricia Bernedo","phone":"+49 6131 3334070","website":"https://www.hausarzt-mainz-bretzenheim.de/"}},{"type":"node","id":3041752524,"lat":50.0592413,"lon":8.3021519,"tags":{"addr:city":"Wiesbaden","addr:country":"DE","addr:housenumber":"37","addr:postcode":"65205","addr:street":"Buschungstraße","amenity":"doctors","name":"Dr. Dietmar Becker","website":"https://www.drbecker-wiesbaden.de/"}},{"type":"node","id":3253251632,"lat":50.0416763,"lon":8.2388016,"tags":{"addr:city":"Wiesbaden","addr:housenumber":"7","addr:postcode":"65203","addr:street":"Wilhelm-Tropp-Straße","amenity":"doctors","description":"Hausärztlich- internistische Gemeinschaftspraxis Dr.med. Lutz Mauersberg und Dr.med. Brit Wald Innere · Allgemeinmedizin · Geriatrie · Palliativmedizin · Notfallmedizin","healthcare":"doctor","healthcare:speciality":"general;internal","name":"Arzt Praxis Dr.Mauersberg / Dr.Wald","phone":"+49 611 61302","website":"https://www.praxis-wiesbaden.de/"}},{"type":"node","id":3408552875,"lat":49.9977562,"lon":8.2698606,"tags":{"addr:city":"Mainz","addr:housenumber":"31","addr:postcode":"55116","addr:street":"Weißliliengasse","amenity":"doctors","email":"info@hautarztpraxis-goenner.de","fax":"+49 6131 231497","healthcare":"doctor","healthcare:speciality":"dermatology","name":"Dr. Gönner (Hautarzt)","phone":"+49 6131  227888","website":"https://www.hautarztpraxis-goenner.de/"}},{"type":"node","id":3507800810,"lat":49.9683423,"lon":8.2732888,"tags":{"addr:city":"Mainz","addr:housenumber":"76","addr:postcode":"55129","addr:street":"Neue Mainzer Straße","amenity":"doctors","contact:phone":"+496131504600","contact:website":"http://www.kinderarzt-habermehl.de","healthcare":"doctor","healthcare:speciality":"paediatrics","name":"Kinderarzt Dr. Habermehl","opening_hours":"08:30-13:00,14:00-17:00"}},{"type":"node","id":3516947060,"lat":50.0072113,"lon":8.2948955,"tags":{"addr:housenumber":"1","addr:street":"Linzer Straße","amenity":"doctors","email":"kostheim@diegyn-praxis.de","fax":"+49613464452","healthcare":"doctor","healthcare:speciality":"gynaecology","name":"Die Gyn-Praxis","opening_hours":"Mo,Tu 08:00-12:00,15:00-18:00, We 08:00-12:00, Th 08:00-12:00,14:00-18:00, Fr 08:00-14:00; PH off","phone":"+49613464411","website":"https://www.diegyn-praxis.de/frauenarzt-mainz-kostheim.html"}},{"type":"node","id":3548006488,"lat":50.0132033,"lon":8.2946739,"tags":{"addr:housenumber":"1","addr:street":"Am Königsfloß","amenity":"doctors","name":"Praxis am Königsfloß","opening_hours":"Mo-Fr 08:00-11:00, Mo,Tu 15:00-17:30, Th 15:00-18:00"}},{"type":"node","id":3551914594,"lat":50.0067709,"lon":8.2845045,"tags":{"addr:city":"Wiesbaden","addr:housenumber":"2","addr:postcode":"55252","addr:street":"Kloberstraße","amenity":"doctors","healthcare:speciality":"otolaryngology","name":"HNO-Praxis Marc Christian Cichy","opening_hours":"Mo-Fr 08:30-12:30, Mo,We,Th 14:30-17:30","website":"http://www.hno-kastel.de/"}},{"type":"node","id":3595019569,"lat":50.0078758,"lon":8.2830372,"tags":{"addr:housenumber":"8","addr:street":"Rathausstraße","amenity":"doctors","fax":"+49 6134 24 695","healthcare":"doctor","name":"Dr. med Christian Hartung","opening_hours":"Mo-Fr 09:00-10:00, Mo,Tu,Th 16:00-18:00, Fr 15:00-16:00","phone":"+49 6134 22 800","website":"http://www.dr-christian-hartung.de/"}},{"type":"node","id":3665895106,"lat":50.0128161,"lon":8.294171,"tags":{"amenity":"doctors","description":"Keine kassenärztliche Behandlung","healthcare:speciality":"general","name":"Roland Rübel","opening_hours":"\"nur nach Vereinbarung\""}},{"type":"node","id":3677032325,"lat":50.0155139,"lon":8.2168349,"tags":{"addr:city":"Mainz","addr:housenumber":"58","addr:postcode":"55120","addr:street":"Westring","amenity":"doctors","contact:fax":"+49 6131 690574","contact:phone":"+49 6131 682846","contact:website":"http://www.familienarzt-mainz.de/","healthcare":"doctor","healthcare:speciality":"general","name":"Dr. med. Nicolas Kutzscher","opening_hours":"Mo-Fr 08:00-11:00, Mo,Tu,Th 16:00-18:00","wifi":"free"}},{"type":"node","id":3709394706,"lat":49.9982294,"lon":8.2686401,"tags":{"addr:housenumber":"1","addr:postcode":"55116","addr:street":"Ludwigsstraße","amenity":"doctors","description":"Fachärztin für Innere Medizin und Allgemeinmedizin, Notfallmedizin, Ernährungsmedizin; offene Sprechstunde, keine Terminvereinbarung nötig","fax":"+49 6131 280318","healthcare":"doctor","healthcare:speciality":"internal","name":"Ulla Behringer","opening_hours":"Mo-Th 08:00-12:00; Mo-Tu 15:00-18:00; Th 15:00-19:00; Fr 08:00-14:00; Sa,Su,PH off || \"nach Vereinbarung\"","phone":"+49 6131 233082","website":"http://www.praxis-behringer.de/","wheelchair":"no"}},{"type":"node","id":3725835230,"lat":49.9832791,"lon":8.2929705,"tags":{"amenity":"doctors","email":"info@augenaerzte-mainz.de","fax":"+49 6131 6225500","healthcare:speciality":"ophthalmology","name":"Augenärztliche Gemeinschaftspraxis Dr. med. Breitkopf, Jutta und Thomas Kaufmann","opening_hours":"Mo-Th 09:00-12:00,Mo,Tu,Th 14:00-17:00","phone":"+49 6131 578400","website":"https://www.augenaerzte-mainz.de/","wheelchair":"yes"}},{"type":"node","id":3728674943,"lat":50.006324,"lon":8.2611128,"tags":{"addr:city":"Mainz","addr:housenumber":"45","addr:postcode":"55118","addr:street":"Frauenlobstraße","amenity":"doctors","healthcare":"doctor","healthcare:speciality":"general","name":"Dr. med. Malte Hinzpeter"}},{"type":"node","id":3831495660,"lat":50.0093385,"lon":8.3002591,"tags":{"addr:housenumber":"1","addr:street":"Anton-Hehn-Straße","amenity":"doctors","contact:phone":"+49613461225","healthcare":"doctor","healthcare:speciality":"paediatrics","name":"Gerulf Fricke","opening_hours":"Mo,Tu 07:15-11:00,13:45-16:00; We 07:15-11:00; Th 13:45-16:00; Fr 07:15-12:00; PH off"}},{"type":"node","id":3840366457,"lat":50.0020351,"lon":8.2621018,"tags":{"addr:city":"Mainz","addr:housenumber":"10","addr:postcode":"55116","addr:street":"Kaiserstraße","amenity":"doctors","healthcare":"doctor","healthcare:speciality":"gynaecology","level":"3","name":"Dr. med. Katharina Thüroff","wheelchair":"no"}},{"type":"node","id":3871467529,"lat":49.9949974,"lon":8.2728185,"tags":{"amenity":"doctors","fax":"+49 6131 28998111","healthcare":"doctor","name":"Dr. med. Marc Bensch","opening_hours":"Mo-Th 08:00-12:00, Fr 08:00-13:00, Mo,Th 14:00-18:00, Tu 14:00-19:00, We 14:00-16:00","phone":"+49 6131 289980","website":"https://eolia-mainz.de/"}},{"type":"node","id":3871467530,"lat":49.9951032,"lon":8.273268,"tags":{"amenity":"doctors","healthcare":"doctor"}},{"type":"node","id":3871467533,"lat":49.9946444,"lon":8.2700208,"tags":{"amenity":"doctors","healthcare":"doctor","name":"Soon-Ye Albers-Kim","opening_hours":"\"Termine nach Vereinbarung\""}},{"type":"node","id":3991707466,"lat":49.9949587,"lon":8.2671768,"tags":{"amenity":"doctors","healthcare":"doctor","name":"Dipl. Psych. Klaus Falkenberg","opening_hours":"\"nach Vereinbarung\"","phone":"+49 6131 571212"}},{"type":"node","id":4017795837,"lat":50.0037597,"lon":8.214222,"tags":{"addr:postcode":"55124","amenity":"doctors","healthcare":"doctor","name":"Dr. med. Heinz Michael Klein"}},{"type":"node","id":4042271589,"lat":49.9991871,"lon":8.2764498,"tags":{"amenity":"doctors","healthcare":"doctor"}},{"type":"node","id":4056665284,"lat":49.998434,"lon":8.2683124,"tags":{"addr:city":"Mainz","addr:country":"DE","addr:housenumber":"6","addr:postcode":"55116","addr:street":"Schillerplatz","amenity":"doctors","email":"info@dr-cuny.de","healthcare":"doctor","healthcare:speciality":"general","name":"Cuny","opening_hours":"Mo,We-Fr 08:00-10:00, Mo,Tu,Th 15:00-18:00, Fr 15:00-17:00","phone":"+49 6131 / 22 54 54","website":"http://www.dr-cuny.de/","wheelchair":"no"}},{"type":"node","id":4056665285,"lat":49.9992788,"lon":8.2664692,"tags":{"amenity":"doctors","fax":"+49 6131 231555","healthcare":"doctor","healthcare:speciality":"otolaryngology","name":"Gemeinschaftspraxis Partheniadis","opening_hours":"Mo-Fr 08:30-12:15, Mo,Tu,Th,Fr 14:30-17:15","phone":"+49 6131 231558","website":"https://www.hno-aerzte-mainz.de/","wheelchair":"no"}},{"type":"node","id":4056665286,"lat":49.9993551,"lon":8.2663322,"tags":{"amenity":"doctors","healthcare":"doctor","healthcare:speciality":"dermatology","name":"Hautarztpraxis Dr. Kirschner","opening_hours":"Mo-Fr 08:00-12:00, Mo,Tu,Th 14:00-17:00","phone":"+49 6131 233026","website":"https://www.hautarztpraxis-mainz.de","wheelchair":"no"}},{"type":"node","id":4056665288,"lat":49.9992562,"lon":8.2665186,"tags":{"amenity":"doctors","fax":"+49 6131-231635","healthcare":"doctor","healthcare:speciality":"ophthalmology","name":"Sidou","opening_hours":"Mo-Fr 08:00-12:00, Mo,Tu,Th 14:00-17:00","phone":"+49 6131-231633","website":"http://www.augenpraxis-mainz.de/","wheelchair":"no"}},{"type":"node","id":4063923206,"lat":50.0047908,"lon":8.2594187,"tags":{"amenity":"doctors","healthcare":"doctor","name":"Dr. Teichmann","wheelchair":"yes"}},{"type":"node","id":4393092693,"lat":50.00666,"lon":8.2625542,"tags":{"addr:postcode":"55118","amenity":"doctors","healthcare":"doctor","healthcare:speciality":"podiatry;internal","level":"1","name":"Dr. med. Marc Morgenstern Internist & Diabetologe","opening_hours":"Mo, We, Fr 09:00-12:00; Tu, Th 09:00-12:00, 16:00-18:00","phone":"+49 61 31 576 81 40","wheelchair":"yes"}},{"type":"node","id":4426226394,"lat":50.0448861,"lon":8.195912,"tags":{"addr:city":"Wiesbaden","addr:housenumber":"29","addr:postcode":"65201","addr:street":"Reichsapfelstraße","amenity":"doctors","fax":"+49 611 9279630","healthcare":"doctor","healthcare:speciality":"paediatrics","name":"Dr. Margret Nafziger-Straub, Kinder- und Jugendärztin","opening_hours":"Mo,We,Fr 09:00-12:00; Tu,Th 15:00-18:00; \"nach Vereinbarung\"","operator":"Frau Dr. med. Margret Nafziger-Straub","phone":"+49 611 9200700"}},{"type":"node","id":4426226395,"lat":50.0453113,"lon":8.1947007,"tags":{"addr:city":"Wiesbaden","addr:housenumber":"38","addr:postcode":"65201","addr:street":"Reichsapfelstraße","amenity":"doctors","fax":"+49 611 2383885","healthcare":"doctor","healthcare:speciality":"internal","name":"Hausärztlich-internistische Praxis Dr. Kurz","operator":"Dr. med. Dietmar Kurz, Facharzt für Innere Medizin und Gastroenterologie, Diabetologie, Notfallmedizin","phone":"+49 611 21100","website":"https://www.mein-hausarzt-wiesbaden.de","wheelchair":"no"}},{"type":"node","id":4437677271,"lat":49.9889327,"lon":8.2709945,"tags":{"addr:city":"Mainz","addr:country":"DE","addr:housenumber":"11","addr:postcode":"55131","addr:street":"An der Goldgrube","amenity":"doctors","fax":"+49 6131 5751508","healthcare":"doctor","name":"Zentrale Notaufnahme (ZNA)","phone":"+49 6131 5751199","website":"http://www.kkm-mainz.de/kliniken-zentrenund-fachbereiche/zentrale-notaufnahme/"}},{"type":"node","id":4448119072,"lat":50.0070904,"lon":8.2943445,"tags":{"addr:housenumber":"33","addr:street":"Salzburger Straße","amenity":"doctors","healthcare":"doctor","healthcare:speciality":"general","name":"Dr. med. Karl-Heinz Seemann","opening_hours":"Mo-Fr 08:00-12:00; Mo-Tu 15:30-18:00; Th 15:30-19:00; Fr 16:00-17:00; PH off"}},{"type":"node","id":4577826791,"lat":50.00344,"lon":8.2115792,"tags":{"addr:postcode":"55124","amenity":"doctors","email":"info@urologie-gonsenheim.de","healthcare":"doctor","healthcare:speciality":"urology","name":"Urologosche Praxis Drs. med. R. Jakobi & Dr. med. M. Neuhäuser","opening_hours":"Mo-Tu 09:00-12:00,15:00-17:00; We 09:00-12:00; Fr 09:00-13:00; Th 09:00-12:00,16:00-18:00","phone":"+49 6131 46036","website":"http://www.urologie-gonsenheim.de"}},{"type":"node","id":4591424195,"lat":50.0204127,"lon":8.2301497,"tags":{"addr:postcode":"55120","amenity":"doctors","email":"praxis@coelle-online.de","healthcare":"doctor","name":"Dr. med. Gisela Cölle","opening_hours":"Th,Sa-Tu 09:00-12:00,15:00-17:30; We,Fr 09:00-12:00","phone":"+49 6131 693140","website":"http://www.coelle-online.de"}},{"type":"node","id":4594171290,"lat":50.004807,"lon":8.2595217,"tags":{"addr:housenumber":"20","addr:postcode":"55118","addr:street":"Boppstraße","amenity":"doctors","email":"hautarzt-koehler@web.de","healthcare":"doctor","healthcare:speciality":"dermatology","name":"Dermatologe & Venerologe Lars Köhler","name:de":"Dermatologe & Venerologe Lars Köhler","opening_hours":"Mo-Tu,Fr 08:30-12:00,14:00-17:00; We 07:30-12:00; Th 08:30-11:30,14:30-18:30","phone":"+49 61 31 622 65 22","website":"http://www.hautarzt-koehler.de"}},{"type":"node","id":4601279590,"lat":49.9955921,"lon":8.2744639,"tags":{"addr:city":"Mainz","addr:housenumber":"34","addr:street":"Holzhofstraße","amenity":"doctors","healthcare":"doctor","name":"Dr Wolfgang Kasper","opening_hours":"Mo,Tu,Th 08:30-12:30, We 07:30-12:00, Fr 07:30-15:00, Mo,Tu 14:00-17:00, Th 16:00-20:00","toilets:wheelchair":"no","wheelchair":"no"}},{"type":"node","id":4933680322,"lat":49.9594282,"lon":8.2014735,"tags":{"amenity":"doctors","email":"info@med-gomer.de","name":"Dipl. med. Margarita Gomer","opening_hours":"Mo 08:00-10:45,15:00-16:30; Tu 15:00-16:30; Th 15:00-17:30; Fr 08:00-10:45","phone":"+49 6131 732374","website":"http://www.med-gomer.de/"}},{"type":"node","id":5039919722,"lat":50.0580911,"lon":8.2426076,"tags":{"addr:housenumber":"117","addr:postcode":"65187","addr:street":"Biebricher Allee","amenity":"doctors","healthcare":"doctor","healthcare:speciality":"genetics","name":"Facharztin für Humangenetik. Genetische Diagnostik und Beratung und Zentrum für Tumorgenetik","name:de":"Facharztin für Humangenetik. Genetische Diagnostik und Beratung und Zentrum für Tumorgenetik","phone":"+49611333137"}},{"type":"node","id":5113646351,"lat":49.9874291,"lon":8.1778519,"tags":{"addr:city":"Mainz","addr:housenumber":"9","addr:postcode":"55126","addr:street":"Prunkgasse","amenity":"doctors","healthcare:speciality":"general","name":"Gemeinschaftspraxis Dr. König & Dr. Nadler"}},{"type":"node","id":5158679621,"lat":49.9978892,"lon":8.2666391,"tags":{"addr:postcode":"55116","amenity":"doctors","healthcare":"doctor","healthcare:speciality":"radiology","name":"Radiologen Dr. Kaltenborn & Dr. Willingstorfer","opening_hours":"Mo-Tu, Th-Fr 07:45-18:00; We, Sa-Su 07:45-14:00","phone":"+49 6131 224122","website":"https://www.radiologen-am-schillerplatz.de/%C3%A4rzteteam/"}},{"type":"node","id":5268478843,"lat":50.0022015,"lon":8.2622362,"tags":{"addr:city":"Mainz","addr:country":"DE","addr:housenumber":"12","addr:postcode":"55116","addr:street":"Kaiserstraße","amenity":"doctors","healthcare":"doctor","healthcare:speciality":"general;internal","level":"3","name":"Dr. med. Reinhold Wünstel","opening_hours":"Mo-Fr 08:00-12:00; Mo-Tu,Th-Fr 15:00-17:00","phone":"+49 6131 223034","wheelchair":"no"}},{"type":"node","id":5299110678,"lat":49.9887793,"lon":8.2702957,"tags":{"addr:city":"Mainz","addr:housenumber":"11","addr:postcode":"55131","addr:street":"An der Goldgrube","amenity":"doctors","contact:phone":"+49 6131 19292","healthcare":"doctor","healthcare:speciality":"emergency","name":"Ärztliche Bereitschaftspraxis","opening_hours":"Mo-Fr 19:00-07:00, Fr 16:00-24:00, Sa-Su 00:00-24:00, Mo 00:00-07:00, We 14:00-07:00, PH 00:00-24:00","operator":"Kassenärztliche Vereinigung Rheinland-Pfalz (KV RLP)","phone":"+49 116117"}},{"type":"node","id":5310155537,"lat":50.0049178,"lon":8.2622454,"tags":{"addr:city":"Mainz","addr:housenumber":"14","addr:postcode":"55118","addr:street":"Adam-Karrillon-Straße","amenity":"doctors","healthcare":"doctor","healthcare:speciality":"general","name":"Dr. med. Gisela Lachmann"}},{"type":"node","id":5327912920,"lat":50.0008171,"lon":8.262801,"tags":{"addr:housenumber":"2","addr:street":"Bahnhofstraße","amenity":"doctors","healthcare":"doctor","healthcare:speciality":"urology","name":"Yavuz Kaya","opening_hours":"11:00-23:00","phone":"+49 6131 228802","wheelchair":"yes"}},{"type":"node","id":5341154821,"lat":49.9937007,"lon":8.2777622,"tags":{"addr:housenumber":"5","addr:postcode":"55116","addr:street":"Holzhofstraße","amenity":"doctors","email":"info@neurologie-psychiatrie-mainz.de","healthcare":"doctor","healthcare:speciality":"neurology;psychiatry","name":"Praxis für Neurologie u. Psychiatrie am Römischen Theater","opening_hours":"Mo 08:00-12:00, 14:00-17:00; Tu 08:00-12:00, 14:30-17:00; We 08:00-12:00; Th 08:00-12:00, 14:00-18:00; Su, Fr 08:00-12:00, 14:00-16:00","phone":"+49 6131 222344","website":"https://www.neurologie-psychiatrie-mainz.de/"}},{"type":"node","id":5350621674,"lat":50.0365861,"lon":8.2396415,"tags":{"amenity":"doctors","healthcare":"doctor","name":"Praxis F.G. Brass","website":"http://www.praxis-brass.de/"}},{"type":"node","id":5366032724,"lat":49.9997981,"lon":8.2769624,"tags":{"amenity":"doctors","healthcare":"doctor","healthcare:speciality":"plastic_surgery","name":"Plastische und Ästhetische Chirurgie Dr. med. Tilman Ferbert","website":"http://www.dr-ferbert.de"}},{"type":"node","id":5370637535,"lat":49.999506,"lon":8.2659349,"tags":{"addr:city":"Mainz","addr:country":"DE","addr:housenumber":"36","addr:postcode":"55116","addr:street":"Schillerstraße","amenity":"doctors","email":"achim-hub@t-online.de","healthcare":"doctor","healthcare:speciality":"urology","name":"Dr. med. Achim Hub","opening_hours":"Mo-Tu 08:00-12:00,14:00-17:00; We 08:00-12:00; Th 08:00-12:00,14:00-18:00; Fr 08:00-12:00,13:00-14:30","phone":"+49 6131 231001","website":"https://www.uropraxishub.de/","wheelchair":"limited"}},{"type":"node","id":5429228921,"lat":50.0148212,"lon":8.2293859,"tags":{"addr:city":"Mainz","addr:housenumber":"17","addr:postcode":"55120","addr:street":"An der Brunnenstube","amenity":"doctors","healthcare":"doctor","name":"Gresch-Merz Bernadette","phone":"+496131466742","toilets:wheelchair":"yes","website":"https://www.praxis-gresch-merz.de","wheelchair":"yes"}},{"type":"node","id":5467935990,"lat":50.0469239,"lon":8.2000788,"tags":{"addr:city":"Wiesbaden","addr:housenumber":"4","addr:postcode":"65201","addr:street":"Steinritzstraße","amenity":"doctors","healthcare":"doctor","healthcare:speciality":"general","name":"Raisa Roitman, Allgemein- und Unfallmedizin","operator":"Raisa Roitman","phone":"+49 611 21516"}},{"type":"node","id":5540516480,"lat":50.0553113,"lon":8.1937159,"tags":{"addr:city":"Wiesbaden","addr:housenumber":"29","addr:postcode":"65201","addr:street":"Heinrich-Zille-Straße","amenity":"doctors","healthcare":"doctor","healthcare:speciality":"gynaecology","name":"Frauenärztinnen Dr. Schmidt / Dr. Sturm","opening_hours":"Mo 09:00-13:00, 14:30-17:30, Tu 08:00-12:00, 15:30-18:30, We 08:00-13:00, Th 08:00-12:00, 13:00-17:00, Fr 08:00-13:00","operator":"Dr. Frauke Schmidt & Dr. Heike Sturm","phone":"+49 611 25700"}},{"type":"node","id":5540527848,"lat":50.0554315,"lon":8.1938217,"tags":{"addr:city":"Wiesbaden","addr:housenumber":"25","addr:postcode":"65201","addr:street":"Heinrich-Zille-Straße","amenity":"doctors","healthcare":"doctor","healthcare:speciality":"general","name":"Andrea Wenz, Allgemeinmedizin, Diabetologie","opening_hours":"Mo 09:00-12:00, 15:00-18:00, Tu-We 09:00-12:00, Th 09:00-12:00, 15:00-18:00, Fr 09:00-14:00","operator":"Andrea Wenz","phone":"+49 611 25287","website":"https://www.praxisandreawenz.de/"}},{"type":"node","id":5634852822,"lat":50.0000571,"lon":8.256526,"tags":{"addr:city":"Mainz","addr:housenumber":"3-5","addr:postcode":"55122","addr:street":"Wallstraße","amenity":"doctors","healthcare":"doctor","healthcare:speciality":"nuclear","name":"Bioscientia Nuklearmedizin Mainz im MED Facharztzentrum","phone":"+49 6131 28250","toilets:wheelchair":"yes","website":"https://www.bioscientia.de/nuklearmedizin-mainz/","wheelchair":"yes"}},{"type":"node","id":6109180670,"lat":49.980647,"lon":8.2446113,"tags":{"addr:city":"Mainz","addr:housenumber":"5","addr:postcode":"55128","addr:street":"Bert-Brecht-Straße","amenity":"doctors","email":"info@praxis-geier.de","healthcare":"doctor","healthcare:speciality":"internal;general;traditional_chinese_medicine;chiropractic","name":"Hausarztpraxis Dr. Jörg Geier & Kollegen","phone":"+49  6131 34701"}},{"type":"node","id":6312454956,"lat":50.0066761,"lon":8.2625047,"tags":{"addr:postcode":"55118","amenity":"doctors","healthcare":"doctor","healthcare:speciality":"paediatrics","level":"3","name":"Dres. med Markus Schaefer Marion Fritsche","opening_hours":"Mo-Tu,Th 09:30-11:30,14:30-17:30; We,Fr 09:30-12:00; PH closed"}},{"type":"node","id":6312454957,"lat":50.0066042,"lon":8.2625459,"tags":{"addr:postcode":"55118","amenity":"doctors","healthcare":"doctor","level":"4","name":"Betriebsarztpraxis Deutsche Post AG"}},{"type":"node","id":6376550578,"lat":50.005882,"lon":8.3077622,"tags":{"amenity":"doctors","fax":"+49 6134 4628","healthcare":"doctor","healthcare:speciality":"naturopathy;naturopathy","name":"Dr. med. Elke Schulze Schüntrup","phone":"+49 6134 62124","website":"https://www.hausarztpraxis-kostheim.de/"}},{"type":"node","id":6561336791,"lat":49.9986846,"lon":8.2700783,"tags":{"amenity":"doctors","healthcare":"doctor","name":"Dr. med. Hartmut Benning","opening_hours":"Mo-Fr 08:30-11:00, Tu,Th 14:30-17:00","phone":"+49 6131 674460","website":"https://www.augenarzt-benning.de/"}},{"type":"node","id":6857036988,"lat":50.0585538,"lon":8.2424903,"tags":{"addr:city":"Wiesbaden","addr:housenumber":"107","addr:postcode":"65187","addr:street":"Biebricher Allee","amenity":"doctors","healthcare":"doctor","healthcare:speciality":"general","name":"Gemeinschaftspraxis Dres. med. Tobias und Anette Stirn, Udo Emmrich","name:de":"Gemeinschaftspraxis Dres. med. Tobias und Anette Stirn, Udo Emmrich","opening_hours":"Mo 08:00-12:00,17:00-19:00; Tu-We 08:00-12:00; Th 08:00-12:00,17:00-19:00; Fr 08:00-12:00","phone":"+49 611 843025","website":"https://www.praxis-stirn-emmrich.de"}},{"type":"node","id":7008958792,"lat":50.0000286,"lon":8.2376134,"tags":{"amenity":"doctors","healthcare":"psychotherapist","name":"Psychologisch-Psychotherapeutische Praxis"}},{"type":"node","id":7069850504,"lat":50.0100442,"lon":8.2610663,"tags":{"addr:city":"Mainz","addr:country":"DE","addr:housenumber":"31","addr:postcode":"55118","addr:street":"Wallaustraße","amenity":"doctors","email":"info@neustadtpraxis.de","fax":"+40 6131 96313-2","healthcare":"doctor","name":"Neustadtpraxis","opening_hours":"Mo 08:00-17:00; Tu 07:30-17:00; We 08:00-12:00; Th 08:00-17:00; Fr 08:00-13:00","operator":"Dr. Mohrmann & Dr. Kraak","phone":"+40 6131 96313-1","website":"https://www.neustadtpraxis.de","wheelchair":"yes"}},{"type":"node","id":7111642032,"lat":50.010936,"lon":8.2821999,"tags":{"addr:city":"Mainz-Kastel","addr:housenumber":"32-24","addr:postcode":"55252","addr:street":"In der Witz","amenity":"doctors","healthcare":"doctor","healthcare:speciality":"gynaecology","name":"Frauenärztliche Gemeinschaftspraxis Dr. Klinzing-Brand, Dr. Scheit","operator":"Dr. Annette Klinzing-Brand, Dr. Astrid Scheit","phone":"+49 6134 21 11 5","website":"https://www.frauenaerzte-kastel.de/"}},{"id":"test1","value":"changed"}]