[{"type":"node","id":101,"lat":50.00117,"lon":8.261468,"tags":{"addr:housenumber":"13","addr:street":"Bahnhofstraße","addr:postcode":"55116","addr:city":"Mainz","amenity":"doctors","healthcare:speciality":"Urologie","name":"Praxis Die Urologen Mainz","doctors":"Dr. med. Mirko Adam, Dr. med. Christopher Ziesel","phone":"+49 6131 270480","fax":"+49 6131 27048 48","email":"info@urologen-mainz.de","website":"http://www.urologen-mainz.de/","wheelchair":"limited"},"markedAs":"EntryFromHSMainz"},{"type":"node","id":102,"lat":49.91301,"lon":8.243902,"tags":{"addr:housenumber":"14","addr:street":"Römerstraße","addr:postcode":"55129","addr:city":"Mainz","amenity":"doctors","healthcare:speciality":"Allgemeinmedizin","name":"Dr. med. Dieter Burchert","doctors":"Dr. med. Dieter Burchert","phone":"+49 6136 4133","fax":"+49 6136 954437","email":"info@praxis-burchert.de","website":"https://www.burchert-mainz.de/"},"markedAs":"EntryFromHSMainz"},{"type":"node","id":103,"lat":49.997789,"lon":8.269012,"tags":{"addr:housenumber":"2","addr:street":"Ludwigsstraße ","addr:postcode":"55116","addr:city":"Mainz","amenity":"doctors","healthcare:speciality":"Haut- und Geschlechtskrankheiten","name":"Hautarzt am Fastnachtsbrunnen Dr. Scheicher","doctors":"Dr. med. Stephan Scheicher, Nicole Adler","phone":"+49 6131 221140","fax":"+49 6131 221143","email":"info@derma-mainz.de","website":"https://www.derma-mainz.de/"},"markedAs":"EntryFromHSMainz"},{"type":"node","id":104,"lat":49.998335,"lon":8.266442,"tags":{"addr:housenumber":"1","addr:street":"Münsterstraße ","addr:postcode":"55116","addr:city":"Mainz","amenity":"doctors","healthcare:speciality":"Psychotherapeutisch tätiger Arzt, Allgemeinmedizin","name":"Dr. med. Dr. phil. Matthias Adler","doctors":"Dr. med. Dr. phil. Matthias Adler","phone":"+49 6131 6225291","fax":"+49 6131 268737"},"markedAs":"EntryFromHSMainz"},{"type":"node","id":105,"lat":50.000554,"lon":8.272938,"tags":{"addr:housenumber":"6","addr:street":"Quintinsstraße","addr:postcode":"55116","addr:city":"Mainz","amenity":"doctors","healthcare:speciality":"Neurochirurgie","name":"Praxis Dr.med. Alireza Aghchi Facharzt für Neurochirurgie","doctors":"Dr. med. Alireza Aghchi","phone":"+49 6131 619400","fax":"+49 6131 619409"},"markedAs":"EntryFromHSMainz"},{"type":"node","id":106,"lat":49.998164,"lon":8.257059,"tags":{"addr:housenumber":"25","addr:street":"Binger Straße","addr:postcode":"55131","addr:city":"Mainz","amenity":"doctors","healthcare:speciality":"Radiologie, Diagnostische Radiologie, Nuklearmedizin","name":"Praxis Radiomed Mainz","doctors":"Dr. med. Christopher Ahlers, Dr. med. Jochen Beus, Dr. med. Carsten Bletz, Dr. med. Monica, Dr. med. Reinhold Hümmerich, Beate Kienle Craciun, Dr. med. Katja Lohmann, Dr. med. Roland Raabe, Dr. med. Bernd Romaneehsen, Dr. med. Samira Sepehr Rezai, Nadine Claudia Anneliese Stegherr, Dr. med. Matthias Troglauer, Dr. med. Udo Trost, Ngan Phuong Truong, Ngan Phuong Truong, Dr. med. Carla von Bruchhausen, Dr. med. Hubertus von Zitzewitz,Dr. med. Birgit Rita Gisela Vorndran, Dr. med. Katrin Wunder, Dr. Stefanie Bitschnau, Dr. Ute Hilgenberg, Dr. Friederike von Müller, Dr. Georg Vancura ","phone":"+49 6131-232481, +49 6131-624630","fax":"+49 6131-235241, +49 6131-6246310","email":" info@radiomed-praxis.de","website":"https://www.radiomed-praxis.de/"},"markedAs":"EntryFromHSMainz"},{"type":"node","id":107,"lat":49.986937,"lon":8.275783,"tags":{"addr:housenumber":"42","addr:street":"Ebersheimer Weg","addr:postcode":"55131","addr:city":"Mainz","amenity":"doctors","healthcare:speciality":"Allgemeinmedizin, Praktischer Arzt","name":"Praxis Dr. med. Ulrich Alker","doctors":"Dr. med. Ulrich Alker","phone":"+49 6131 -571707","fax":"+49 6131-571739 ","email":"praxis@diabetologie-mainz.de","website":"https://www.diabetologie-mainz.de/"},"markedAs":"EntryFromHSMainz"},{"type":"node","id":108,"lat":49.997741,"lon":8.183535,"tags":{"addr:housenumber":"60","addr:street":"Sertoriusring","addr:postcode":"55126","addr:city":"Mainz","amenity":"doctors","healthcare:speciality":"Allgemeinmedizin, Innere Medizin","name":"Praxis Helay Amini-Mokrani","doctors":"Helay Amini-Mokrani, Dr. med. Willy Traxel","phone":"+49 6131 475147","fax":"+49 6131 478014"},"markedAs":"EntryFromHSMainz"},{"type":"node","id":109,"lat":49.999238,"lon":8.277281,"tags":{"addr:housenumber":"14","addr:street":"Fischtorplatz","addr:postcode":"55116","addr:city":"Mainz","amenity":"doctors","healthcare:speciality":"Allgemeinmedizin, Innere Medizin, Kardiologie","name":"Hausarztpraxis am Fischtorplatz in Mainz","doctors":"Dr. med. Fouzia Amraoui, Dr. med. Anne Angermair","phone":"+49 6131-222720","email":"info@hausarztpraxis-am-fischtorplatz.de","website":"http://www.hausarztpraxis-am-fischtorplatz.de/"},"markedAs":"EntryFromHSMainz"},{"type":"node","id":110,"lat":50.003103,"lon":8.259831,"tags":{"addr:housenumber":"1","addr:street":"Erthalstraße","addr:postcode":"55118","addr:city":"Mainz","amenity":"doctors","healthcare:speciality":"Innere Medizin, Allgemeinmedizin","name":"Bonifaziuspraxis Anke Andreas & Dr. Eva Theisen-Giesecke","doctors":"Anke Andreas, Dr. med. Eva Theisen-Giesecke","phone":"+49 6131 674011","fax":"+49 6131 674013","email":"info@bonifaziuspraxis.de","website":"http://www.bonifaziuspraxis.de/"},"markedAs":"EntryFromHSMainz"},{"type":"node","id":111,"lat":49.996201,"lon":8.272252,"tags":{"addr:housenumber":"1 – 3","addr:street":"Weihergarten","addr:postcode":"55116","addr:city":"Mainz","amenity":"doctors","healthcare:speciality":"Psychiatrie und Psychotherapie","name":"Praxis Dr. med. Andreas Angelov","doctors":"Dr. med. Andreas Angelov","phone":"+49 6131 2079977","fax":"+49 6131 2079978","email":"praxis@angelov-psychiatrie.de","website":"http://angelov-psychiatrie.de/"},"markedAs":"EntryFromHSMainz"},{"type":"node","id":112,"lat":50.007336,"lon":8.212116,"tags":{"addr:housenumber":"95 A","addr:street":"Kurt-Schumacher-Straße","addr:postcode":"55124","addr:city":"Mainz","amenity":"doctors","healthcare:speciality":"","name":"Praxis Heidemarie Heinz-Dowling","doctors":"Heidemarie Heinz-Dowling","phone":"+49 6131 465825"},"markedAs":"EntryFromHSMainz"},{"type":"node","id":113,"lat":49.981994,"lon":8.245217,"tags":{"addr:housenumber":"8","addr:street":"Bahnstraße","addr:postcode":"55128","addr:city":"Mainz","amenity":"doctors","healthcare:speciality":"Allgemeinmedizin","name":"Praxis Dr. Anschütz-Kröck","doctors":"Dr. med. Stefanie Anschütz-Kröck","phone":"+49 6131 336556","fax":"+49 6131 336553"},"markedAs":"EntryFromHSMainz"},{"type":"node","id":114,"lat":50.000154,"lon":8.257154,"tags":{"addr:housenumber":"3-5","addr:street":"Wallstrasse","addr:postcode":"55122","addr:city":"Mainz","amenity":"doctors","healthcare:speciality":"Orthopädie und Unfallchirurgie","name":"Orthopaedicum Mainz","doctors":"Dr. med. Sven Sarfert","phone":"+49 6131 6006690","email":"info@orthopaedicum-mainz.de","website":"http://www.orthopaedicum-mainz.de/"},"markedAs":"EntryFromHSMainz"},{"type":"node","id":115,"lat":50.000288,"lon":8.256854,"tags":{"addr:housenumber":"3 – 5","addr:street":"Wallstraße","addr:postcode":"55122","addr:city":"Mainz","amenity":"doctors","healthcare:speciality":"Frauenheilkunde, Geburtshilfe","name":"Dr. Roswitha Imhof | Birgit Aßmann Reuter","doctors":"Birgit Aßmann-Reuter, Dr. med. Roswitha Imhof","phone":"+49 6131 221133","fax":"+49 6131 221136","email":"praxis@frauenaerztinnen-mainz.de","website":"http://www.frauenaerztinnen-mainz.de/","wheelchair":"barrierefrei"},"markedAs":"EntryFromHSMainz"},{"type":"node","id":116,"lat":50.00226,"lon":8.26624,"tags":{"addr:housenumber":"29","addr:street":"Große Bleiche","addr:postcode":"55116","addr:city":"Mainz","amenity":"doctors","healthcare:speciality":"Frauenheilkunde und Geburtshilfe","name":"Frauenarztpraxis Dr. med. Michael Babucke","doctors":"Dr. med. Michael Babucke","phone":"+49 6131 237676","fax":"+49 6131 237686","email":"Dr.Babucke@t-online.de","website":"https://www.frauenarzt-babucke.de/"},"docisAlreadyInOsm":"true","markedAs":"EntryFromHSMainz"},{"type":"node","id":117,"lat":50.00474,"lon":8.202633,"tags":{"addr:housenumber":"43","addr:street":"Jahnstraße","addr:postcode":"55116","addr:city":"Mainz","amenity":"doctors","healthcare:speciality":"Kinder- und Jugendlichen-Psychotherapeut","name":"Praxis Dipl.-Päd. Kathrin Bach","doctors":"Dipl.-Päd. Kathrin Bach","phone":"+49 6131 6176935"},"markedAs":"EntryFromHSMainz"},{"type":"node","id":118,"lat":49.997599,"lon":8.230603,"tags":{"addr:housenumber":"38","addr:street":"Dijonstraße","addr:postcode":"55122","addr:city":"Mainz","amenity":"doctors","healthcare:speciality":"Kinderheilkunde","name":"Kinderarzt-Praxis Mainz - Dr. med. Joachim Bach","doctors":"Dr. med. Joachim Bach","phone":"+49 6131 330000‎","fax":"+49 6131 791888","email":"joachim.bach@arcor.de","website":"https://www.kinderaerzte-im-netz.de/"},"markedAs":"EntryFromHSMainz"},{"type":"node","id":119,"lat":49.999221,"lon":8.279116,"tags":{"addr:housenumber":"43","addr:street":"Uferstraße","addr:postcode":"55116","addr:city":"Mainz","amenity":"doctors","healthcare:speciality":"Psychologischer Psychotherapeut","name":"Psychotherapeutische Praxis Dipl.-Psych. Baier-Stellwagen","doctors":"Dipl.-Psych. Eva Baier-Stellwagen","phone":"+49 6131 215659"},"markedAs":"EntryFromHSMainz"},{"type":"node","id":120,"lat":50.00031,"lon":8.273489,"tags":{"addr:housenumber":"12","addr:street":"Am Brand","addr:postcode":"55116","addr:city":"Mainz","amenity":"doctors","healthcare:speciality":"Anästhesiologie","name":"Gemeinschaftspraxis Tagesklinik Am Brand","doctors":"Dr. med. Andreas Bartels, Dr. med. Werner Fischer, Dr. med. Stefanie Gozon, Dr. med. Constanze Müller-Heß, Dr. med. Marcel Rähmer, Sabine Vettel","phone":"+49 6131 97229 0","fax":"+49 6131 97229 19","email":"info@tagesklinik-mainz.de","website":"https://www.tagesklinik-mainz.de/","wheelchair":"barrierefrei"},"markedAs":"EntryFromHSMainz"},{"type":"node","id":121,"lat":50.002467,"lon":8.211892,"tags":{"addr:housenumber":"58","addr:street":"Schulstraße","addr:postcode":"55124","addr:city":"Mainz","amenity":"doctors","healthcare:speciality":"Psychotherapeutische Medizin","name":"Praxis Dr. phil. Ulrike Bastian","doctors":"Dr. phil. Ulrike Bastian","phone":"+49 6131 44179","fax":"+49 6131 211826"},"markedAs":"EntryFromHSMainz"},{"type":"node","id":122,"lat":50.000918,"lon":8.265372,"tags":{"addr:housenumber":"8","addr:street":"Umbach","addr:postcode":"55116","addr:city":"Mainz","amenity":"doctors","healthcare:speciality":"Augenheilkunde","name":"Dr. Jörg Bauer & Kollegen Fachärzte für Augenheilkunde","doctors":"Dr. med. Jörg Bauer, apl. Professor Dr. med. Thomas Krzizok, Dr. med. Sebastian Frederik Morgen","phone":"+49 6131 221995","website":"https://augenchirurgie-mainz.de/","wheelchair":"barrierefrei"},"markedAs":"EntryFromHSMainz"},{"type":"node","id":123,"lat":49.996477,"lon":8.275182,"tags":{"addr:housenumber":"23","addr:street":"Augustinerstraße","addr:postcode":"55116","addr:city":"Mainz","amenity":"doctors","healthcare:speciality":"Psychologischer Psychotherapeut","name":"Praxis Dr. Edgar Fieberg","doctors":"Dr. phil. Dipl.-Psych. Edgar Fieberg, Andrea Bayer-Fieberg","phone":"+49 6251 9389 58","fax":"+49 6251 1752334"},"markedAs":"EntryFromHSMainz"},{"type":"node","id":124,"lat":50.003689,"lon":8.214107,"tags":{"addr:housenumber":"60","addr:street":"Breite Straße","addr:postcode":"55124","addr:city":"Mainz","amenity":"doctors","healthcare:speciality":"Augenheilkunde","name":"Praxis Dr.med. Klaus Rosbach","doctors":"Dr. med. Klaus Rosbach, Dr. med. Julia Anna Charlotte Beierlein","phone":"+49 6131 46187","fax":"+49 6131 467494","email":"kontakt@augenarzt_mainz.de","website":"http://web2.cylex.de/reviews/viewcompanywebsite.aspx?firmaName=dr.+med.+rosbach+klaus&companyId=3440671"},"markedAs":"EntryFromHSMainz"},{"type":"node","id":125,"lat":50.004804,"lon":8.259382,"tags":{"addr:housenumber":"20-24","addr:street":"Boppstraße ","addr:postcode":"55118","addr:city":"Mainz","amenity":"doctors","healthcare:speciality":"HNO","name":"HNO-Praxis Dr. Karaiskaki","opening_hours":"Mo-Fr 08:00-12:00, Mo,Tu,Th 14:00-16:00","doctors":"Dr. med. Niki Karaiskaki","phone":"+49 6131 613150","fax":"+49 6131 613170"},"markedAs":"EntryFromHSMainz"},{"type":"node","id":126,"lat":49.959665,"lon":8.199787,"tags":{"addr:housenumber":"23","addr:street":"Regerstraße","addr:postcode":"55127","addr:city":"Mainz","amenity":"doctors","healthcare:speciality":"Allgemeinmedizin, Chirurgie","name":"Hausarztpraxis am Lerchenberg","doctors":"Klaus Benhard","phone":"+49 6131 7761","fax":"+49 6131 7209327","website":"http://www.hausarzt-lerchenberg.de/"},"markedAs":"EntryFromHSMainz"},{"type":"node","id":127,"lat":49.996052,"lon":8.279521,"tags":{"addr:housenumber":"4 A – C","addr:street":"Rheinstraße","addr:postcode":"55116","addr:city":"Mainz","amenity":"doctors","healthcare:speciality":"Diagnostische Radiologie, Nuklearmedizin","name":"Gemeinschaftspraxis für Radiologie und Nuklearmedizin","doctors":"Dr. med. Peter Benz, Dr. med. Stefan Both, Dr. med. Ralph Deubler, Dr. med. Barbara Hommel, Dr. med. Arnim Jung, Dr. med. Angela Kremer-Staubitz, Dr. med. Fariba Kuscha-Bolnei, Dr. med. Julia Langen, Dr. med. Carsten Maximilian Pietsch","phone":"+49 6131 28811 0 ","fax":"+49 6131 28811 22","email":"info@radiologie-mainz.de","website":"https://www.radiologie-mainz.de/"},"markedAs":"EntryFromHSMainz"},{"type":"node","id":128,"lat":50.00306,"lon":8.259944,"tags":{"addr:housenumber":"3","addr:street":"Rhabanusstraße","addr:postcode":"55118","addr:city":"Mainz","amenity":"doctors","healthcare:speciality":"Kinder- und Jugendpsychiatrie","name":"Praxisgemeinschaft Maria Rebmann | Dr. Gundolf Berg","doctors":"Dr. med. Gundolf Berg, Maria Rebmann","phone":"+49 6131 2141430","fax":"+49 6131 21414321","email":"mail@zap-mainz.de","website":"https://zap-mainz.de/"},"markedAs":"EntryFromHSMainz"},{"type":"node","id":129,"lat":50.001593,"lon":8.203834,"tags":{"addr:housenumber":"7","addr:street":"Kapellenstrasse","addr:postcode":"55124","addr:city":"Mainz","amenity":"doctors","healthcare:speciality":"Allgemeinmedizin, Innere Medizin","name":"Gemeinschaftspraxis Butz Schorrlepp","doctors":"Julia Butz, Dr. med. Marcel Schorrlepp","phone":"+49 6131 43936","fax":"+49 6131 46 60 80","email":"info@butz-schorrlepp.de","website":"https://www.butz-schorrlepp.de/"},"markedAs":"EntryFromHSMainz"},{"type":"node","id":130,"lat":50.00301,"lon":8.263817,"tags":{"addr:housenumber":"10","addr:street":"Neubrunnenstraße","addr:postcode":"55128","addr:city":"Mainz","amenity":"doctors","healthcare:speciality":"Allgemeinmedizin","name":"Gemeinschaftspraxis Dres. Elisabeth Syhr-Schmitt und Anna Bergner","doctors":"Anna Bergner, Dr. med. Elisabeth Syhr-Schmitt","phone":"+49 6131 226503","fax":"+49 6131 231300"},"markedAs":"EntryFromHSMainz"},{"type":"node","id":131,"lat":50.001346,"lon":8.268922,"tags":{"addr:housenumber":"27","addr:street":"Emmeransstraße","addr:postcode":"55116","addr:city":"Mainz","amenity":"doctors","healthcare:speciality":"Frauenheilkunde und Geburtshilfe","name":"Praxis Dr. med. Henriette Hamm-Harzer und Dr. med. Barbara Bernd","doctors":"Dr. med. Barbara Bernd, Dr. med. Henriette Hamm-Harzer","phone":"+49 6131 600680","fax":"+49 6131 6006819","email":"info@praxishhb.de","website":"http://frauenaerztinnen-roemerpassage.de/","wheelchair":"barrierefrei"},"markedAs":"EntryFromHSMainz"},{"type":"node","id":132,"lat":49.962319,"lon":8.226753,"tags":{"addr:housenumber":"26","addr:street":"Hinter den Wiesen ","addr:postcode":"55127","addr:city":"Mainz","amenity":"doctors","healthcare:speciality":"Psychotherapeutische Medizin","name":"Praxis Dr. Berti","doctors":"Dr. med. Dipl.-Psych. Luciano Berti","phone":"+49 6131 366286","email":"drlberti@aol.com","website":"https://www.praxis-drberti.com/"},"markedAs":"EntryFromHSMainz"},{"type":"node","id":133,"lat":50.003507,"lon":8.209772,"tags":{"addr:housenumber":"22","addr:street":"Gerhart-Hauptmann-Straße","addr:postcode":"55116","addr:city":"Mainz","amenity":"doctors","healthcare:speciality":"Allgemeinmedizin, Innere Medizin","name":"Praxis Dr. Best","doctors":"Dr. med. Dr. rer. nat. Johannes Best, Johannes Kharsa","phone":"+49 6131 44145","fax":"+49 6131 466604","email":"mail@praxis-dr-best.de","website":"http://www.praxis-dr-best.de/4466.html"},"markedAs":"EntryFromHSMainz"},{"type":"node","id":134,"lat":50.007549,"lon":8.21349,"tags":{"addr:housenumber":"5 A","addr:street":"Immelmannstraße","addr:postcode":"55116","addr:city":"Mainz","amenity":"doctors","healthcare:speciality":"Psychologischer Psychotherapeut","name":"Dipl.-Psych. Christine Best","opening_hours":"Mo-Fr 09:00-12:00, Mo,Tu,Th,Fr 14:00-18:00","doctors":"Dipl.-Psych. Christine Best","phone":"+49 6131 465822","email":"ch.best@t-online.de"},"markedAs":"EntryFromHSMainz"},{"type":"node","id":135,"lat":50.003065,"lon":8.259863,"tags":{"addr:housenumber":"3","addr:street":"Bonifaziusstraße","addr:postcode":"55118","addr:city":"Mainz","amenity":"doctors","healthcare:speciality":"Chirurgie, Orthopädie und Unfallchirurgie, Unfallchirurgie","name":"ZOSU Mainz","doctors":"Dr. med. Thomas Bickert, Dr. med. Stephan Jung, He-Jin Kim, Tom Madathany, Tolga Sancaktaroglu, Lena Spieker, Dr. med. Michael Molitor","phone":"+49 6131 276070","fax":"+49 6131 2760729","email":" info@zosu.eu","website":"https://zosu.eu/standorte/zosu_mainz/"},"markedAs":"EntryFromHSMainz"},{"type":"node","id":136,"lat":49.999106,"lon":8.267463,"tags":{"addr:housenumber":"3","addr:street":"Emmeransstraße","addr:postcode":"55116","addr:city":"Mainz","amenity":"doctors","healthcare:speciality":"Frauenheilkunde und Geburtshilfe, Gynäkologische Endokrinologie und Reproduktionsmedizin","name":"Gynpraxis in Mainz (Altstadt)","doctors":"Dr. med. Gülay Gencyigit, Sanitätsrat Dr. med. Werner Harlfinger, Dr. med. Eckhard Kiefer, Dr. med. Dana Knöll","phone":"+49 6131 220222","fax":"+49 6131 233710","email":"mainz@diegyn-praxis.de","website":"https://www.diegyn-praxis.de/"},"markedAs":"EntryFromHSMainz"},{"type":"node","id":137,"lat":49.96744,"lon":8.313897,"tags":{"addr:housenumber":"100","addr:street":"Oppenheimer Straße","addr:postcode":"55130","addr:city":"Mainz-Laubenheim","amenity":"doctors","healthcare:speciality":"Innere Medizin, Kardiologie","name":"Gemeinschaftspraxis Dr. med. Alexander Garcia Godelmann  Dr. med. Simone Prüfer Dr. med. Gert F. Pfundt","doctors":"Dr. med. Alexander Garcia Godelmann, Dr. med. Gert Pfundt, Dr. med. Simone Prüfer","phone":"+49 6131 86153","fax":"+49 6131 87698","email":"kontakt@mein-arzt-mainz.de","website":"https://www.mein-arzt-mainz.de/"},"markedAs":"EntryFromHSMainz"},{"type":"node","id":138,"lat":49.982687,"lon":8.303981,"tags":{"addr:housenumber":"11","addr:street":"Zollgasse","addr:postcode":"55130","addr:city":"Mainz","amenity":"doctors","healthcare:speciality":"Kinderheilkunde, Neonatologie, Jugendmedizin","name":"Praxis Dr. med. Thomas Koffler","opening_hours":"Mo-Fr 09:00-12:00, Mo,Tu,Th 15:00-17:00","doctors":"Susanne Böckelmann, Dr. med. Thomas Koffler, Tim Hendrik Theobald","phone":"+49 6131 81146","fax":"+49 6131 81142","wheelchair":"barrierefrei"},"markedAs":"EntryFromHSMainz"},{"type":"node","id":139,"lat":50.004059,"lon":8.260433,"tags":{"addr:housenumber":"7","addr:street":"Bonifaziusplatz","addr:postcode":"55118","addr:city":"Mainz","amenity":"doctors","healthcare:speciality":"Allgemeinmedizin","name":"Venen- und Lymphzentrum Mainz","doctors":"Dr. med. Britta Bockelmann","phone":"+49 6131 221311","email":"venenzentrum.drbockelmann@yahoo.de","website":"http://venen-lymphzentrum-mainz.de/"},"markedAs":"EntryFromHSMainz"},{"type":"node","id":140,"lat":50.001325,"lon":8.265047,"tags":{"addr:housenumber":"17-23","addr:street":"Große Bleiche","addr:postcode":"55116","addr:city":"Mainz","amenity":"doctors","healthcare:speciality":"Innere Medizin","name":"Praxis Dr. med. Wolfgang Boedecker","opening_hours":"Mo,Tu,Th 09:00-11:00, Mo,Tu,Th 15:00-18:00, Fr 15:30-17:00","doctors":"Dr. med. Wolfgang Boedecker","phone":"+49 6131 225794","fax":"+49 6131 225779"},"markedAs":"EntryFromHSMainz"},{"type":"node","id":141,"lat":49.995674,"lon":8.28099,"tags":{"addr:housenumber":"4 N","addr:street":"Rheinstraße","addr:postcode":"55116","addr:city":"Mainz","amenity":"doctors","healthcare:speciality":"Frauenheilkunde und Geburtshilfe, Gynäkologische Onkologie","name":"mic.ma.mainz.","doctors":"PD Dr. med. habil. Daniel Böhm, Dr. med. Bernd-Rüdiger Söder, Dr. med. Volker Heyl, Dr. med. Tamara Höbert","phone":"+49 6131 693360 ","fax":"+49 6131 6933625","email":"info@micma-mainz.de","website":"https://micma-mainz.de/"},"markedAs":"EntryFromHSMainz"},{"type":"node","id":142,"lat":49.999824,"lon":8.276359,"tags":{"addr:housenumber":"43-45","addr:street":"Rheinstraße","addr:postcode":"55116","addr:city":"Mainz","amenity":"doctors","healthcare:speciality":"Chirurgie, Viszeralchirurgie","name":"Zentrum für Ko­lo­prok­to­lo­gie/Chirurgie","doctors":"PD Dr. med. habil. Thomas Borschitz, Thomas Fiebig","phone":"+49 6131 225526","fax":"+49  6131 225626","email":"zen­trum@­ko­lo­prok­to­lo­gie-mainz.de","website":"https://www.koloproktologie-mainz.de/"},"markedAs":"EntryFromHSMainz"},{"type":"node","id":143,"lat":49.994752,"lon":8.265822,"tags":{"addr:housenumber":"7","addr:street":"Martinsstraße","addr:postcode":"55116","addr:city":"Mainz","amenity":"doctors","healthcare:speciality":"Psychiatrie, Psychotherapie","name":"Praxis Dr. med. Horst-Uwe Boucsein","opening_hours":"Mo-Th 08:00-17:00, Fr 08:00-15:00","doctors":"Dr. med. Horst-Uwe Boucsein","phone":"+49 6131 230299","fax":"+49 6131 230299"},"markedAs":"EntryFromHSMainz"},{"type":"node","id":144,"lat":50.000938,"lon":8.265097,"tags":{"addr:housenumber":"12","addr:street":"Große Bleiche","addr:postcode":"55116","addr:city":"Mainz","amenity":"doctors","healthcare:speciality":"Allgemeinmedizin, Praktischer Arzt","name":"Dr. med. Cahit Bozkus","opening_hours":"Mo-Fr 08:30-12:00, Mo,Tu,Th,Fr 15:00-18:00","doctors":"Dr. med. Cahit Bozkus","phone":"+49 6131 236045","fax":"+49 6131 236046"},"markedAs":"EntryFromHSMainz"},{"type":"node","id":145,"lat":49.975194,"lon":8.060991,"tags":{"addr:housenumber":"31","addr:street":"Binger Straße","addr:postcode":"55218","addr:city":"Ingelheim","amenity":"doctors","healthcare:speciality":"Innere Medizin,Allgemeinmedizin","name":"Doctor-Medic (Univ. Targu-Mures) Sorina Bracht","opening_hours":"Mo-Fr 07:30-11:00, Mo,Tu,Th 15:00-18:00","doctors":"Doctor-Medic (Univ. Targu-Mures) Sorina Bracht","phone":"+49 6132 2251","fax":"+49 6132 40052"},"markedAs":"EntryFromHSMainz"},{"type":"node","id":146,"lat":50.003305,"lon":8.212679,"tags":{"addr:housenumber":"48","addr:street":"Breite Straße","addr:postcode":"55124","addr:city":"Mainz","amenity":"doctors","healthcare:speciality":"Allgemeinmedizin","name":"Praxis Dr. med. Jürgen Braun","doctors":"Dr. med. Jürgen Braun, Dr.med. Anke Lühr-Braun","phone":"+49 6131 941411","fax":"+49 6131 941412","email":"praxis@braun-mainz.de","website":"https://www.dr-juergen-braun.de/"},"markedAs":"EntryFromHSMainz"},{"type":"node","id":147,"lat":49.981527,"lon":8.245898,"tags":{"addr:housenumber":"3","addr:street":"Albert-Stohr-Straße","addr:postcode":"55128","addr:city":"Mainz","amenity":"doctors","healthcare:speciality":"Allgemeinmedizin, Gefäßchirurgie, Innere Medizin, Chirurgie","name":"Medizinisches Versorgungszentrum Dr. med. Kurt Braunbeck & Partner","doctors":"Dr. med. Kurt Braunbeck, Dr. med. Johannes Schmitt, Rusudan Chanishvili, Dr. med. Ina Maria Hartenfels, Dr. med. Christiane Jung, Dr. med. Maik Pollaschek, Dr. med. Marjan Vakil","phone":"+49 6131 720660","fax":"+49 6131 364494","email":"info@lymph-liposuktionszentrum.de;","website":"http://www.braunbeck.com/"},"markedAs":"EntryFromHSMainz"},{"type":"node","id":148,"lat":49.986492,"lon":8.17476,"tags":{"addr:housenumber":"53","addr:street":"Poststraße","addr:postcode":"55126","addr:city":"Mainz","amenity":"doctors","healthcare:speciality":"Innere Medizin, Allgemeinmedizin","name":"Praxis Mainz Finthen","doctors":"Dr. med. Stephan Briem, Daniela Weitzel, Dr. med. Andrea Tamaru, Dr. med. Katharina Greule, Dr. med. Daniel Tamaru","phone":"+49 6131 472027","fax":"+49 6131 219732","email":"praxis@praxismainzfinthen.de","website":"https://praxismainzfinthen.de/"},"markedAs":"EntryFromHSMainz"},{"type":"node","id":149,"lat":49.982552,"lon":8.29774,"tags":{"addr:housenumber":"8","addr:street":"Heiligkreuzweg ","addr:postcode":"55130","addr:city":"Mainz","amenity":"doctors","healthcare:speciality":"Allgemeinmedizin, Innere Medizin","name":"Praxis Dr. med. Ulrike Hofmann","opening_hours":"Mo-Fr 08:30-12:00, Mo-Fr 15:30-18:00","doctors":"Friederike Brink, Dr. med. Ulrike Hofmann","phone":"+49 6131 85050","fax":"+49 6131 9718888"},"markedAs":"EntryFromHSMainz"},{"type":"node","id":150,"lat":49.980729,"lon":8.290488,"tags":{"addr:housenumber":"14","addr:street":"Wilhelm-Theodor-Römheld-Straße","addr:postcode":"55130","addr:city":"Mainz","amenity":"doctors","healthcare:speciality":"","name":"Praxis für Kinder- und Jugendpsychiatrie und -psychotherapie","doctors":"Dr. med. Natasa Brückner, Ramona Schumann","phone":"+49 6131 3275205","fax":"+49 6131 3275204","email":"kjp-praxis-mainz@gmx.de","website":"http://www.kjp-praxis-mainz.de/"},"markedAs":"EntryFromHSMainz"},{"type":"node","id":151,"lat":49.976201,"lon":8.190863,"tags":{"addr:housenumber":"1","addr:street":"An der Markthalle","addr:postcode":"55116","addr:city":"Mainz","amenity":"doctors","healthcare:speciality":"Allgemeinmedizin","name":"PRAXIS FÜR ALLGEMEINMEDIZIN DR. MED. LAURA BUCH","doctors":"Dr. med. Laura Buch","phone":"+49 6131 40008","fax":"+49 6131 479907","website":"https://www.allgemeinmedizin-drais.de/"},"markedAs":"EntryFromHSMainz"},{"type":"node","id":152,"lat":50.004206,"lon":8.212421,"tags":{"addr:housenumber":"41 B","addr:street":"Kurt-Schumacher-Straße","addr:postcode":"55116","addr:city":"Mainz","amenity":"doctors","healthcare:speciality":"Kinderheilkunde","name":"Praxis Dr. med. Stephan Buchner","doctors":"Dr. med. Stephan Buchner","phone":"+49 6131 688434","fax":"+49 6131 6277762","email":"dr@stephanbuchner.de;","website":"http://www.stephanbuchner.de/"},"markedAs":"EntryFromHSMainz"},{"type":"node","id":153,"lat":49.993783,"lon":8.277486,"tags":{"addr:housenumber":"5","addr:street":"Holzhofstraße","addr:postcode":"55116","addr:city":"Mainz","amenity":"doctors","healthcare:speciality":"Radiologie, Diagnostische Radiologie","name":"Radiologie am Römischen Theater","doctors":"Dr. med. Barbara Buddenbrock","phone":"+49 6131 26260","fax":"+49 6131 262611","email":"info@radiologie-in-mainz.de","website":"http://www.radiologie-in-mainz.de/"},"markedAs":"EntryFromHSMainz"},{"type":"node","id":154,"lat":50.004169,"lon":8.261036,"tags":{"addr:housenumber":"8 A","addr:street":"Boppstraße","addr:postcode":"55116","addr:city":"Mainz","amenity":"doctors","healthcare:speciality":"Frauenheilkunde, Geburtshilfe, Gynäkologische Onkologie","name":"Gynäkologische Gemeinschaftspraxis Dr. med. Susanne Warken Dr. med. Kathrin Luais Dr. med. Christine Buhrmann","doctors":"Dr. med. Susanne Warken, Dr. med. Kathrin Luais, Dr. med. Christine Buhrmann, Dr. med. Annika Grazioli","phone":"+49 6131 677733","fax":"+49 6131 673083","email":"praxis@gynpraxis-boppstrasse.de","website":"frauenaerztinnen-in-mainz.de"},"markedAs":"EntryFromHSMainz"},{"type":"way","id":52133801,"bounds":{"minlat":49.9995481,"minlon":8.2562346,"maxlat":50.0003912,"maxlon":8.2573234},"nodes":[263676587,1836665517,1836665512,2661586908,1880988620,1880988619,4161567014,1836665505,1836665506,4161544111,1836665502,4161544112,1836665499,1836665485,664302794,664302790,5542138896,5542138899,263676587],"geometry":[{"lat":50.0003912,"lon":8.2568984},{"lat":50.0003477,"lon":8.2569577},{"lat":50.0002631,"lon":8.2571129},{"lat":50.0002398,"lon":8.2571617},{"lat":50.0001624,"lon":8.2573234},{"lat":50.0000282,"lon":8.2571706},{"lat":50.000045,"lon":8.2571354},{"lat":50.0001545,"lon":8.2569056},{"lat":50.0001496,"lon":8.2568145},{"lat":50.0001117,"lon":8.2567191},{"lat":50.0000562,"lon":8.2565795},{"lat":50.0000343,"lon":8.2565656},{"lat":50.0000056,"lon":8.2565475},{"lat":49.9997194,"lon":8.2566646},{"lat":49.9995481,"lon":8.2564803},{"lat":50.0001111,"lon":8.2562346},{"lat":50.0002016,"lon":8.2564581},{"lat":50.0003038,"lon":8.2566823},{"lat":50.0003912,"lon":8.2568984}],"tags":{"addr:city":"Mainz","addr:country":"DE","addr:housenumber":"3-5","addr:postcode":"55122","addr:street":"Wallstraße","amenity":"doctors","building":"commercial","email":"info@med-in-mainz.de","healthcare":"centre","name":"MED Facharztzentrum","toilets:wheelchair":"yes","unimainz:buildingId":"9182","website":"http://www.med-in-mainz.de/","wheelchair":"yes"},"markedAs":"OSM","timeStamp":"2020-04-08-02-56-43"},{"type":"way","id":114012953,"bounds":{"minlat":49.9967457,"minlon":8.2390034,"maxlat":49.9969213,"maxlon":8.2391849},"nodes":[1292127948,1292127902,1292128084,1292127988,1292127948],"geometry":[{"lat":49.9967657,"lon":8.2391849},{"lat":49.9967457,"lon":8.2390682},{"lat":49.9969012,"lon":8.2390034},{"lat":49.9969213,"lon":8.2391201},{"lat":49.9967657,"lon":8.2391849}],"tags":{"addr:city":"Mainz","addr:country":"DE","addr:housenumber":"18","addr:postcode":"55122","addr:street":"Albert-Einstein-Straße","amenity":"doctors","building":"yes","healthcare":"doctor","name":"Krusche","wheelchair":"limited"},"markedAs":"OSM","timeStamp":"2020-04-08-02-56-43"},{"type":"way","id":215255860,"bounds":{"minlat":50.0545241,"minlon":8.2960357,"maxlat":50.0548409,"maxlon":8.2965067},"nodes":[2246605734,2246605590,2246605818,2246605910,2246605734],"geometry":[{"lat":50.0546353,"lon":8.2965067},{"lat":50.0545241,"lon":8.2962683},{"lat":50.0547296,"lon":8.2960357},{"lat":50.0548409,"lon":8.2962741},{"lat":50.0546353,"lon":8.2965067}],"tags":{"addr:city":"Wiesbaden","addr:country":"DE","addr:housenumber":"8","addr:postcode":"65205","addr:street":"Bahnstraße","addr:suburb":"Erbenheim","amenity":"doctors","building":"yes","email":"info@dr-med-zoeller.de","fax":"+49 611 719179","healthcare":"centre","healthcare:speciality":"general;acupuncture;internal","name":"MVZ Dr. med. Zöller","opening_hours":"Mo,Tu,Th 08:00-18:00; We,Fr 08:00-13:00","phone":"+49 611 719848","website":"https://www.dr-med-zoeller.de/"},"markedAs":"OSM","timeStamp":"2020-04-08-02-56-43"},{"type":"way","id":343039835,"bounds":{"minlat":50.0078265,"minlon":8.2977438,"maxlat":50.0080425,"maxlon":8.2986004},"nodes":[3499605714,3499605715,3499605716,3499605717,3499605718,3558572614,3558572613,3499605714],"geometry":[{"lat":50.0078269,"lon":8.2977438},{"lat":50.0078268,"lon":8.2980929},{"lat":50.0078265,"lon":8.2986002},{"lat":50.0080009,"lon":8.2986004},{"lat":50.0080012,"lon":8.2978995},{"lat":50.0080425,"lon":8.2978995},{"lat":50.0080425,"lon":8.297744},{"lat":50.0078269,"lon":8.2977438}],"tags":{"addr:housenumber":"53","addr:street":"Hochheimer Straße","amenity":"doctors","building":"retail","healthcare":"centre","name":"Medizinisches Versorgungszentrum AKK","website":"http://www.mvz-am-akk.de"},"markedAs":"OSM","timeStamp":"2020-04-08-02-56-43"},{"type":"way","id":343769822,"bounds":{"minlat":50.0066146,"minlon":8.3005642,"maxlat":50.0067348,"maxlon":8.300781},"nodes":[3505973282,3505973274,3505973266,5685173260,5666716283,5666716277,3505973278,5666716264,3505973282],"geometry":[{"lat":50.0067348,"lon":8.3007331},{"lat":50.0066582,"lon":8.300781},{"lat":50.0066146,"lon":8.3006121},{"lat":50.0066261,"lon":8.3006049},{"lat":50.0066499,"lon":8.30059},{"lat":50.0066866,"lon":8.3005671},{"lat":50.0066912,"lon":8.3005642},{"lat":50.0067107,"lon":8.3006398},{"lat":50.0067348,"lon":8.3007331}],"tags":{"addr:housenumber":"37","addr:street":"Rüsselsheimer Straße","amenity":"doctors","building":"yes","healthcare":"doctor","healthcare:speciality":"internal","name":"Karola Spiegelhoff","opening_hours":"Tu,Th 09:00-12:00,15:00-18:00; Mo,We,Fr 09:00-12:00; PH off","phone":"+49 6134 62114"},"markedAs":"OSM","timeStamp":"2020-04-08-02-56-43"},{"type":"way","id":343772095,"bounds":{"minlat":50.0072466,"minlon":8.2884687,"maxlat":50.0074546,"maxlon":8.2887604},"nodes":[3505995464,3505995456,3505995458,3505995467,3505995464],"geometry":[{"lat":50.0073986,"lon":8.2884687},{"lat":50.0072466,"lon":8.288589},{"lat":50.0073026,"lon":8.2887604},{"lat":50.0074546,"lon":8.2886401},{"lat":50.0073986,"lon":8.2884687}],"tags":{"addr:housenumber":"4","addr:street":"Admiral-Scheer-Straße","amenity":"doctors","building":"apartments","healthcare":"doctor","healthcare:speciality":"general","name":"Praxis Dr. Anschau","opening_hours":"Mo-Th 08:00-11:30; Mo,Tu,Th 15:00-17:00; Fr 08:30-11:00","operator":"Dr. med. Martina Anschau","phone":"+49 6134 63131","website":"https://www.dr-martina-anschau.com/","wheelchair":"no"},"markedAs":"OSM","timeStamp":"2020-04-08-02-56-43"},{"type":"node","id":357497191,"lat":49.9815568,"lon":8.268427,"tags":{"addr:housenumber":"10","addr:street":"Am Rodelberg","addr:postcode":"55131","addr:city":"Mainz","amenity":"doctors","healthcare:speciality":"Allgemeinmedizin","name":"Praxis für Allgemeinmedizin Diabetologie / Sportmedizin","doctors":"Dr.med. Angela Minor","phone":"+49 6131 603012","fax":"+49 6131 603014","website":"https://dr-minor-mainz.de/"},"markedAs":"Complete","timeStamp":"2020-04-08-02-56-43"},{"type":"way","id":380713059,"bounds":{"minlat":50.0013834,"minlon":8.2035169,"maxlat":50.0017895,"maxlon":8.2040788},"nodes":[3840361248,6630970159,6630970158,6630970157,6630970156,6630970155,6630970154,3840361215,3840361206,3840361245,3840361248],"geometry":[{"lat":50.0017895,"lon":8.2037001},{"lat":50.0016664,"lon":8.2038369},{"lat":50.0016817,"lon":8.20387},{"lat":50.0015967,"lon":8.2039644},{"lat":50.0015795,"lon":8.2039268},{"lat":50.0015349,"lon":8.2039763},{"lat":50.0015466,"lon":8.2040017},{"lat":50.0014771,"lon":8.2040788},{"lat":50.0013834,"lon":8.2038746},{"lat":50.0017055,"lon":8.2035169},{"lat":50.0017895,"lon":8.2037001}],"tags":{"addr:city":"Mainz","addr:country":"DE","addr:housenumber":"7","addr:postcode":"55124","addr:street":"Kapellenstraße","amenity":"doctors","building":"house","healthcare":"centre","name":"Gesundheitszentrum am Juxplatz","website":"http://www.gesundheitszentrum-am-juxplatz.de/","wheelchair":"yes"},"markedAs":"OSM","timeStamp":"2020-04-08-02-56-43"},{"type":"way","id":387596099,"bounds":{"minlat":49.9755948,"minlon":8.2782429,"maxlat":49.9757725,"maxlon":8.2785447},"nodes":[3908604981,3908604982,3908604983,3908604984,3908604981],"geometry":[{"lat":49.9757556,"lon":8.2782429},{"lat":49.9757725,"lon":8.2785211},{"lat":49.9756117,"lon":8.2785447},{"lat":49.9755948,"lon":8.2782666},{"lat":49.9757556,"lon":8.2782429}],"tags":{"addr:city":"Mainz","addr:housenumber":"2","addr:postcode":"55129","addr:street":"Elly-Beinhorn-Straße","amenity":"doctors","building":"yes","healthcare":"doctor","healthcare:speciality":"dermatology","name":"Hautarzt Dr. Kasten","opening_hours":"Mo-We 08:00-18:00; Th 08:00-19:30; Fr 08:00-16:30","website":"https://www.haut-mz.de/"},"markedAs":"OSM","timeStamp":"2020-04-08-02-56-43"},{"type":"way","id":439658844,"bounds":{"minlat":50.0029419,"minlon":8.2102645,"maxlat":50.0030393,"maxlon":8.2103849},"nodes":[3612261844,4373313592,3612261850,3612261845,3612261844],"geometry":[{"lat":50.0030204,"lon":8.2102645},{"lat":50.0030393,"lon":8.2103302},{"lat":50.0029608,"lon":8.2103849},{"lat":50.0029419,"lon":8.2103192},{"lat":50.0030204,"lon":8.2102645}],"tags":{"addr:city":"Mainz","addr:country":"DE","addr:housenumber":"31","addr:postcode":"55124","addr:street":"Breite Straße","amenity":"doctors","healthcare":"doctor","name":"Drs Zimmermann"},"markedAs":"OSM","timeStamp":"2020-04-08-02-56-43"},{"type":"node","id":504663299,"lat":49.9607848,"lon":8.2265507,"tags":{"addr:housenumber":"14","addr:street":"Ruhestraße","addr:postcode":"55127","addr:city":"Mainz","amenity":"doctors","healthcare:speciality":"general","name":"Praxis Hans-Gerald H. Forg","doctors":"Dr. med. Hans-Gerald H. Forg","phone":"+49 6131 363772","fax":"+49 6131 791227","email":" info@praxis-forg.de","website":"https://www.praxis-forg.de/","wheelchair":"no"},"markedAs":"Complete","timeStamp":"2020-04-08-02-56-43"},{"type":"node","id":512551169,"lat":49.9619837,"lon":8.22936,"tags":{"addr:housenumber":"35","addr:street":"Pfarrer-Dorn-Strasse","addr:postcode":"55127","addr:city":"Mainz","amenity":"doctors","healthcare:speciality":"Allgemeinmedizin","name":"Praxis Norbert  Reuter","doctors":"Dr. med. Norbert  Reuter","phone":"+49 6131 361031","fax":"+49 6131 366053","website":"https://www.diabetes-praxis-reuter.de"},"markedAs":"Complete","timeStamp":"2020-04-08-02-56-43"},{"type":"node","id":541424410,"lat":49.9680248,"lon":8.2310619,"tags":{"addr:housenumber":"20","addr:street":"Haifa-Allee","addr:postcode":"55128","addr:city":"Mainz","amenity":"doctors","healthcare:speciality":"","name":"GEMEINSCHAFTSPRAXIS DR. JOHN-KOCH & DR. MENTZ","doctors":"Dr. Kristina John-Koch, Dr. Steffi Mentz ","phone":"+49 6131 31777","fax":"+49 6131 31553","email":"praxis@kinderarzt-in-mainz.de","website":"https://www.kinderarzt-in-mainz.de"},"markedAs":"Complete","timeStamp":"2020-04-08-02-56-43"},{"type":"node","id":667863404,"lat":49.9937402,"lon":8.2781942,"tags":{"addr:housenumber":"3","addr:street":"Holzhofstraße","addr:postcode":"55116","addr:city":"Mainz","amenity":"doctors","healthcare:speciality":"cardiology","name":"Kardiologische Praxis am Römischen Theater","doctors":"Dr. Katsaros, Dr. Rittgen","phone":"+49 6131 576280","fax":"+49 6131 5762814","website":"http://www.herz-im-fokus.de/","toilets:wheelchair":"yes","wheelchair":"yes"},"markedAs":"Complete","timeStamp":"2020-04-08-02-56-43"},{"type":"node","id":786859126,"lat":49.9999611,"lon":8.3052122,"tags":{"addr:housenumber":"141","addr:street":"Hauptstraße","addr:postcode":"55246","addr:city":"Mainz-Kostheim","amenity":"doctors","healthcare:speciality":"general","name":"Dr. Michael Lang (Facharzt für Allgemeinmedizin)","opening_hours":"Mo,Tu,Th 08:00-12:00, We,Fr 09:00-12:00, Mo 15:00-17:00, Tu 16:30-18:30, Th 16:00-18:30, Fr 15:00-18:00","doctors":"Dr. Michael Lang","phone":"+49 6134 62141","fax":"+49 6134 260442","wheelchair":"no"},"markedAs":"Complete","timeStamp":"2020-04-08-02-56-43"},{"type":"node","id":1182673807,"lat":49.9818705,"lon":8.2961276,"tags":{"addr:housenumber":"2 B","addr:street":"Göttelmannstraße","addr:postcode":"55116","addr:city":"Mainz","amenity":"doctors","healthcare:speciality":"Allgemeinmedizin","name":"Praxis Dr. Dagmar Blank-Meyer","opening_hours":"Mo-Fr 08:00-10:30, Tu,Fr 14:15-17:30","doctors":"Dr. med. Dagmar Blank-Meyer","phone":"+49 6131 81311","fax":"+49 6131 835437"},"markedAs":"Complete","timeStamp":"2020-04-08-02-56-43"},{"type":"node","id":1347763365,"lat":50.0451551,"lon":8.1869802,"tags":{"addr:housenumber":"2","addr:street":"Oderstrasse ","addr:postcode":"65201","addr:city":"Wiesbaden","amenity":"doctors","healthcare:speciality":"general;naturopathy","name":"Praxis Dr. Thomas Mainka","doctors":"Dr. med. Thomas Mainka, Dr. med. Franziska Bruns, Herr Sultan","phone":"+49 611 21405","fax":"+49 611 21414","website":"http://www.thomas-mainka.de/"},"markedAs":"Complete","timeStamp":"2020-04-08-02-56-43"},{"type":"node","id":1447429390,"lat":49.9938139,"lon":8.277759,"tags":{"addr:housenumber":"5","addr:street":"Holzhofstraße","addr:postcode":"55116","addr:city":"Mainz","amenity":"doctors","healthcare:speciality":"internal","name":"Lembens - Lembens - Polte, internistisch allgemeinmedizinische Gemeinschaftspraxis","doctors":"Dr. med. Christoph Lembens, Elvira Maria Lembens","phone":"+49 6131 237179","fax":"+49 6131 237179","email":" kontakt@hausaerzte-mainz.de ","website":"http://www.hausaerzte-mainz.de/","wheelchair":"yes"},"markedAs":"Complete","timeStamp":"2020-04-08-02-56-43"},{"type":"node","id":1579716710,"lat":49.9958899,"lon":8.2625052,"tags":{"addr:housenumber":"10","addr:street":"Trajanstrasse","addr:postcode":"55131","addr:city":"Mainz","amenity":"doctors","healthcare:speciality":"Allgemeinmedizin","name":"Internist Dr. med Hammes","opening_hours":"Mo-Th 08:00-11:30, Mo,Tu,Th 14:00-16:00, Fr 08:00-14:00","doctors":"Dr. med.Sandra Hammes","phone":"+49 6131 571010","fax":"+49 6131 9721742","wheelchair":"yes"},"markedAs":"Complete","timeStamp":"2020-04-08-02-56-43"},{"type":"node","id":1671343357,"lat":49.9986668,"lon":8.2721044,"tags":{"addr:housenumber":"12-14","addr:street":"Gutenbergplatz","addr:postcode":"55116","addr:city":"Mainz","amenity":"doctors","healthcare:speciality":"Dermatologie, Allergologie","name":"Dr. Michael Lachner","opening_hours":"Mo 08:30-16:00; Tu,We 08:30-12:30, We 14:30-16:45; Th 08:30-12:00,15:00-19:00; Fr 08:30-12:00,14:30-17:00","doctors":"Dr. Michael Lachner","phone":"+49 6131 223334","fax":"+49 6131 231526","website":"https://www.hautarzt-mainz.de/"},"markedAs":"Complete","timeStamp":"2020-04-08-02-56-43"},{"type":"node","id":1908635765,"lat":50.0039379,"lon":8.2013532,"tags":{"addr:housenumber":"31","addr:street":"Kapellenstraße","addr:postcode":"55124","addr:city":"Mainz","amenity":"doctors","healthcare:speciality":"psychiatry","name":"Gemeinschaftspraxis für Kinder- und Jugendpsychiatrie und -psychotherapie","opening_hours":"Mo-Fr 09:00-13:00; Mo,Tu,Th 14:00-16:30","doctors":"Dr. med. A. Hüter, Dr. med. D. Pfannkuch","phone":"+49 6131 215700","fax":"+49 6131 2157029","email":"info@praxis-hueterpfannkuch.de","website":"http://www.praxis-hueterpfannkuch.de"},"markedAs":"Complete","timeStamp":"2020-04-08-02-56-43"},{"type":"node","id":2096380368,"lat":50.0006586,"lon":8.27417,"tags":{"addr:housenumber":"31","addr:street":"Am Brand","addr:postcode":"55116","addr:city":"Mainz","amenity":"doctors","healthcare:speciality":"Angiologie, Gefäßerkrankungen","name":"Dr. med. Sebastian Schmidtke","doctors":"Dr. med. Sebastian Schmidtke","phone":"+49 6131 229888","fax":"+49 6131 223248","email":"gefaesspraxis-schmidtke@gmx.de","website":"http://www.gefaesspraxis-schmidtke.de","wheelchair":"yes"},"markedAs":"Complete","timeStamp":"2020-04-08-02-56-43"},{"type":"node","id":2446963924,"lat":49.997882,"lon":8.2690998,"tags":{"addr:housenumber":"4","addr:street":"Ludwigsstraße","addr:postcode":"55116","addr:city":"Mainz","amenity":"doctors","healthcare:speciality":"Allgemeinmedizin, Innere und Allgemeinmedizin","name":"Praxis Abdollahnia","doctors":"Dr. med. Michel Reza Abdollahnia, Dr. med. Bülent Kaya","phone":"+49 6131 221033, +49 6131 224656","fax":"+49 6131 234357","email":"info@praxis-abdollahnia.de","website":"https://praxis-abdollahnia.de/","wheelchair":"limited"},"markedAs":"Complete","timeStamp":"2020-04-08-02-56-43"},{"type":"node","id":2481078477,"lat":49.9817676,"lon":8.2434994,"tags":{"addr:housenumber":"7","addr:street":"Zaybachstraße","addr:postcode":"55128","addr:city":"Mainz","amenity":"doctors","healthcare:speciality":"Allgemeinmedizin","name":"Praxis Dr. med. Patricia Bernedo-Vogt","doctors":"Dr. med. Patricia Bernedo-Vogt","phone":"+49 131 3334070","fax":"+49 131 3334060","website":"https://www.hausarzt-mainz-bretzenheim.de/"},"markedAs":"Complete","timeStamp":"2020-04-08-02-56-43"},{"type":"node","id":3041752524,"lat":50.0592413,"lon":8.3021519,"tags":{"addr:housenumber":"37","addr:street":"Buschungstraße","addr:postcode":"65205","addr:city":"Wiesbaden","amenity":"doctors","healthcare:speciality":"Innere Medizin, Notfallmedizin","name":"Praxis Dr. med Dietmar Becker","doctors":"Dr. med Dietmar Becker, Dr. Dorothea Rotmann","phone":"+49 611 712540","fax":"+49 611 74254","email":"info@drbecker-wiesbaden.de","website":"https://www.drbecker-wiesbaden.de/"},"markedAs":"Complete","timeStamp":"2020-04-08-02-56-43"},{"type":"node","id":3253251632,"lat":50.0416763,"lon":8.2388016,"tags":{"addr:housenumber":"7","addr:street":"Wilhelm-Tropp-Straße","addr:postcode":"65203","addr:city":"Wiesbaden","amenity":"doctors","healthcare:speciality":"Allgemeinmedizin, Geriatrie, Palliativmedizin, Notfallmedizin","name":"Gemeinschaftspraxis Dr.Lutz Mauersberg und Dr.Brit Wald","doctors":"Dr.Lutz Mauersberg, Dr.Brit Wald","description":"Hausärztlich- internistische Gemeinschaftspraxis Dr.med. Lutz Mauersberg und Dr.med. Brit Wald Innere · Allgemeinmedizin · Geriatrie · Palliativmedizin · Notfallmedizin","phone":"+49 611 61302","website":"https://www.praxis-wiesbaden.de/"},"markedAs":"Complete","timeStamp":"2020-04-08-02-56-43"},{"type":"node","id":3408552875,"lat":49.9977562,"lon":8.2698606,"tags":{"addr:housenumber":"31","addr:street":"Weißliliengasse","addr:postcode":"55116","addr:city":"Mainz","amenity":"doctors","healthcare:speciality":"dermatology","name":"Hautarztpraxis Dr. Sabine Gönner","doctors":"Dr. Sabine Gönner","phone":"+49 6131  227888","fax":"+49 6131 231497","email":"info@hautarztpraxis-goenner.de","website":"https://www.hautarztpraxis-goenner.de/"},"markedAs":"Complete","timeStamp":"2020-04-08-02-56-43"},{"type":"node","id":3507800810,"lat":49.9683558,"lon":8.2732106,"tags":{"addr:housenumber":"76","addr:street":"Neue Mainzer Straße","addr:postcode":"55129","addr:city":"Mainz","amenity":"doctors","healthcare:speciality":"paediatrics","name":"Kinderarzt Dr. Habermehl","opening_hours":"Mo-Fr 08:30-13:00, Mo,Tu,Th,Fr 14:00-17:00","doctors":"Dr. med. Pirmin Habermehl","phone":"+49 6131 504600","fax":"+49 6131 581421","email":"anfrage@kinderarzt-habermehl.de","website":"http://www.kinderarzt-habermehl.de"},"markedAs":"Complete","timeStamp":"2020-04-08-02-56-43"},{"type":"node","id":3516947060,"lat":50.0072113,"lon":8.2948955,"tags":{"addr:housenumber":"1","addr:street":"Linzer Straße","addr:postcode":"55246","addr:city":"Mainz-Kostheim","amenity":"doctors","healthcare:speciality":"gynaecology","name":"Die Gyn-Praxis","opening_hours":"Mo,Tu 08:00-12:00,15:00-18:00, We 08:00-12:00, Th 08:00-12:00,14:00-18:00, Fr 08:00-14:00; PH off","doctors":"Dr. med. Anna Spina, Dr. med. Corinna Brauers, Dr. med. Idil Birgit Gualeni","phone":"+49613464411","fax":"+49613464452","email":"kostheim@diegyn-praxis.de","website":"https://www.diegyn-praxis.de/frauenarzt-mainz-kostheim.html"},"markedAs":"Complete","timeStamp":"2020-04-08-02-56-43"},{"type":"node","id":3548006488,"lat":50.0132033,"lon":8.2946739,"tags":{"addr:housenumber":"1","addr:street":"Am Königsfloß","addr:postcode":"55116","addr:city":"Mainz","amenity":"doctors","healthcare:speciality":"Allgemeinmedizin","name":"Praxis am Königsfloß","opening_hours":"Mo-Fr 08:00-11:00, Mo,Tu 15:00-17:30, Th 15:00-18:00","doctors":"Dr. med. Beate Schießl","phone":"+49 6134 3738","fax":"+49 6134 260220"},"markedAs":"Complete","timeStamp":"2020-04-08-02-56-43"},{"type":"node","id":3551914594,"lat":50.0067709,"lon":8.2845045,"tags":{"addr:housenumber":"2","addr:street":"Kloberstraße","addr:postcode":"55252","addr:city":"Wiesbaden","amenity":"doctors","healthcare:speciality":"otolaryngology","name":"HNO-Praxis Marc Christian Cichy","opening_hours":"Mo-Fr 08:30-12:30, Mo,We,Th 14:30-17:30","doctors":"Marc Christian Cichy","phone":"+49 6134 1888000","email":"info@hno-kastel.de","website":"http://www.hno-kastel.de/"},"markedAs":"Complete","timeStamp":"2020-04-08-02-56-43"},{"type":"node","id":3595019569,"lat":50.0078758,"lon":8.2830372,"tags":{"addr:housenumber":"8","addr:street":"Rathausstraße","addr:postcode":"55252","addr:city":"Mainz-Kastel","amenity":"doctors","healthcare:speciality":"Allgemeinmedizin","name":"Dr. med Christian Hartung","opening_hours":"Mo-Fr 09:00-10:00, Mo,Tu,Th 16:00-18:00, Fr 15:00-16:00","doctors":"Praxis Dr. med. Christian Hartung","phone":"+49 6134 22 800","fax":"+49 6134 24 695","email":"hartung.christian@gmx.de","website":"http://www.dr-christian-hartung.de/"},"markedAs":"Complete","timeStamp":"2020-04-08-02-56-43"},{"type":"node","id":3665895106,"lat":50.0128161,"lon":8.294171,"tags":{"addr:housenumber":"25","addr:street":"Steinern Strasse","addr:postcode":"55252","addr:city":"Mainz-Kastel","amenity":"doctors","healthcare:speciality":"Allgemeinmedizin","name":"Roland Rübel Praktischer Arzt","opening_hours":"Mo 09:30-12:00, Tu 17:00-18:30, We 10:00-12:00, Th 17:00-18:30, Fr 09:30-13:00","doctors":"Roland Rübel","phone":"+49 6134 69800*","fax":"+49 6134 26298"},"markedAs":"Complete","timeStamp":"2020-04-08-02-56-43"},{"type":"node","id":3677032325,"lat":50.0155139,"lon":8.2168349,"tags":{"addr:housenumber":"58","addr:street":"Westring","addr:postcode":"55120","addr:city":"Mainz","amenity":"doctors","healthcare:speciality":"Allgemeinmedizin","name":"Dr. med. Nicolas Kutzscher","opening_hours":"Mo-Fr 08:00-11:00, Mo,Tu,Th 16:00-18:00","doctors":"Dr. med. Nicolas Kutzscher","phone":"+49 6131 682846","fax":"+49 6131 690574","contact:website":"http://www.familienarzt-mainz.de/","wifi":"free"},"markedAs":"Complete","timeStamp":"2020-04-08-02-56-43"},{"type":"node","id":3709394706,"lat":49.9982294,"lon":8.2686401,"tags":{"addr:housenumber":"1","addr:street":"Ludwigsstraße","addr:postcode":"55116","addr:city":"Mainz","amenity":"doctors","healthcare:speciality":"Allgemeinmedizin","name":"Praxis Behringer","opening_hours":"Mo-Th 08:00-12:00; Mo-Tu 15:00-18:00; Th 15:00-19:00; Fr 08:00-14:00","description":"Fachärztin für Innere Medizin und Allgemeinmedizin, Notfallmedizin, Ernährungsmedizin; offene Sprechstunde, keine Terminvereinbarung nötig","doctors":"Ulla Behringer","phone":"+49 6131 233082","fax":"+49 6131 280318","website":"http://www.praxis-behringer.de/","wheelchair":"no"},"markedAs":"Complete","timeStamp":"2020-04-08-02-56-43"},{"type":"node","id":3725835230,"lat":49.9832705,"lon":8.2929524,"tags":{"addr:housenumber":"13 A","addr:street":"Göttelmannstraße","addr:postcode":"55130","addr:city":"Mainz","amenity":"doctors","healthcare:speciality":"ophthalmology","name":"Augenärztliche Gemeinschaftspraxis Dr. med. Breitkopf, Jutta und Thomas Kaufmann","opening_hours":"Mo-Th 09:00-12:00,Mo,Tu,Th 14:00-17:00","doctors":"Dr. med. Stefan Breitkopf, Dr. med. Thomas Kauffmann, Dr. med. Jutta Kauffmann","phone":"+49 6131 578400","fax":"+49 6131 6225500","email":"info@augenaerzte-mainz.de","website":"https://www.augenaerzte-mainz.de/","wheelchair":"yes"},"markedAs":"Complete","timeStamp":"2020-04-08-02-56-43"},{"type":"node","id":3728674943,"lat":50.006324,"lon":8.2611128,"tags":{"addr:housenumber":"45","addr:street":"Frauenlobstraße","addr:postcode":"55118","addr:city":"Mainz","amenity":"doctors","healthcare:speciality":"general","name":"Praxis Dr. med. Malte Hinzpeter","doctors":"Dr. med. Malte Hinzpeter","phone":"+49 6131 611202","fax":"+49 6131 618615","email":"info@praxis-hinzpeter.de","website":"https://www.praxis-hinzpeter.de/"},"markedAs":"Complete","timeStamp":"2020-04-08-02-56-43"},{"type":"node","id":3831495660,"lat":50.0093385,"lon":8.3002591,"tags":{"addr:housenumber":"1","addr:street":"Anton-Hehn-Straße","addr:postcode":"55246","addr:city":"Mainz-Kostheim","amenity":"doctors","healthcare:speciality":"paediatrics","name":"Gerulf Fricke","opening_hours":"Mo,Tu 07:15-11:00,13:45-16:00; We 07:15-11:00; Th 13:45-16:00; Fr 07:15-12:00; PH off","doctors":"Gerulf Fricke","phone":"+49 6134 61225","fax":"+49 6134 284931"},"markedAs":"Complete","timeStamp":"2020-04-08-02-56-43"},{"type":"node","id":3840366457,"lat":50.0020351,"lon":8.2621018,"tags":{"addr:housenumber":"10","addr:street":"Kaiserstraße","addr:postcode":"55116","addr:city":"Mainz","amenity":"doctors","healthcare:speciality":"gynaecology","name":"Praxis Dr. med. Thüroff","doctors":"Dr. med. Katharina Thüroff","phone":"+49 6131220690","fax":"+49 6131 1437747","email":"praxis-k.thueroff@t-online.de","website":"http://web2.cylex.de/reviews/viewcompanywebsite.aspx?firmaName=dr.+med.+++th%c3%bcroff+katharina&companyId=5149570","wheelchair":"no"},"markedAs":"Complete","timeStamp":"2020-04-08-02-56-43"},{"type":"node","id":3871467529,"lat":49.9949974,"lon":8.2728185,"tags":{"addr:housenumber":"17","addr:street":"Eisgrubweg","addr:postcode":"55116","addr:city":"Mainz","amenity":"doctors","healthcare:speciality":"Gefäßchirurgie, Herzchirurgie, Allgemeinmedizin","name":"Eolia Dr.Bensch & Kollegen","opening_hours":"Mo-Th 08:00-12:00, Fr 08:00-13:00, Mo,Th 14:00-18:00, Tu 14:00-19:00, We 14:00-16:00","doctors":"Dr. med. Marc Bensch, Irene Kohls","phone":"+49 6131 289980","fax":"+49 6131 28998111","email":"info@eolia-mainz.de, willkommen@eolia-mainz.de","website":"https://eolia-mainz.de/"},"markedAs":"Complete","timeStamp":"2020-04-08-02-56-43"},{"type":"node","id":3871467530,"lat":49.9951032,"lon":8.273268,"tags":{"addr:housenumber":"23","addr:street":"Eisgrubweg","addr:postcode":"55116","addr:city":"Mainz","amenity":"doctors","healthcare:speciality":"Psychologischer Psychotherapeut","name":"Dipl.-Psych. Sabine Schütt-Strömel","opening_hours":"Th,Fr 14:00-14:50","doctors":"Dipl.-Psych. Sabine Schütt-Strömel","phone":"+49 176 44600602"},"markedAs":"Complete","timeStamp":"2020-04-08-02-56-43"},{"type":"node","id":3871467533,"lat":49.9946444,"lon":8.2700208,"tags":{"addr:housenumber":"9 A","addr:street":"Eisgrubweg","addr:postcode":"55116","addr:city":"Mainz","amenity":"doctors","healthcare:speciality":"Akupunktur","name":"Praxis Soon-Ye Albers-Kim Heilpraktikerin","opening_hours":"\"Termine nach Vereinbarung\"","doctors":"Soon-Ye Albers-Kim","phone":"+49 6131 226444"},"markedAs":"Complete","timeStamp":"2020-04-08-02-56-43"},{"type":"node","id":3991707466,"lat":49.9949587,"lon":8.2671768,"tags":{"addr:housenumber":"9","addr:street":"Gaustraße ","addr:postcode":"55116","addr:city":"Mainz","amenity":"doctors","healthcare:speciality":"Psychotherapie","name":"Dipl. Psych. Klaus Falkenberg","opening_hours":"\"nach Vereinbarung\"","doctors":"Dipl.-Psych. Klaus Falkenberg","phone":"+49 6131 571212","fax":"+49 6131 578325"},"markedAs":"Complete","timeStamp":"2020-04-08-02-56-43"},{"type":"node","id":4017795837,"lat":50.0037597,"lon":8.214222,"tags":{"addr:housenumber":"62","addr:street":"Breite Straße","addr:postcode":"55124","addr:city":"Mainz","amenity":"doctors","healthcare:speciality":"Allergologie, Umweltmedizin","name":"Praxis Dr. Klein","doctors":"Dr. Heinz Klein","phone":"+49 6131 42015","fax":"+49 6131 467134","website":"https://www.dr-heinz-klein.de/"},"markedAs":"Complete","timeStamp":"2020-04-08-02-56-43"},{"type":"node","id":4042271589,"lat":49.9991871,"lon":8.2764498,"tags":{"addr:housenumber":"12","addr:street":"Fischtorstrasse","addr:postcode":"55116","addr:city":"Mainz","amenity":"doctors","healthcare:speciality":"Psychologischer Psychotherapeut","name":"Praxis Julia Rautenberg","doctors":"Julia Rautenberg","phone":"+49 6131 2144800","fax":"+49 6131 2144809","email":"info@praxisrautenberg.de","website":"https://praxisrautenberg.de/"},"markedAs":"Complete","timeStamp":"2020-04-08-02-56-43"},{"type":"node","id":4056665284,"lat":49.998434,"lon":8.2683124,"tags":{"addr:housenumber":"6","addr:street":"Schillerplatz","addr:postcode":"55116","addr:city":"Mainz","amenity":"doctors","healthcare:speciality":"general","name":"Hausarztpraxis am Fastnachtsbrunnen","opening_hours":"Mo,We-Fr 08:00-10:00, Mo,Tu,Th 15:00-18:00, Fr 15:00-17:00","doctors":"Dr. med. Michael Cuny","phone":"+49 6131 / 22 54 54","email":"info@dr-cuny.de","website":"http://www.dr-cuny.de/","wheelchair":"no"},"markedAs":"Complete","timeStamp":"2020-04-08-02-56-43"},{"type":"node","id":4056665285,"lat":49.9992788,"lon":8.2664692,"tags":{"addr:housenumber":"26-28","addr:street":"Schillerstraße","addr:postcode":"55116","addr:city":"Mainz","amenity":"doctors","healthcare:speciality":"otolaryngology","name":"Gemeinschaftspraxis Partheniadis","opening_hours":"Mo-Fr 08:30-12:15, Mo,Tu,Th,Fr 14:30-17:15","doctors":"Dr. med. Georg Partheniadis, Dr. med. Marina Partheniadis-Stumpf, Dr. med. Silke Fleer","phone":"+49 6131 231558","fax":"+49 6131 231555","website":"https://www.hno-aerzte-mainz.de/","wheelchair":"no"},"markedAs":"Complete","timeStamp":"2020-04-08-02-56-43"},{"type":"node","id":4056665286,"lat":49.9993551,"lon":8.2663322,"tags":{"addr:housenumber":"35","addr:street":"Pfarrer-Dorn-Strasse","addr:postcode":"55127","addr:city":"Mainz","amenity":"doctors","healthcare:speciality":"Allgemeinmedizin","name":"Praxis Norbert  Reuter","opening_hours":"Mo-Fr 08:00-12:00, Mo,Tu,Th 14:00-17:00","doctors":"Dr. med. Norbert  Reuter","phone":"+49 6131 361031","fax":"+49 6131 366053","website":"https://www.diabetes-praxis-reuter.de","wheelchair":"no"},"markedAs":"Complete","timeStamp":"2020-04-08-02-56-43"},{"type":"node","id":4056665288,"lat":49.9992562,"lon":8.2665186,"tags":{"addr:housenumber":"26-28","addr:street":"Schillerstraße","addr:postcode":"55116","addr:city":"Mainz","amenity":"doctors","healthcare:speciality":"ophthalmology","name":"Augenärztliche Praxis M. Kour Sidou","opening_hours":"Mo-Fr 08:00-12:00, Mo,Tu,Th 14:00-17:00","doctors":"M. Kour Sidou","phone":"+49 6131-231633","fax":"+49 6131-231635","website":"http://www.augenpraxis-mainz.de/","wheelchair":"no"},"markedAs":"Complete","timeStamp":"2020-04-08-02-56-43"},{"type":"node","id":4393092693,"lat":50.00666,"lon":8.2625542,"tags":{"addr:housenumber":"9","addr:street":"Hindenburgstraße","addr:postcode":"55118","addr:city":"Mainz","amenity":"doctors","healthcare:speciality":"podiatry;internal","name":"Dr. med. Marc Morgenstern Internist & Diabetologe","opening_hours":"Mo, We, Fr 09:00-12:00; Tu, Th 09:00-12:00, 16:00-18:00","doctors":"Dr. med. Marc Morgenstern","phone":"+49 6131 5768140","fax":"+49 6131 5768150","email":"praxis@diabetes-morgenstern.de","website":"http://www.diabetes-morgenstern.de/","wheelchair":"yes"},"markedAs":"Complete","timeStamp":"2020-04-08-02-56-43"},{"type":"node","id":4426226394,"lat":50.0448861,"lon":8.195912,"tags":{"addr:housenumber":"29","addr:street":"Reichsapfelstraße","addr:postcode":"65201","addr:city":"Wiesbaden","amenity":"doctors","healthcare:speciality":"paediatrics","name":"Praxis Dr. Margret Nafziger-Straub","opening_hours":"Mo,We,Fr 09:00-12:00; Tu,Th 15:00-18:00; \"nach Vereinbarung\"","doctors":"Dr. med. Margret Nafziger-Straub","phone":"+49 611 9200700","fax":"+49 611 9279630"},"markedAs":"Complete","timeStamp":"2020-04-08-02-56-43"},{"type":"node","id":4426226395,"lat":50.0453113,"lon":8.1947007,"tags":{"addr:housenumber":"38","addr:street":"Reichsapfelstraße","addr:postcode":"65201","addr:city":"Wiesbaden","amenity":"doctors","healthcare:speciality":"internal","name":"Hausärztlich-internistische Praxis Dr. Kurz","doctors":"Dr. med. Dietmar Kurz","phone":"+49 611 21100","fax":"+49 611 2383885","email":"praxis@mein-hausarzt-wiesbaden.de","website":"https://www.mein-hausarzt-wiesbaden.de","wheelchair":"no"},"markedAs":"Complete","timeStamp":"2020-04-08-02-56-43"},{"type":"node","id":4437677271,"lat":49.9889327,"lon":8.2709945,"tags":{"addr:housenumber":"11","addr:street":"An der Goldgrube","addr:postcode":"55131","addr:city":"Mainz","amenity":"doctors","healthcare":"doctor","name":"Katholisches Klinikum Mainz","phone":"+49 6131 5751199","fax":"+49 6131 5751508","website":"http://www.kkm-mainz.de/kliniken-zentrenund-fachbereiche/zentrale-notaufnahme/"},"markedAs":"Complete","timeStamp":"2020-04-08-02-56-43"},{"type":"node","id":4448119072,"lat":50.0070904,"lon":8.2943445,"tags":{"addr:housenumber":"33","addr:street":"Salzburger Straße","addr:postcode":"55246","addr:city":"Mainz-Kostheim","amenity":"doctors","healthcare:speciality":"general","name":"Praxis Dr. Seemann","opening_hours":"Mo-Fr 08:00-12:00; Mo-Tu 15:30-18:00; Th 15:30-19:00; Fr 16:00-17:00","doctors":"Dr. med. Karl-Heinz Seemann","phone":"+49 6134 18250","fax":"+49 6134 182518","email":"info@praxis-dr-seemann.de","website":"https://praxis-dr-seemann.de/"},"markedAs":"Complete","timeStamp":"2020-04-08-02-56-43"},{"type":"node","id":4577826791,"lat":50.00344,"lon":8.2115792,"tags":{"addr:housenumber":"6","addr:street":"Waldstraße ","addr:postcode":"55124","addr:city":"Mainz","amenity":"doctors","healthcare:speciality":"urology","name":"Urologosche Praxis Drs. med. R. Jakobi & Dr. med. M. Neuhäuser","opening_hours":"Mo-Tu 09:00-12:00,15:00-17:00; We 09:00-12:00; Fr 09:00-13:00; Th 09:00-12:00,16:00-18:00","doctors":"Dr. med. Monika Neuhäuser, Dr. med. Rüdiger Jakobi, Privat-Dozent Dr. med. Sebastian Frees","phone":"+49 6131 46036","fax":"+49 6131 44244","email":"info@urologie-gonsenheim.de","website":"http://www.urologie-gonsenheim.de"},"markedAs":"Complete","timeStamp":"2020-04-08-02-56-43"},{"type":"node","id":4591424195,"lat":50.0204127,"lon":8.2301497,"tags":{"addr:housenumber":"73","addr:street":"Hauptstraße","addr:postcode":"55120","addr:city":"Mainz","amenity":"doctors","healthcare:speciality":"Innere Medizin, Allgemeinmedizin","name":"Praxis Mombach","opening_hours":"Th,Sa-Tu 09:00-12:00,15:00-17:30; We,Fr 09:00-12:00","doctors":"Dr. med. Julia Lörke, Dr. med. Susanne Sosa y Fink, Dr. med. Hans Cölle, Dr. med. Eva Frenschkowski","phone":"+49 6131 693140","fax":"+49 6131 6931426","email":"praxis@coelle-online.de","website":"https://www.praxis-mombach.de/"},"markedAs":"Complete","timeStamp":"2020-04-08-02-56-43"},{"type":"node","id":4594171290,"lat":50.004807,"lon":8.2595217,"tags":{"addr:housenumber":"20","addr:street":"Boppstraße","addr:postcode":"55118","addr:city":"Mainz","amenity":"doctors","healthcare:speciality":"dermatology","email":"hautarzt-koehler@web.de","name":"Dermatologe & Venerologe Lars Köhler","opening_hours":"Mo-Tu,Fr 08:30-12:00,14:00-17:00; We 07:30-12:00; Th 08:30-11:30,14:30-18:30","doctors":"Dr. med. Lars Köhler","phone":"+49 6131 6226522","fax":"+49 6131 6226523","website":"http://www.hautarzt-koehler.de"},"markedAs":"Complete","timeStamp":"2020-04-08-02-56-43"},{"type":"node","id":4601279590,"lat":49.9955921,"lon":8.2744639,"tags":{"addr:housenumber":"34","addr:street":"Holzhofstraße","addr:postcode":"55116","addr:city":"Mainz","amenity":"doctors","healthcare:speciality":"Frauenheilkunde, Geburtshilfe","name":"Praxis Dr.med. Wolfgang Kasper","opening_hours":"Mo,Tu,Th 08:30-12:30, We 07:30-12:00, Fr 07:30-15:00, Mo,Tu 14:00-17:00, Th 16:00-20:00","doctors":"Dr. med. Wolfgang Kasper","phone":"+49 6131 233838","fax":"+49 6131 233839","toilets:wheelchair":"no","wheelchair":"no"},"markedAs":"Complete","timeStamp":"2020-04-08-02-56-43"},{"type":"node","id":4933680322,"lat":49.9594282,"lon":8.2014735,"tags":{"addr:housenumber":"6","addr:street":"Hindemithstrasse","addr:postcode":"55127","addr:city":"Mainz","amenity":"doctors","healthcare:speciality":"","name":"Praxis Margarita Gomer","opening_hours":"Mo 08:00-10:45,15:00-16:30; Tu 15:00-16:30; Th 15:00-17:30; Fr 08:00-10:45","doctors":"Dipl. Med. Margarita Gomer","phone":"+49 6131 732374","fax":"+49 6131 732375","email":"info@med-gomer.de","website":"http://www.med-gomer.de/"},"markedAs":"Complete","timeStamp":"2020-04-08-02-56-43"},{"type":"node","id":5039919722,"lat":50.0580911,"lon":8.2426076,"tags":{"addr:housenumber":"117","addr:street":"Biebricher Allee","addr:postcode":"65187","addr:city":"Wiesbaden","amenity":"doctors","healthcare:speciality":"Humangenetik","name":"Humangenetik Schwaab","doctors":"Dr. med. Dipl. Biol. Eva Schwaab","phone":"+49611333137","fax":"+49 611 333119","email":"Dr_Schwaab@t-online.de","website":"https://www.humangenetik-online.de/"},"markedAs":"Complete","timeStamp":"2020-04-08-02-56-43"},{"type":"node","id":5113646351,"lat":49.9874291,"lon":8.1778519,"tags":{"addr:housenumber":"9","addr:street":"Prunkgasse","addr:postcode":"55126","addr:city":"Mainz","amenity":"doctors","healthcare:speciality":"general","name":"Gemeinschaftspraxis Dr. König & Dr. Nadler","opening_hours":"Mo-Fr 08:00-12:00, Mo,Tu,Th,Fr 16:00-18:00","doctors":"Dr. med. Ortrud Nadler, Dr.med. Wolfram König","phone":"+49 6131 472037","fax":"+49 6131 472041"},"markedAs":"Complete","timeStamp":"2020-04-08-02-56-43"},{"type":"node","id":5158679621,"lat":49.9978892,"lon":8.2666391,"tags":{"addr:housenumber":"13","addr:street":"Emmerich-Josef-Strasse","addr:postcode":"55116","addr:city":"Mainz","amenity":"doctors","healthcare:speciality":"radiology","name":"Radiologische Gemeinschaftspraxis Dr. Kaltenborn & Dr. Willingstorfer","opening_hours":"Mo-Tu, Th-Fr 07:45-18:00; We, Sa-Su 07:45-14:00","doctors":"Dr. med. Harald A. Kaltenborn, Dr. med. Wolf J. Willingstorfer","phone":"+49 6131 224122","fax":"+49 6131 4813054","email":"","website":"https://www.radiologen-am-schillerplatz.de/%C3%A4rzteteam/"},"markedAs":"Complete","timeStamp":"2020-04-08-02-56-43"},{"type":"node","id":5268478843,"lat":50.0022015,"lon":8.2622362,"tags":{"addr:housenumber":"12","addr:street":"Kaiserstraße","addr:postcode":"55116","addr:city":"Mainz","amenity":"doctors","healthcare:speciality":"general;internal","name":"Praxis Dr. med. Reinhold Wünstel","opening_hours":"Mo-Fr 08:00-12:00; Mo-Tu,Th-Fr 15:00-17:00","doctors":"Dr. med. Reinhold Wünstel","phone":"+49 6131 223034","fax":"+49 6131 1432624","wheelchair":"no"},"markedAs":"Complete","timeStamp":"2020-04-08-02-56-43"},{"type":"node","id":5299110678,"lat":49.9887793,"lon":8.2702957,"tags":{"addr:housenumber":"11","addr:street":"An der Goldgrube","addr:postcode":"55131","addr:city":"Mainz","amenity":"doctors","healthcare:speciality":"emergency","name":"Ärztliche Bereitschaftspraxis","opening_hours":"Mo-Fr 19:00-07:00, Fr 16:00-24:00, Sa-Su 00:00-24:00, Mo 00:00-07:00, We 14:00-07:00, PH 00:00-24:00","operator":"Kassenärztliche Vereinigung Rheinland-Pfalz (KV RLP)","phone":"+49 116117, +49 6131 19292"},"markedAs":"Complete","timeStamp":"2020-04-08-02-56-43"},{"type":"node","id":5310155537,"lat":50.0049178,"lon":8.2622454,"tags":{"addr:housenumber":"14","addr:street":"Adam-Karrillon-Straße","addr:postcode":"55118","addr:city":"Mainz","amenity":"doctors","healthcare:speciality":"general","name":"Praxis Dr. Gisela Lachmann","opening_hours":"Mo 09:00-12:00, Tu-Fr 08:00-12:00, Mo,Tu 15:00-18:00, Th 16:00-19:00","doctors":"Dr. med. Gisela Lachmann","phone":"+49 6131 674501","fax":"+49 6131 616102"},"markedAs":"Complete","timeStamp":"2020-04-08-02-56-43"},{"type":"node","id":5327912920,"lat":50.0008171,"lon":8.262801,"tags":{"addr:housenumber":"2","addr:street":"Bahnhofstraße","addr:postcode":"55116","addr:city":"Mainz","amenity":"doctors","healthcare:speciality":"urology","name":"Praxis Dr. Kaya","doctors":"Dr. med. Bülent Kaya","phone":"+49 6131 228802","fax":"+49 6131 9713937","email":"praxis@dr-kaya.de","website":"https://www.dr-kaya.de/","wheelchair":"yes"},"markedAs":"Complete","timeStamp":"2020-04-08-02-56-43"},{"type":"node","id":5341154821,"lat":49.9937007,"lon":8.2777622,"tags":{"addr:housenumber":"5","addr:street":"Holzhofstraße","addr:postcode":"55116","addr:city":"Mainz","amenity":"doctors","healthcare:speciality":"neurology;psychiatry","name":"Praxis für Neurologie u. Psychiatrie am Römischen Theater","opening_hours":"Mo 08:00-12:00, 14:00-17:00; Tu 08:00-12:00, 14:30-17:00; We 08:00-12:00; Th 08:00-12:00, 14:00-18:00; Su, Fr 08:00-12:00, 14:00-16:00","doctors":"Dr. med. Christiane Hansen, Dr. med. Thomas Klingler, Prof. Dr. med. Jürgen Marx, Dr. med. Wolfgang Rossbach, Dr. med. Markus Lorscheider, Frau Dr. med. Ines Schaberger","phone":"+49 6131 222344","email":"info@neurologie-psychiatrie-mainz.de","website":"https://www.neurologie-psychiatrie-mainz.de/"},"markedAs":"Complete","timeStamp":"2020-04-08-02-56-43"},{"type":"node","id":5350621674,"lat":50.0365861,"lon":8.2396415,"tags":{"addr:housenumber":"11","addr:street":"Adolf-Todt-Strasse","addr:postcode":"65203","addr:city":"Wiesbaden","amenity":"doctors","healthcare:speciality":"Allgemeinmedizin","name":"Praxis F.G. Brass","doctors":"Dr. med. Frank Gregor Brass","phone":"+49 611 66787","fax":"+49 611 1860869","email":"hausarzt@praxis-brass.de","website":"http://www.praxis-brass.de/"},"markedAs":"Complete","timeStamp":"2020-04-08-02-56-43"},{"type":"node","id":5366032724,"lat":49.9997981,"lon":8.2769624,"tags":{"addr:housenumber":"11","addr:street":"Fischtorplatz ","addr:postcode":"55116","addr:city":"Mainz","amenity":"doctors","healthcare:speciality":"plastic_surgery","name":"Plastische und Ästhetische Chirurgie Dr. med. Tilman Ferbert","doctors":"Dr. Tilman Ferbert","phone":"+49 6131 972650","fax":"+49 6131 9726511","email":"info@dr-ferbert.de","website":"http://www.dr-ferbert.de"},"markedAs":"Complete","timeStamp":"2020-04-08-02-56-43"},{"type":"node","id":5370637535,"lat":49.999506,"lon":8.2659349,"tags":{"addr:housenumber":"36","addr:street":"Schillerstraße","addr:postcode":"55116","addr:city":"Mainz","amenity":"doctors","healthcare:speciality":"urology","name":"Urologische Praxis Dr. med. Achim Hub","opening_hours":"Mo-Tu 08:00-12:00,14:00-17:00; We 08:00-12:00; Th 08:00-12:00,14:00-18:00; Fr 08:00-12:00,13:00-14:30","doctors":"Dr. med. Achim Hub","phone":"+49 6131 231001","fax":"+49 6131 231612","email":"achim-hub@t-online.de","website":"https://www.uropraxishub.de/","wheelchair":"limited"},"markedAs":"Complete","timeStamp":"2020-04-08-02-56-43"},{"type":"node","id":5429228921,"lat":50.0148212,"lon":8.2293859,"tags":{"addr:street":"An der Brunnenstube","addr:housenumber":"17","addr:postcode":"55120","addr:city":"Mainz","amenity":"doctors","healthcare:speciality":"Anästhesiologie, Palliativmedizin","name":"Praxis Dr. med. Bernadette Gresch-Merz","doctors":"Dr. med. Bernadette Gresch-Merz","phone":"+49 6131 466742","fax":"+49 6131 466743","email":"gresch-merz@t-online.de","website":"https://www.praxis-gresch-merz.de","toilets:wheelchair":"yes","wheelchair":"yes"},"markedAs":"Complete","timeStamp":"2020-04-08-02-56-43"},{"type":"node","id":5467935990,"lat":50.0469239,"lon":8.2000788,"tags":{"addr:housenumber":"4","addr:street":"Steinritzstraße","addr:postcode":"65201","addr:city":"Wiesbaden","amenity":"doctors","healthcare:speciality":"general","name":"Raisa Roitman, Allgemein- und Unfallmedizin","opening_hours":"Mo-Fr 09:00-11:00, Mo,Th 16:00-18:00","doctors":"Raisa Roitman","phone":"+49 611 21516","fax":"+49 611 260132"},"markedAs":"Complete","timeStamp":"2020-04-08-02-56-43"},{"type":"node","id":5540516480,"lat":50.0553113,"lon":8.1937159,"tags":{"addr:housenumber":"29","addr:street":"Heinrich-Zille-Straße","addr:postcode":"65201","addr:city":"Wiesbaden","amenity":"doctors","healthcare:speciality":"gynaecology","name":"Gemeinschaftspraxis Dr.med.Frauke Schmidt und Heike Sturm","opening_hours":"Mo 09:00-13:00, 14:30-17:30, Tu 08:00-12:00, 15:30-18:30, We 08:00-13:00, Th 08:00-12:00, 13:00-17:00, Fr 08:00-13:00","doctors":"Dr. Frauke Schmidt, Dr. Heike Sturm","phone":"+49 611 25700","fax":"+49 611 9200374","email":"schmidt-sturm@gmx.de","website":"www.schmidt-sturm.com"},"markedAs":"Complete","timeStamp":"2020-04-08-02-56-43"},{"type":"node","id":5540527848,"lat":50.0554315,"lon":8.1938217,"tags":{"addr:housenumber":"25","addr:street":"Heinrich-Zille-Straße","addr:postcode":"65201","addr:city":"Wiesbaden","amenity":"doctors","healthcare":"doctor","healthcare:speciality":"general","name":"Praxis Andrea Wenz","opening_hours":"Mo 09:00-12:00, 15:00-18:00, Tu-We 09:00-12:00, Th 09:00-12:00, 15:00-18:00, Fr 09:00-14:00","doctors":"Andrea Wenz","phone":"+49 611 25287","fax":"+49 611 2047207","email":"kontakt@praxisandreawenz.de","website":"https://www.praxisandreawenz.de/"},"markedAs":"Complete","timeStamp":"2020-04-08-02-56-43"},{"type":"node","id":5634852822,"lat":50.0000571,"lon":8.256526,"tags":{"addr:housenumber":"3-5","addr:street":"Wallstraße","addr:postcode":"55116","addr:city":"Mainz","amenity":"doctors","healthcare:speciality":"Laboratoriumsmedizin, Nuklearmedizin","name":"Bioscientia Nuklearmedizin Mainz","doctors":"Dr. med. Stefan Käshammer, Dr. med. Tatiana Kandror","phone":"+49 6131 28250","fax":"+49 6131 282588","email":"nuklearmedizin-mainz@bioscientia.de","website":"https://www.bioscientia.com/nuklearmedizin-mainz/","wheelchair":"barrierefrei"},"markedAs":"Complete","timeStamp":"2020-04-08-02-56-43"},{"type":"node","id":6109180670,"lat":49.980647,"lon":8.2446113,"tags":{"addr:housenumber":"5","addr:street":"Bert-Brecht-Straße","addr:postcode":"55128","addr:city":"Mainz","amenity":"doctors","healthcare:speciality":"internal;general;traditional_chinese_medicine;chiropractic","name":"Hausarztpraxis Dr. Jörg Geier & Kollegen","doctors":"Dr. med. Jörg Geier MSc, Dr. med. Janine Burkhardtm, Nicole Huber, Dr. Beate Schamberger","phone":"+49  6131 34701","fax":"+49 6131 338747","email":"info@praxis-geier.de","website":"https://www.praxis-geier.de/"},"markedAs":"Complete","timeStamp":"2020-04-08-02-56-43"},{"type":"node","id":6312454956,"lat":50.0066761,"lon":8.2625047,"tags":{"addr:housenumber":"9","addr:street":"Hindenburgstrasse","addr:postcode":"55118","addr:city":"Mainz","amenity":"doctors","healthcare:speciality":"paediatrics","name":"Gemeinschaftspraxis Dres. Markus Schaefer und Marion Fritsche","opening_hours":"Mo-Tu,Th 09:30-11:30,14:30-17:30; We,Fr 09:30-12:00; PH closed","doctors":"Dr. Markus Schaefer, Dr. Marion Fritsche","phone":"+49 6131 961496","fax":"+49 6131 961498"},"markedAs":"Complete","timeStamp":"2020-04-08-02-56-43"},{"type":"node","id":6376550578,"lat":50.005882,"lon":8.3077622,"tags":{"addr:housenumber":"40","addr:street":"Steinern-Kreuz-Weg","addr:postcode":"55116","addr:city":"Mainz","amenity":"doctors","healthcare":"doctor","healthcare:speciality":"naturopathy;naturopathy","name":"Hausarztpraxis Kostheim","doctors":"Dr. med. Elke Schulze Schüntrup","phone":"+49 6134 62124","fax":"+49 6134 4628","email":"espuentrup@aol.com","website":"https://www.hausarztpraxis-kostheim.de/"},"markedAs":"Complete","timeStamp":"2020-04-08-02-56-43"},{"type":"node","id":6561336791,"lat":49.9986846,"lon":8.2700783,"tags":{"addr:housenumber":"9","addr:street":"Ludwigstraße","addr:postcode":"55116","addr:city":"Mainz","amenity":"doctors","healthcare:speciality":"Augenheilkunde","name":"Dr. med. Hartmut Benning","opening_hours":"Mo-Fr 08:30-11:00, Tu,Th 14:30-17:00","doctors":"Dr. med. Hartmut Benning","phone":"+49 6131 674460","email":"anmeldung@augenarzt-benning.de","website":"https://www.augenarzt-benning.de/"},"markedAs":"Complete","timeStamp":"2020-04-08-02-56-43"},{"type":"node","id":6857036988,"lat":50.0585538,"lon":8.2424903,"tags":{"addr:housenumber":"107","addr:street":"Biebricher Allee","addr:postcode":"65187","addr:city":"Wiesbaden","amenity":"doctors","healthcare:speciality":"general","name":"Gemeinschaftspraxis Dres. med. Tobias und Anette Stirn, Udo Emmrich","doctors":"Dr. med. Tobias Stirn, Dr. med. Anette Stirn, Dr. med. Udo Emmrich","opening_hours":"Mo 08:00-12:00,17:00-19:00; Tu-We 08:00-12:00; Th 08:00-12:00,17:00-19:00; Fr 08:00-12:00","phone":"+49 611 843025","fax":"+49 611 843026","email":" kontakt@praxis-stirn-emmrich.de","website":"https://www.praxis-stirn-emmrich.de"},"markedAs":"Complete","timeStamp":"2020-04-08-02-56-43"},{"type":"node","id":7008958792,"lat":50.0000286,"lon":8.2376134,"tags":{"addr:housenumber":"1","addr:street":"Ida-von-Hahn-Straße","addr:postcode":"55122","addr:city":"Mainz","amenity":"doctors","healthcare:speciality":"Psychologischer Psychotherapeut","name":"Praxis für Psychotherapie und Beratung in Mainz Dr. Sigrid Schiller","doctors":"Dr. Sigrid Schiller","phone":"+49 179 5191712","website":"http://www.psychotherapie-dr-sigrid-schiller.de/"},"markedAs":"Complete","timeStamp":"2020-04-08-02-56-43"},{"type":"node","id":7069850504,"lat":50.0100442,"lon":8.2610663,"tags":{"addr:street":"Wallaustraße","addr:housenumber":"31","addr:postcode":"55118","addr:city":"Mainz","amenity":"doctors","healthcare:speciality":"Allgemeinmedizin","name":"Neustadtpraxis","opening_hours":"Mo 08:00-17:00; Tu 07:30-17:00; We 08:00-12:00; Th 08:00-17:00; Fr 08:00-13:00","doctors":"Dr. med. Cornelia Mohrmann, Dr. med. Sönke Kraak","phone":"+40 6131 96313-1","fax":"+40 6131 96313-2","email":"info@neustadtpraxis.de","website":"https://www.neustadtpraxis.de","wheelchair":"yes"},"markedAs":"Complete","timeStamp":"2020-04-08-02-56-43"},{"type":"node","id":7111642032,"lat":50.010936,"lon":8.2821999,"tags":{"addr:housenumber":"32-24","addr:street":"In der Witz","addr:postcode":"55252","addr:city":"Mainz-Kastel","amenity":"doctors","healthcare:speciality":"gynaecology","name":"Gemeinschaftspraxis Dr. Klinzing-Brand, Dr. Scheit","opening_hours":"Mo-Fr 08:00-12:00, Mo,We 15:00-18:00, Th 14:00-17:00","doctors":"Dr. Annette Klinzing-Brand, Dr. Astrid Scheit","phone":"+49 6134 21115","fax":"+49 6134 21329","email":"praxis@frauenaerzte-kastel.de","website":"https://www.frauenaerzte-kastel.de/"},"markedAs":"Complete","timeStamp":"2020-04-08-02-56-43"},{"type":"node","id":7382821109,"lat":50.0108014,"lon":8.2815872,"tags":{"addr:housenumber":"4","addr:street":"Ludwigsplatz","addr:postcode":"55252","addr:city":"Mainz-Kastel","amenity":"doctors","healthcare:speciality":"geriatrics;chiropractic;internal","name":"Gemeinschaftspraxis Karin & Stefan Bastisch","opening_hours":"Mo-Th 08:30-12:30, Mo 15:00-19:00, Tu,Th 15:00-18:00, Fr 08:30-14:00","doctors":"Katrin Bastisch, Stefan Bastisch","phone":"+49 6134 64155","fax":"+49 6134 23788","email":"mail@praxis-bastisch.de","website":"https://www.praxis-bastisch.de/"},"markedAs":"Complete","timeStamp":"2020-04-09-04-40-50"},{"type":"node","id":7382821110,"lat":50.0108255,"lon":8.2815433,"tags":{"addr:housenumber":"2-4","addr:street":"Ludwigsplatz ","addr:postcode":"55252","addr:city":"Mainz-Kastel","amenity":"doctors","healthcare":"psychotherapist","healthcare:speciality":"psychiatry;traditional_chinese_medicine;acupuncture","name":"Praxis Dorn & Appel","doctors":"Dr. med. Claudia Dorn, Dr. med. Dipl. Psych. Gerhard Appel","phone":"+49 6134 22157","fax":"+49 6134 640142","email":"praxis.appeldorn@t-online.de","website":"https://praxis-dorn-appel.de/","wheelchair":"barrierefrei"},"markedAs":"Complete","timeStamp":"2020-04-09-04-40-50"},{"type":"node","id":7382821111,"lat":50.0108004,"lon":8.2814995,"tags":{"addr:housenumber":"4","addr:street":"Ludwigplatz ","addr:postcode":"55252","addr:city":"Mainz-Kastel","amenity":"doctors","healthcare:speciality":"ophthalmology","name":"Gemeinschaftspraxis Jost und Brigitta Elborg","opening_hours":"Mo-Th 09:00-13:00; Fr 09:00-12:00","doctors":"Dr. med. Jost Elborg, Dr. med. Brigitta Elborg","phone":"+49 611 372645","fax":"+49 611 372606"},"markedAs":"Complete","timeStamp":"2020-04-09-04-40-50"},{"id":"test1"}]